{"type":"FeatureCollection","features":[{"type":"Feature","properties":{"node_id":"CITY-1643318494","node_type":"major-city","name":"Moscow","population":17332000,"capital":"primary","gameplay_status":"candidate","source":"SimpleMaps-via-world-cities-json","territory_id":"RU-03","country_code":"RU"},"geometry":{"type":"Point","coordinates":[37.6178,55.7558]}},{"type":"Feature","properties":{"node_id":"CITY-1792756324","node_type":"major-city","name":"Istanbul","population":16079000,"capital":"admin","gameplay_status":"candidate","source":"SimpleMaps-via-world-cities-json","territory_id":"TR-01","country_code":"TR"},"geometry":{"type":"Point","coordinates":[28.955,41.0136]}},{"type":"Feature","properties":{"node_id":"CITY-1826645935","node_type":"major-city","name":"London","population":11262000,"capital":"primary","gameplay_status":"candidate","source":"SimpleMaps-via-world-cities-json","territory_id":"GB-04","country_code":"GB"},"geometry":{"type":"Point","coordinates":[-0.1275,51.5072]}},{"type":"Feature","properties":{"node_id":"CITY-1250015082","node_type":"major-city","name":"Paris","population":11060000,"capital":"primary","gameplay_status":"candidate","source":"SimpleMaps-via-world-cities-json","territory_id":"FR-02","country_code":"FR"},"geometry":{"type":"Point","coordinates":[2.3522,48.8567]}},{"type":"Feature","properties":{"node_id":"CITY-1724616994","node_type":"major-city","name":"Madrid","population":6211000,"capital":"primary","gameplay_status":"candidate","source":"SimpleMaps-via-world-cities-json","territory_id":"ES-04","country_code":"ES"},"geometry":{"type":"Point","coordinates":[-3.7033,40.4169]}},{"type":"Feature","properties":{"node_id":"CITY-1643616350","node_type":"major-city","name":"Saint Petersburg","population":5384342,"capital":"admin","gameplay_status":"candidate","source":"SimpleMaps-via-world-cities-json","territory_id":"RU-02","country_code":"RU"},"geometry":{"type":"Point","coordinates":[30.3167,59.95]}},{"type":"Feature","properties":{"node_id":"CITY-1724594040","node_type":"major-city","name":"Barcelona","population":4800000,"capital":"admin","gameplay_status":"candidate","source":"SimpleMaps-via-world-cities-json","territory_id":"ES-03","country_code":"ES"},"geometry":{"type":"Point","coordinates":[2.1769,41.3825]}},{"type":"Feature","properties":{"node_id":"CITY-1276451290","node_type":"major-city","name":"Berlin","population":4473101,"capital":"primary","gameplay_status":"candidate","source":"SimpleMaps-via-world-cities-json","territory_id":"DE-04","country_code":"DE"},"geometry":{"type":"Point","coordinates":[13.405,52.52]}},{"type":"Feature","properties":{"node_id":"CITY-1300715560","node_type":"major-city","name":"Athens","population":3041131,"capital":"primary","gameplay_status":"candidate","source":"SimpleMaps-via-world-cities-json","territory_id":"GR-02","country_code":"GR"},"geometry":{"type":"Point","coordinates":[23.7281,37.9842]}},{"type":"Feature","properties":{"node_id":"CITY-1348611435","node_type":"major-city","name":"Budapest","population":2997958,"capital":"primary","gameplay_status":"candidate","source":"SimpleMaps-via-world-cities-json","territory_id":"HU-01","country_code":"HU"},"geometry":{"type":"Point","coordinates":[19.0514,47.4925]}},{"type":"Feature","properties":{"node_id":"CITY-1804382913","node_type":"major-city","name":"Kyiv","population":2963199,"capital":"primary","gameplay_status":"candidate","source":"SimpleMaps-via-world-cities-json","territory_id":"UA-02","country_code":"UA"},"geometry":{"type":"Point","coordinates":[30.5233,50.45]}},{"type":"Feature","properties":{"node_id":"CITY-1826423213","node_type":"major-city","name":"Birmingham","population":2919600,"capital":null,"gameplay_status":"candidate","source":"SimpleMaps-via-world-cities-json","territory_id":"GB-03","country_code":"GB"},"geometry":{"type":"Point","coordinates":[-1.9025,52.48]}},{"type":"Feature","properties":{"node_id":"CITY-1792903330","node_type":"major-city","name":"Bursa","population":2901396,"capital":"admin","gameplay_status":"candidate","source":"SimpleMaps-via-world-cities-json","territory_id":"TR-01","country_code":"TR"},"geometry":{"type":"Point","coordinates":[29.05,40.1833]}},{"type":"Feature","properties":{"node_id":"CITY-1276171358","node_type":"major-city","name":"Stuttgart","population":2787724,"capital":"admin","gameplay_status":"candidate","source":"SimpleMaps-via-world-cities-json","territory_id":"DE-05","country_code":"DE"},"geometry":{"type":"Point","coordinates":[9.18,48.7775]}},{"type":"Feature","properties":{"node_id":"CITY-1620619017","node_type":"major-city","name":"Lisbon","population":2719000,"capital":"primary","gameplay_status":"candidate","source":"SimpleMaps-via-world-cities-json","territory_id":"PT-02","country_code":"PT"},"geometry":{"type":"Point","coordinates":[-9.15,38.7253]}},{"type":"Feature","properties":{"node_id":"CITY-1826246335","node_type":"major-city","name":"Manchester","population":2705000,"capital":null,"gameplay_status":"candidate","source":"SimpleMaps-via-world-cities-json","territory_id":"GB-02","country_code":"GB"},"geometry":{"type":"Point","coordinates":[-2.2453,53.4794]}},{"type":"Feature","properties":{"node_id":"CITY-1276692352","node_type":"major-city","name":"Munich","population":2606021,"capital":"admin","gameplay_status":"candidate","source":"SimpleMaps-via-world-cities-json","territory_id":"DE-06","country_code":"DE"},"geometry":{"type":"Point","coordinates":[11.575,48.1375]}},{"type":"Feature","properties":{"node_id":"CITY-1276041799","node_type":"major-city","name":"Hamburg","population":2484800,"capital":"admin","gameplay_status":"candidate","source":"SimpleMaps-via-world-cities-json","territory_id":"DE-01","country_code":"DE"},"geometry":{"type":"Point","coordinates":[10,53.55]}},{"type":"Feature","properties":{"node_id":"CITY-1112348503","node_type":"major-city","name":"Minsk","population":2009786,"capital":"primary","gameplay_status":"candidate","source":"SimpleMaps-via-world-cities-json","territory_id":"BY-02","country_code":"BY"},"geometry":{"type":"Point","coordinates":[27.5667,53.9]}},{"type":"Feature","properties":{"node_id":"CITY-1040261752","node_type":"major-city","name":"Vienna","population":1973403,"capital":"primary","gameplay_status":"candidate","source":"SimpleMaps-via-world-cities-json","territory_id":"AT-02","country_code":"AT"},"geometry":{"type":"Point","coordinates":[16.3725,48.2083]}},{"type":"Feature","properties":{"node_id":"CITY-1642414442","node_type":"major-city","name":"Bucharest","population":1883425,"capital":"primary","gameplay_status":"candidate","source":"SimpleMaps-via-world-cities-json","territory_id":"RO-02","country_code":"RO"},"geometry":{"type":"Point","coordinates":[26.1039,44.4325]}},{"type":"Feature","properties":{"node_id":"CITY-1616024847","node_type":"major-city","name":"Warsaw","population":1860281,"capital":"primary","gameplay_status":"candidate","source":"SimpleMaps-via-world-cities-json","territory_id":"PL-03","country_code":"PL"},"geometry":{"type":"Point","coordinates":[21.0111,52.23]}},{"type":"Feature","properties":{"node_id":"CITY-1056469830","node_type":"major-city","name":"Brussels","population":1743000,"capital":"primary","gameplay_status":"candidate","source":"SimpleMaps-via-world-cities-json","territory_id":"BE-01","country_code":"BE"},"geometry":{"type":"Point","coordinates":[4.3525,50.8467]}},{"type":"Feature","properties":{"node_id":"CITY-1752425602","node_type":"major-city","name":"Stockholm","population":1611776,"capital":"primary","gameplay_status":"candidate","source":"SimpleMaps-via-world-cities-json","territory_id":"SE-02","country_code":"SE"},"geometry":{"type":"Point","coordinates":[18.0686,59.3294]}},{"type":"Feature","properties":{"node_id":"CITY-1100762037","node_type":"major-city","name":"Sofia","population":1547779,"capital":"primary","gameplay_status":"candidate","source":"SimpleMaps-via-world-cities-json","territory_id":"BG-01","country_code":"BG"},"geometry":{"type":"Point","coordinates":[23.33,42.7]}},{"type":"Feature","properties":{"node_id":"CITY-1643582706","node_type":"major-city","name":"Yekaterinburg","population":1468833,"capital":"admin","gameplay_status":"candidate","source":"SimpleMaps-via-world-cities-json","territory_id":"RU-04","country_code":"RU"},"geometry":{"type":"Point","coordinates":[60.6128,56.8356]}},{"type":"Feature","properties":{"node_id":"CITY-1528355309","node_type":"major-city","name":"Amsterdam","population":1459402,"capital":"primary","gameplay_status":"candidate","source":"SimpleMaps-via-world-cities-json","territory_id":"NL-01","country_code":"NL"},"geometry":{"type":"Point","coordinates":[4.8936,52.3728]}},{"type":"Feature","properties":{"node_id":"CITY-1804588111","node_type":"major-city","name":"Kharkiv","population":1446107,"capital":"admin","gameplay_status":"candidate","source":"SimpleMaps-via-world-cities-json","territory_id":"UA-03","country_code":"UA"},"geometry":{"type":"Point","coordinates":[36.2311,49.9925]}},{"type":"Feature","properties":{"node_id":"CITY-1688374696","node_type":"major-city","name":"Belgrade","population":1378682,"capital":"primary","gameplay_status":"candidate","source":"SimpleMaps-via-world-cities-json","territory_id":"RS-01","country_code":"RS"},"geometry":{"type":"Point","coordinates":[20.46,44.82]}},{"type":"Feature","properties":{"node_id":"CITY-1380724377","node_type":"major-city","name":"Milan","population":1366180,"capital":"admin","gameplay_status":"candidate","source":"SimpleMaps-via-world-cities-json","territory_id":"IT-01","country_code":"IT"},"geometry":{"type":"Point","coordinates":[9.19,45.4669]}},{"type":"Feature","properties":{"node_id":"CITY-1208763942","node_type":"major-city","name":"Copenhagen","population":1366301,"capital":"primary","gameplay_status":"candidate","source":"SimpleMaps-via-world-cities-json","territory_id":"DK-02","country_code":"DK"},"geometry":{"type":"Point","coordinates":[12.5683,55.6761]}},{"type":"Feature","properties":{"node_id":"CITY-1203744823","node_type":"major-city","name":"Prague","population":1335084,"capital":"primary","gameplay_status":"candidate","source":"SimpleMaps-via-world-cities-json","territory_id":"CZ-01","country_code":"CZ"},"geometry":{"type":"Point","coordinates":[14.4214,50.0875]}},{"type":"Feature","properties":{"node_id":"CITY-1620356810","node_type":"major-city","name":"Porto","population":1278210,"capital":"admin","gameplay_status":"candidate","source":"SimpleMaps-via-world-cities-json","territory_id":"PT-01","country_code":"PT"},"geometry":{"type":"Point","coordinates":[-8.622,41.1621]}},{"type":"Feature","properties":{"node_id":"CITY-1246177997","node_type":"major-city","name":"Helsinki","population":1268296,"capital":"primary","gameplay_status":"candidate","source":"SimpleMaps-via-world-cities-json","territory_id":"FI-01","country_code":"FI"},"geometry":{"type":"Point","coordinates":[24.9375,60.1708]}},{"type":"Feature","properties":{"node_id":"CITY-1643012126","node_type":"major-city","name":"Nizhniy Novgorod","population":1264075,"capital":"admin","gameplay_status":"candidate","source":"SimpleMaps-via-world-cities-json","territory_id":"RU-04","country_code":"RU"},"geometry":{"type":"Point","coordinates":[44.0075,56.3269]}},{"type":"Feature","properties":{"node_id":"CITY-1643101260","node_type":"major-city","name":"Kazan","population":1243500,"capital":"admin","gameplay_status":"candidate","source":"SimpleMaps-via-world-cities-json","territory_id":"RU-04","country_code":"RU"},"geometry":{"type":"Point","coordinates":[49.1089,55.7964]}},{"type":"Feature","properties":{"node_id":"CITY-1643224011","node_type":"major-city","name":"Chelyabinsk","population":1202371,"capital":"admin","gameplay_status":"candidate","source":"SimpleMaps-via-world-cities-json","territory_id":"RU-04","country_code":"RU"},"geometry":{"type":"Point","coordinates":[61.4,55.15]}},{"type":"Feature","properties":{"node_id":"CITY-1372595407","node_type":"major-city","name":"Dublin","population":1173179,"capital":"primary","gameplay_status":"candidate","source":"SimpleMaps-via-world-cities-json","territory_id":"IE-02","country_code":"IE"},"geometry":{"type":"Point","coordinates":[-6.2603,53.35]}},{"type":"Feature","properties":{"node_id":"CITY-1643205757","node_type":"major-city","name":"Samara","population":1169719,"capital":"admin","gameplay_status":"candidate","source":"SimpleMaps-via-world-cities-json","territory_id":"RU-04","country_code":"RU"},"geometry":{"type":"Point","coordinates":[50.1408,53.2028]}},{"type":"Feature","properties":{"node_id":"CITY-1643013518","node_type":"major-city","name":"Rostov","population":1137704,"capital":"admin","gameplay_status":"candidate","source":"SimpleMaps-via-world-cities-json","territory_id":"RU-05","country_code":"RU"},"geometry":{"type":"Point","coordinates":[39.7,47.2333]}},{"type":"Feature","properties":{"node_id":"CITY-1643722928","node_type":"major-city","name":"Ufa","population":1115560,"capital":"admin","gameplay_status":"candidate","source":"SimpleMaps-via-world-cities-json","territory_id":"RU-04","country_code":"RU"},"geometry":{"type":"Point","coordinates":[55.9475,54.7261]}},{"type":"Feature","properties":{"node_id":"CITY-1724991838","node_type":"major-city","name":"Sevilla","population":1100000,"capital":"admin","gameplay_status":"candidate","source":"SimpleMaps-via-world-cities-json","territory_id":"ES-06","country_code":"ES"},"geometry":{"type":"Point","coordinates":[-5.99,37.24]}},{"type":"Feature","properties":{"node_id":"CITY-1276015998","node_type":"major-city","name":"Cologne","population":1083498,"capital":null,"gameplay_status":"candidate","source":"SimpleMaps-via-world-cities-json","territory_id":"DE-02","country_code":"DE"},"geometry":{"type":"Point","coordinates":[6.9528,50.9364]}},{"type":"Feature","properties":{"node_id":"CITY-1578324706","node_type":"major-city","name":"Oslo","population":1064235,"capital":"primary","gameplay_status":"candidate","source":"SimpleMaps-via-world-cities-json","territory_id":"NO-01","country_code":"NO"},"geometry":{"type":"Point","coordinates":[10.7389,59.9133]}},{"type":"Feature","properties":{"node_id":"CITY-1643811064","node_type":"major-city","name":"Voronezh","population":1050602,"capital":"admin","gameplay_status":"candidate","source":"SimpleMaps-via-world-cities-json","territory_id":"RU-05","country_code":"RU"},"geometry":{"type":"Point","coordinates":[39.2106,51.6717]}},{"type":"Feature","properties":{"node_id":"CITY-1643294442","node_type":"major-city","name":"Perm","population":1048005,"capital":"admin","gameplay_status":"candidate","source":"SimpleMaps-via-world-cities-json","territory_id":"RU-04","country_code":"RU"},"geometry":{"type":"Point","coordinates":[56.2489,58.0139]}},{"type":"Feature","properties":{"node_id":"CITY-1804178102","node_type":"major-city","name":"Odesa","population":1017699,"capital":"admin","gameplay_status":"candidate","source":"SimpleMaps-via-world-cities-json","territory_id":"UA-04","country_code":"UA"},"geometry":{"type":"Point","coordinates":[30.7326,46.4775]}},{"type":"Feature","properties":{"node_id":"CITY-1643577201","node_type":"major-city","name":"Volgograd","population":1015586,"capital":"admin","gameplay_status":"candidate","source":"SimpleMaps-via-world-cities-json","territory_id":"RU-05","country_code":"RU"},"geometry":{"type":"Point","coordinates":[44.5147,48.7086]}},{"type":"Feature","properties":{"node_id":"CITY-1428586192","node_type":"major-city","name":"Riga","population":920643,"capital":"primary","gameplay_status":"candidate","source":"SimpleMaps-via-world-cities-json","territory_id":"LV-01","country_code":"LV"},"geometry":{"type":"Point","coordinates":[24.1064,56.9489]}},{"type":"Feature","properties":{"node_id":"CITY-1191233290","node_type":"major-city","name":"Zagreb","population":809268,"capital":"primary","gameplay_status":"candidate","source":"SimpleMaps-via-world-cities-json","territory_id":"HR-01","country_code":"HR"},"geometry":{"type":"Point","coordinates":[15.9833,45.8167]}},{"type":"Feature","properties":{"node_id":"CITY-1440887149","node_type":"major-city","name":"Vilnius","population":708203,"capital":"primary","gameplay_status":"candidate","source":"SimpleMaps-via-world-cities-json","territory_id":"LT-01","country_code":"LT"},"geometry":{"type":"Point","coordinates":[25.28,54.6872]}},{"type":"Feature","properties":{"node_id":"CITY-1498011437","node_type":"major-city","name":"Chisinau","population":702300,"capital":"primary","gameplay_status":"candidate","source":"SimpleMaps-via-world-cities-json","territory_id":"MD-01","country_code":"MD"},"geometry":{"type":"Point","coordinates":[28.8353,47.0228]}},{"type":"Feature","properties":{"node_id":"CITY-1807600615","node_type":"major-city","name":"Skopje","population":640000,"capital":"primary","gameplay_status":"candidate","source":"SimpleMaps-via-world-cities-json","territory_id":"MK-01","country_code":"MK"},"geometry":{"type":"Point","coordinates":[21.4317,41.9961]}},{"type":"Feature","properties":{"node_id":"CITY-1528799905","node_type":"major-city","name":"The Hague","population":548320,"capital":"primary","gameplay_status":"candidate","source":"SimpleMaps-via-world-cities-json","territory_id":"NL-01","country_code":"NL"},"geometry":{"type":"Point","coordinates":[4.31,52.08]}},{"type":"Feature","properties":{"node_id":"CITY-1470574399","node_type":"major-city","name":"Valletta","population":480134,"capital":"primary","gameplay_status":"candidate","source":"SimpleMaps-via-world-cities-json","territory_id":"MT-01","country_code":"MT"},"geometry":{"type":"Point","coordinates":[14.5125,35.8983]}},{"type":"Feature","properties":{"node_id":"CITY-1703195001","node_type":"major-city","name":"Bratislava","population":475503,"capital":"primary","gameplay_status":"candidate","source":"SimpleMaps-via-world-cities-json","territory_id":"SK-01","country_code":"SK"},"geometry":{"type":"Point","coordinates":[17.1097,48.1439]}},{"type":"Feature","properties":{"node_id":"CITY-1233260021","node_type":"major-city","name":"Tallinn","population":438341,"capital":"primary","gameplay_status":"candidate","source":"SimpleMaps-via-world-cities-json","territory_id":"EE-01","country_code":"EE"},"geometry":{"type":"Point","coordinates":[24.7453,59.4372]}},{"type":"Feature","properties":{"node_id":"CITY-1008162156","node_type":"major-city","name":"Tirana","population":418495,"capital":"primary","gameplay_status":"candidate","source":"SimpleMaps-via-world-cities-json","territory_id":"AL-01","country_code":"AL"},"geometry":{"type":"Point","coordinates":[19.8178,41.3289]}},{"type":"Feature","properties":{"node_id":"CITY-1070966777","node_type":"major-city","name":"Sarajevo","population":419957,"capital":"primary","gameplay_status":"candidate","source":"SimpleMaps-via-world-cities-json","territory_id":"BA-01","country_code":"BA"},"geometry":{"type":"Point","coordinates":[18.4131,43.8564]}},{"type":"Feature","properties":{"node_id":"CITY-1196944155","node_type":"major-city","name":"Nicosia","population":330000,"capital":"primary","gameplay_status":"candidate","source":"SimpleMaps-via-world-cities-json","territory_id":"CY-01","country_code":"CY"},"geometry":{"type":"Point","coordinates":[33.365,35.1725]}},{"type":"Feature","properties":{"node_id":"CITY-1705917455","node_type":"major-city","name":"Ljubljana","population":286745,"capital":"primary","gameplay_status":"candidate","source":"SimpleMaps-via-world-cities-json","territory_id":"SI-01","country_code":"SI"},"geometry":{"type":"Point","coordinates":[14.5061,46.0514]}},{"type":"Feature","properties":{"node_id":"CITY-1804152933","node_type":"major-city","name":"Dnipro","population":980948,"capital":"admin","gameplay_status":"candidate","source":"SimpleMaps-via-world-cities-json","territory_id":"UA-03","country_code":"UA"},"geometry":{"type":"Point","coordinates":[35.04,48.4675]}},{"type":"Feature","properties":{"node_id":"CITY-1380646673","node_type":"major-city","name":"Naples","population":966144,"capital":"admin","gameplay_status":"candidate","source":"SimpleMaps-via-world-cities-json","territory_id":"IT-03","country_code":"IT"},"geometry":{"type":"Point","coordinates":[14.25,40.8333]}},{"type":"Feature","properties":{"node_id":"CITY-1724397372","node_type":"major-city","name":"Málaga","population":967250,"capital":"minor","gameplay_status":"candidate","source":"SimpleMaps-via-world-cities-json","territory_id":"ES-06","country_code":"ES"},"geometry":{"type":"Point","coordinates":[-4.42,36.7194]}},{"type":"Feature","properties":{"node_id":"CITY-1643438227","node_type":"major-city","name":"Krasnodar","population":948827,"capital":"admin","gameplay_status":"candidate","source":"SimpleMaps-via-world-cities-json","territory_id":"RU-05","country_code":"RU"},"geometry":{"type":"Point","coordinates":[38.9667,45.0333]}},{"type":"Feature","properties":{"node_id":"CITY-1804963805","node_type":"major-city","name":"Donetsk","population":929063,"capital":"admin","gameplay_status":"candidate","source":"SimpleMaps-via-world-cities-json","territory_id":"UA-03","country_code":"UA"},"geometry":{"type":"Point","coordinates":[37.8053,48.0028]}},{"type":"Feature","properties":{"node_id":"CITY-1792759121","node_type":"major-city","name":"Esenyurt","population":891120,"capital":null,"gameplay_status":"candidate","source":"SimpleMaps-via-world-cities-json","territory_id":"TR-01","country_code":"TR"},"geometry":{"type":"Point","coordinates":[28.658,41.047]}},{"type":"Feature","properties":{"node_id":"CITY-1380244627","node_type":"major-city","name":"Turin","population":870952,"capital":"admin","gameplay_status":"candidate","source":"SimpleMaps-via-world-cities-json","territory_id":"IT-01","country_code":"IT"},"geometry":{"type":"Point","coordinates":[7.6761,45.0792]}},{"type":"Feature","properties":{"node_id":"CITY-1250774071","node_type":"major-city","name":"Marseille","population":870731,"capital":"admin","gameplay_status":"candidate","source":"SimpleMaps-via-world-cities-json","territory_id":"FR-06","country_code":"FR"},"geometry":{"type":"Point","coordinates":[5.37,43.2964]}},{"type":"Feature","properties":{"node_id":"CITY-1826964096","node_type":"major-city","name":"Portsmouth","population":855679,"capital":null,"gameplay_status":"candidate","source":"SimpleMaps-via-world-cities-json","territory_id":"GB-04","country_code":"GB"},"geometry":{"type":"Point","coordinates":[-1.0872,50.8058]}},{"type":"Feature","properties":{"node_id":"CITY-1826602892","node_type":"major-city","name":"Southampton","population":855569,"capital":null,"gameplay_status":"candidate","source":"SimpleMaps-via-world-cities-json","territory_id":"GB-04","country_code":"GB"},"geometry":{"type":"Point","coordinates":[-1.4042,50.9025]}},{"type":"Feature","properties":{"node_id":"CITY-1643556540","node_type":"major-city","name":"Saratov","population":845300,"capital":"admin","gameplay_status":"candidate","source":"SimpleMaps-via-world-cities-json","territory_id":"RU-04","country_code":"RU"},"geometry":{"type":"Point","coordinates":[46.0167,51.5333]}},{"type":"Feature","properties":{"node_id":"CITY-1300397999","node_type":"major-city","name":"Thessaloníki","population":824676,"capital":"admin","gameplay_status":"candidate","source":"SimpleMaps-via-world-cities-json","territory_id":"GR-01","country_code":"GR"},"geometry":{"type":"Point","coordinates":[22.9347,40.6403]}},{"type":"Feature","properties":{"node_id":"CITY-1616172264","node_type":"major-city","name":"Kraków","population":800653,"capital":"admin","gameplay_status":"candidate","source":"SimpleMaps-via-world-cities-json","territory_id":"PL-04","country_code":"PL"},"geometry":{"type":"Point","coordinates":[19.9372,50.0614]}},{"type":"Feature","properties":{"node_id":"CITY-1724981666","node_type":"major-city","name":"Valencia","population":792492,"capital":"admin","gameplay_status":"candidate","source":"SimpleMaps-via-world-cities-json","territory_id":"ES-05","country_code":"ES"},"geometry":{"type":"Point","coordinates":[-0.3764,39.47]}},{"type":"Feature","properties":{"node_id":"CITY-1826343963","node_type":"major-city","name":"Leeds","population":789194,"capital":null,"gameplay_status":"candidate","source":"SimpleMaps-via-world-cities-json","territory_id":"GB-02","country_code":"GB"},"geometry":{"type":"Point","coordinates":[-1.5497,53.8003]}},{"type":"Feature","properties":{"node_id":"CITY-1724331267","node_type":"major-city","name":"Bilbao","population":775000,"capital":"minor","gameplay_status":"candidate","source":"SimpleMaps-via-world-cities-json","territory_id":"ES-02","country_code":"ES"},"geometry":{"type":"Point","coordinates":[-2.9236,43.2569]}},{"type":"Feature","properties":{"node_id":"CITY-1792992349","node_type":"major-city","name":"Küçükçekmece","population":770317,"capital":"minor","gameplay_status":"candidate","source":"SimpleMaps-via-world-cities-json","territory_id":"TR-01","country_code":"TR"},"geometry":{"type":"Point","coordinates":[28.8,41]}},{"type":"Feature","properties":{"node_id":"CITY-1826122597","node_type":"major-city","name":"Nottingham","population":768638,"capital":null,"gameplay_status":"candidate","source":"SimpleMaps-via-world-cities-json","territory_id":"GB-02","country_code":"GB"},"geometry":{"type":"Point","coordinates":[-1.15,52.9533]}},{"type":"Feature","properties":{"node_id":"CITY-1276054552","node_type":"major-city","name":"Frankfurt","population":764104,"capital":"minor","gameplay_status":"candidate","source":"SimpleMaps-via-world-cities-json","territory_id":"DE-03","country_code":"DE"},"geometry":{"type":"Point","coordinates":[8.6822,50.1106]}}]}
