{"type":"FeatureCollection","features":[{"type":"Feature","properties":{"node_id":"CITY-1792903330","node_type":"major-city","name":"Bursa","population":2901396,"capital":"admin","gameplay_status":"selected","source":"SimpleMaps-via-world-cities-json","territory_id":"TR-01","country_code":"TR"},"geometry":{"type":"Point","coordinates":[29.05,40.1833]}},{"type":"Feature","properties":{"node_id":"CITY-1826964096","node_type":"major-city","name":"Portsmouth","population":855679,"capital":null,"gameplay_status":"selected","source":"SimpleMaps-via-world-cities-json","territory_id":"GB-04","country_code":"GB"},"geometry":{"type":"Point","coordinates":[-1.0872,50.8058]}},{"type":"Feature","properties":{"node_id":"CITY-1826602892","node_type":"major-city","name":"Southampton","population":855569,"capital":null,"gameplay_status":"selected","source":"SimpleMaps-via-world-cities-json","territory_id":"GB-04","country_code":"GB"},"geometry":{"type":"Point","coordinates":[-1.4042,50.9025]}},{"type":"Feature","properties":{"node_id":"CITY-1826343963","node_type":"major-city","name":"Leeds","population":789194,"capital":null,"gameplay_status":"selected","source":"SimpleMaps-via-world-cities-json","territory_id":"GB-02","country_code":"GB"},"geometry":{"type":"Point","coordinates":[-1.5497,53.8003]}},{"type":"Feature","properties":{"node_id":"CITY-1826122597","node_type":"major-city","name":"Nottingham","population":768638,"capital":null,"gameplay_status":"selected","source":"SimpleMaps-via-world-cities-json","territory_id":"GB-02","country_code":"GB"},"geometry":{"type":"Point","coordinates":[-1.15,52.9533]}},{"type":"Feature","properties":{"node_id":"CITY-1643582706","node_type":"major-city","name":"Yekaterinburg","population":1468833,"capital":"admin","gameplay_status":"selected","source":"SimpleMaps-via-world-cities-json","territory_id":"RU-04","country_code":"RU"},"geometry":{"type":"Point","coordinates":[60.6128,56.8356]}},{"type":"Feature","properties":{"node_id":"CITY-1643101260","node_type":"major-city","name":"Kazan","population":1243500,"capital":"admin","gameplay_status":"selected","source":"SimpleMaps-via-world-cities-json","territory_id":"RU-04","country_code":"RU"},"geometry":{"type":"Point","coordinates":[49.1089,55.7964]}},{"type":"Feature","properties":{"node_id":"CITY-1528799905","node_type":"major-city","name":"The Hague","population":548320,"capital":"primary","gameplay_status":"selected","source":"SimpleMaps-via-world-cities-json","territory_id":"NL-01","country_code":"NL"},"geometry":{"type":"Point","coordinates":[4.31,52.08]}},{"type":"Feature","properties":{"node_id":"CITY-1804152933","node_type":"major-city","name":"Dnipro","population":980948,"capital":"admin","gameplay_status":"selected","source":"SimpleMaps-via-world-cities-json","territory_id":"UA-03","country_code":"UA"},"geometry":{"type":"Point","coordinates":[35.04,48.4675]}},{"type":"Feature","properties":{"node_id":"CITY-1804963805","node_type":"major-city","name":"Donetsk","population":929063,"capital":"admin","gameplay_status":"selected","source":"SimpleMaps-via-world-cities-json","territory_id":"UA-03","country_code":"UA"},"geometry":{"type":"Point","coordinates":[37.8053,48.0028]}},{"type":"Feature","properties":{"node_id":"CITY-1380244627","node_type":"major-city","name":"Turin","population":870952,"capital":"admin","gameplay_status":"selected","source":"SimpleMaps-via-world-cities-json","territory_id":"IT-01","country_code":"IT"},"geometry":{"type":"Point","coordinates":[7.6761,45.0792]}},{"type":"Feature","properties":{"node_id":"CITY-1643811064","node_type":"major-city","name":"Voronezh","population":1050602,"capital":"admin","gameplay_status":"selected","source":"SimpleMaps-via-world-cities-json","territory_id":"RU-05","country_code":"RU"},"geometry":{"type":"Point","coordinates":[39.2106,51.6717]}},{"type":"Feature","properties":{"node_id":"CITY-1643577201","node_type":"major-city","name":"Volgograd","population":1015586,"capital":"admin","gameplay_status":"selected","source":"SimpleMaps-via-world-cities-json","territory_id":"RU-05","country_code":"RU"},"geometry":{"type":"Point","coordinates":[44.5147,48.7086]}},{"type":"Feature","properties":{"node_id":"CITY-1724397372","node_type":"major-city","name":"Málaga","population":967250,"capital":"minor","gameplay_status":"selected","source":"SimpleMaps-via-world-cities-json","territory_id":"ES-06","country_code":"ES"},"geometry":{"type":"Point","coordinates":[-4.42,36.7194]}}]}
