{"type":"FeatureCollection","features":[{"type":"Feature","properties":{"node_id":"PORT-31140","node_type":"port","name":"ROTTERDAM","wpi_number":"31140","harbour_size":"L","maximum_vessel":"L","cargo_wharf":true,"rail_connection":true,"provisions":true,"water":true,"fuel_oil":true,"gameplay_status":"selected","source":"NGA-World-Port-Index","territory_id":"NL-01","country_code":"NL","strategic_score":81},"geometry":{"type":"Point","coordinates":[4.48333333312512,51.899999999726]}},{"type":"Feature","properties":{"node_id":"PORT-31060","node_type":"port","name":"AMSTERDAM","wpi_number":"31060","harbour_size":"L","maximum_vessel":"M","cargo_wharf":true,"rail_connection":true,"provisions":true,"water":true,"fuel_oil":true,"gameplay_status":"selected","source":"NGA-World-Port-Index","territory_id":"NL-01","country_code":"NL","strategic_score":71},"geometry":{"type":"Point","coordinates":[4.90000000011643,52.3666666665532]}},{"type":"Feature","properties":{"node_id":"PORT-43760","node_type":"port","name":"SEVASTOPOL","wpi_number":"43760","harbour_size":"L","maximum_vessel":"M","cargo_wharf":true,"rail_connection":true,"provisions":true,"water":true,"fuel_oil":true,"gameplay_status":"selected","source":"NGA-World-Port-Index","territory_id":"UA-05","country_code":"UA","strategic_score":71},"geometry":{"type":"Point","coordinates":[33.5333333336228,44.6166666664163]}},{"type":"Feature","properties":{"node_id":"PORT-43900","node_type":"port","name":"KERCH","wpi_number":"43900","harbour_size":"S","maximum_vessel":"M","cargo_wharf":true,"rail_connection":false,"provisions":true,"water":true,"fuel_oil":true,"gameplay_status":"selected","source":"NGA-World-Port-Index","territory_id":"UA-05","country_code":"UA","strategic_score":36},"geometry":{"type":"Point","coordinates":[36.4833333332621,45.349999999925]}},{"type":"Feature","properties":{"node_id":"PORT-42230","node_type":"port","name":"PIRAIEVS","wpi_number":"42230","harbour_size":"L","maximum_vessel":"L","cargo_wharf":true,"rail_connection":true,"provisions":true,"water":true,"fuel_oil":true,"gameplay_status":"selected","source":"NGA-World-Port-Index","territory_id":"GR-02","country_code":"GR","strategic_score":81},"geometry":{"type":"Point","coordinates":[23.6500000003511,37.9333333330209]}},{"type":"Feature","properties":{"node_id":"PORT-42470","node_type":"port","name":"VOLOS","wpi_number":"42470","harbour_size":"M","maximum_vessel":"M","cargo_wharf":true,"rail_connection":true,"provisions":true,"water":true,"fuel_oil":true,"gameplay_status":"selected","source":"NGA-World-Port-Index","territory_id":"GR-02","country_code":"GR","strategic_score":56},"geometry":{"type":"Point","coordinates":[22.9499999999495,39.3666666668648]}},{"type":"Feature","properties":{"node_id":"PORT-38870","node_type":"port","name":"TOULON","wpi_number":"38870","harbour_size":"L","maximum_vessel":"L","cargo_wharf":true,"rail_connection":true,"provisions":false,"water":true,"fuel_oil":true,"gameplay_status":"selected","source":"NGA-World-Port-Index","territory_id":"FR-06","country_code":"FR","strategic_score":79},"geometry":{"type":"Point","coordinates":[5.91666666642531,43.1000000001938]}},{"type":"Feature","properties":{"node_id":"PORT-38780","node_type":"port","name":"PORT-DE-BOUC","wpi_number":"38780","harbour_size":"S","maximum_vessel":"L","cargo_wharf":true,"rail_connection":true,"provisions":true,"water":true,"fuel_oil":true,"gameplay_status":"selected","source":"NGA-World-Port-Index","territory_id":"FR-06","country_code":"FR","strategic_score":51},"geometry":{"type":"Point","coordinates":[4.98333333315534,43.4000000001078]}},{"type":"Feature","properties":{"node_id":"PORT-30990","node_type":"port","name":"DELFZIJL","wpi_number":"30990","harbour_size":"S","maximum_vessel":"M","cargo_wharf":true,"rail_connection":true,"provisions":true,"water":true,"fuel_oil":true,"gameplay_status":"selected","source":"NGA-World-Port-Index","territory_id":"NL-02","country_code":"NL","strategic_score":41},"geometry":{"type":"Point","coordinates":[6.9333333336325,53.3333333330778]}},{"type":"Feature","properties":{"node_id":"PORT-30985","node_type":"port","name":"EEMSHAVEN","wpi_number":"30985","harbour_size":"S","maximum_vessel":"M","cargo_wharf":true,"rail_connection":true,"provisions":false,"water":true,"fuel_oil":true,"gameplay_status":"selected","source":"NGA-World-Port-Index","territory_id":"NL-02","country_code":"NL","strategic_score":39},"geometry":{"type":"Point","coordinates":[6.8333333334468,53.450000000108]}},{"type":"Feature","properties":{"node_id":"PORT-37400","node_type":"port","name":"PUERTO DE BILBAO","wpi_number":"37400","harbour_size":"M","maximum_vessel":"L","cargo_wharf":true,"rail_connection":true,"provisions":true,"water":true,"fuel_oil":true,"gameplay_status":"selected","source":"NGA-World-Port-Index","territory_id":"ES-02","country_code":"ES","strategic_score":66},"geometry":{"type":"Point","coordinates":[-3.04999999982496,43.3500000002957]}},{"type":"Feature","properties":{"node_id":"PORT-37470","node_type":"port","name":"SANTANDER","wpi_number":"37470","harbour_size":"M","maximum_vessel":"L","cargo_wharf":true,"rail_connection":true,"provisions":false,"water":true,"fuel_oil":true,"gameplay_status":"selected","source":"NGA-World-Port-Index","territory_id":"ES-02","country_code":"ES","strategic_score":64},"geometry":{"type":"Point","coordinates":[-3.78333333362184,43.466666666623]}},{"type":"Feature","properties":{"node_id":"PORT-43420","node_type":"port","name":"ISTANBUL","wpi_number":"43420","harbour_size":"L","maximum_vessel":"L","cargo_wharf":true,"rail_connection":true,"provisions":true,"water":true,"fuel_oil":true,"gameplay_status":"selected","source":"NGA-World-Port-Index","territory_id":"TR-01","country_code":"TR","strategic_score":81},"geometry":{"type":"Point","coordinates":[28.9666666665604,41.0166666668277]}},{"type":"Feature","properties":{"node_id":"PORT-44540","node_type":"port","name":"HAYDARPASA","wpi_number":"44540","harbour_size":"M","maximum_vessel":"M","cargo_wharf":true,"rail_connection":true,"provisions":true,"water":true,"fuel_oil":true,"gameplay_status":"selected","source":"NGA-World-Port-Index","territory_id":"TR-01","country_code":"TR","strategic_score":56},"geometry":{"type":"Point","coordinates":[29.0166666671025,40.9999999996779]}},{"type":"Feature","properties":{"node_id":"PORT-34690","node_type":"port","name":"LIVERPOOL","wpi_number":"34690","harbour_size":"L","maximum_vessel":"L","cargo_wharf":true,"rail_connection":true,"provisions":true,"water":true,"fuel_oil":true,"gameplay_status":"selected","source":"NGA-World-Port-Index","territory_id":"GB-02","country_code":"GB","strategic_score":81},"geometry":{"type":"Point","coordinates":[-3.00000000018126,53.4166666668015]}},{"type":"Feature","properties":{"node_id":"PORT-31720","node_type":"port","name":"TEESPORT","wpi_number":"31720","harbour_size":"L","maximum_vessel":"M","cargo_wharf":true,"rail_connection":true,"provisions":true,"water":true,"fuel_oil":true,"gameplay_status":"selected","source":"NGA-World-Port-Index","territory_id":"GB-02","country_code":"GB","strategic_score":71},"geometry":{"type":"Point","coordinates":[-1.13333333364137,54.6500000001471]}},{"type":"Feature","properties":{"node_id":"PORT-32170","node_type":"port","name":"DUNDEE","wpi_number":"32170","harbour_size":"L","maximum_vessel":"L","cargo_wharf":true,"rail_connection":true,"provisions":true,"water":true,"fuel_oil":true,"gameplay_status":"selected","source":"NGA-World-Port-Index","territory_id":"GB-01","country_code":"GB","strategic_score":81},"geometry":{"type":"Point","coordinates":[-2.94999999963926,56.4666666668306]}},{"type":"Feature","properties":{"node_id":"PORT-32230","node_type":"port","name":"PETERHEAD","wpi_number":"32230","harbour_size":"M","maximum_vessel":"L","cargo_wharf":true,"rail_connection":true,"provisions":true,"water":true,"fuel_oil":true,"gameplay_status":"selected","source":"NGA-World-Port-Index","territory_id":"GB-01","country_code":"GB","strategic_score":66},"geometry":{"type":"Point","coordinates":[-1.78333333350098,57.5000000002357]}},{"type":"Feature","properties":{"node_id":"PORT-28480","node_type":"port","name":"TALLINN","wpi_number":"28480","harbour_size":"L","maximum_vessel":"M","cargo_wharf":true,"rail_connection":false,"provisions":true,"water":true,"fuel_oil":false,"gameplay_status":"selected","source":"NGA-World-Port-Index","territory_id":"EE-01","country_code":"EE","strategic_score":64},"geometry":{"type":"Point","coordinates":[24.7666666668456,59.4499999999175]}},{"type":"Feature","properties":{"node_id":"PORT-28425","node_type":"port","name":"SILLAMAE","wpi_number":"28425","harbour_size":"M","maximum_vessel":"L","cargo_wharf":true,"rail_connection":true,"provisions":false,"water":false,"fuel_oil":false,"gameplay_status":"selected","source":"NGA-World-Port-Index","territory_id":"EE-01","country_code":"EE","strategic_score":60},"geometry":{"type":"Point","coordinates":[27.0500000003768,59.3999999997894]}},{"type":"Feature","properties":{"node_id":"PORT-25380","node_type":"port","name":"STOCKHOLM","wpi_number":"25380","harbour_size":"L","maximum_vessel":"M","cargo_wharf":true,"rail_connection":true,"provisions":true,"water":true,"fuel_oil":true,"gameplay_status":"selected","source":"NGA-World-Port-Index","territory_id":"SE-02","country_code":"SE","strategic_score":71},"geometry":{"type":"Point","coordinates":[18.049999999833,59.3333333331767]}},{"type":"Feature","properties":{"node_id":"PORT-25395","node_type":"port","name":"VASTERAS","wpi_number":"25395","harbour_size":"M","maximum_vessel":"M","cargo_wharf":true,"rail_connection":true,"provisions":true,"water":true,"fuel_oil":true,"gameplay_status":"selected","source":"NGA-World-Port-Index","territory_id":"SE-02","country_code":"SE","strategic_score":56},"geometry":{"type":"Point","coordinates":[16.5499999997424,59.6166666666049]}},{"type":"Feature","properties":{"node_id":"PORT-23810","node_type":"port","name":"OSLO","wpi_number":"23810","harbour_size":"L","maximum_vessel":"L","cargo_wharf":true,"rail_connection":true,"provisions":true,"water":true,"fuel_oil":true,"gameplay_status":"selected","source":"NGA-World-Port-Index","territory_id":"NO-01","country_code":"NO","strategic_score":81},"geometry":{"type":"Point","coordinates":[10.7499999997513,59.9166666666084]}},{"type":"Feature","properties":{"node_id":"PORT-23780","node_type":"port","name":"DRAMMEN","wpi_number":"23780","harbour_size":"M","maximum_vessel":"L","cargo_wharf":true,"rail_connection":true,"provisions":true,"water":true,"fuel_oil":true,"gameplay_status":"selected","source":"NGA-World-Port-Index","territory_id":"NO-01","country_code":"NO","strategic_score":66},"geometry":{"type":"Point","coordinates":[10.249999999721,59.7333333334427]}},{"type":"Feature","properties":{"node_id":"PORT-43100","node_type":"port","name":"SOUDHA","wpi_number":"43100","harbour_size":"M","maximum_vessel":"L","cargo_wharf":true,"rail_connection":false,"provisions":true,"water":true,"fuel_oil":false,"gameplay_status":"selected","source":"NGA-World-Port-Index","territory_id":"GR-03","country_code":"GR","strategic_score":59},"geometry":{"type":"Point","coordinates":[24.1833333337765,35.4833333331608]}},{"type":"Feature","properties":{"node_id":"PORT-43130","node_type":"port","name":"IRAKLION","wpi_number":"43130","harbour_size":"M","maximum_vessel":"M","cargo_wharf":true,"rail_connection":false,"provisions":true,"water":true,"fuel_oil":false,"gameplay_status":"selected","source":"NGA-World-Port-Index","territory_id":"GR-03","country_code":"GR","strategic_score":49},"geometry":{"type":"Point","coordinates":[25.1500000004417,35.3499999999677]}},{"type":"Feature","properties":{"node_id":"PORT-37190","node_type":"port","name":"BORDEAUX","wpi_number":"37190","harbour_size":"L","maximum_vessel":"L","cargo_wharf":true,"rail_connection":true,"provisions":true,"water":true,"fuel_oil":true,"gameplay_status":"selected","source":"NGA-World-Port-Index","territory_id":"FR-04","country_code":"FR","strategic_score":81},"geometry":{"type":"Point","coordinates":[-0.566666666820668,44.8666666668637]}},{"type":"Feature","properties":{"node_id":"PORT-37010","node_type":"port","name":"LA ROCHELLE","wpi_number":"37010","harbour_size":"M","maximum_vessel":"L","cargo_wharf":true,"rail_connection":true,"provisions":true,"water":true,"fuel_oil":true,"gameplay_status":"selected","source":"NGA-World-Port-Index","territory_id":"FR-04","country_code":"FR","strategic_score":66},"geometry":{"type":"Point","coordinates":[-1.14999999988983,46.1500000001293]}},{"type":"Feature","properties":{"node_id":"PORT-29230","node_type":"port","name":"KOBENHAVN","wpi_number":"29230","harbour_size":"L","maximum_vessel":"L","cargo_wharf":true,"rail_connection":true,"provisions":false,"water":true,"fuel_oil":true,"gameplay_status":"selected","source":"NGA-World-Port-Index","territory_id":"DK-02","country_code":"DK","strategic_score":79},"geometry":{"type":"Point","coordinates":[12.6166666662911,55.7000000002354]}},{"type":"Feature","properties":{"node_id":"PORT-29490","node_type":"port","name":"KALUNDBORG","wpi_number":"29490","harbour_size":"S","maximum_vessel":"L","cargo_wharf":true,"rail_connection":true,"provisions":false,"water":true,"fuel_oil":true,"gameplay_status":"selected","source":"NGA-World-Port-Index","territory_id":"DK-02","country_code":"DK","strategic_score":49},"geometry":{"type":"Point","coordinates":[11.0999999999521,55.6833333331852]}},{"type":"Feature","properties":{"node_id":"PORT-40470","node_type":"port","name":"TARANTO","wpi_number":"40470","harbour_size":"L","maximum_vessel":"L","cargo_wharf":true,"rail_connection":true,"provisions":true,"water":true,"fuel_oil":true,"gameplay_status":"selected","source":"NGA-World-Port-Index","territory_id":"IT-03","country_code":"IT","strategic_score":81},"geometry":{"type":"Point","coordinates":[17.199999999602,40.4666666667267]}},{"type":"Feature","properties":{"node_id":"PORT-39960","node_type":"port","name":"NAPOLI","wpi_number":"39960","harbour_size":"L","maximum_vessel":"L","cargo_wharf":true,"rail_connection":true,"provisions":true,"water":true,"fuel_oil":true,"gameplay_status":"selected","source":"NGA-World-Port-Index","territory_id":"IT-03","country_code":"IT","strategic_score":81},"geometry":{"type":"Point","coordinates":[14.2666666671095,40.8499999998943]}},{"type":"Feature","properties":{"node_id":"PORT-41640","node_type":"port","name":"BAR","wpi_number":"41640","harbour_size":"S","maximum_vessel":"L","cargo_wharf":true,"rail_connection":false,"provisions":false,"water":true,"fuel_oil":true,"gameplay_status":"selected","source":"NGA-World-Port-Index","territory_id":"ME-01","country_code":"ME","strategic_score":44},"geometry":{"type":"Point","coordinates":[19.0833333332887,42.0833333332335]}},{"type":"Feature","properties":{"node_id":"PORT-41610","node_type":"port","name":"KOTOR","wpi_number":"41610","harbour_size":"V","maximum_vessel":"M","cargo_wharf":true,"rail_connection":false,"provisions":true,"water":true,"fuel_oil":true,"gameplay_status":"selected","source":"NGA-World-Port-Index","territory_id":"ME-01","country_code":"ME","strategic_score":30},"geometry":{"type":"Point","coordinates":[18.7666666664831,42.4166666664545]}},{"type":"Feature","properties":{"node_id":"PORT-23090","node_type":"port","name":"TRONDHEIM","wpi_number":"23090","harbour_size":"M","maximum_vessel":"M","cargo_wharf":true,"rail_connection":true,"provisions":true,"water":true,"fuel_oil":true,"gameplay_status":"selected","source":"NGA-World-Port-Index","territory_id":"NO-02","country_code":"NO","strategic_score":56},"geometry":{"type":"Point","coordinates":[10.4000000004488,63.4333333331977]}},{"type":"Feature","properties":{"node_id":"PORT-23095","node_type":"port","name":"THAMSHAMM","wpi_number":"23095","harbour_size":"S","maximum_vessel":"L","cargo_wharf":true,"rail_connection":true,"provisions":true,"water":true,"fuel_oil":false,"gameplay_status":"selected","source":"NGA-World-Port-Index","territory_id":"NO-02","country_code":"NO","strategic_score":49},"geometry":{"type":"Point","coordinates":[9.88333333327176,63.3166666668669]}},{"type":"Feature","properties":{"node_id":"PORT-28370","node_type":"port","name":"SANKT-PETERBURG","wpi_number":"28370","harbour_size":"L","maximum_vessel":"M","cargo_wharf":true,"rail_connection":true,"provisions":true,"water":true,"fuel_oil":true,"gameplay_status":"selected","source":"NGA-World-Port-Index","territory_id":"RU-02","country_code":"RU","strategic_score":71},"geometry":{"type":"Point","coordinates":[30.2999999996749,59.9333333332091]}},{"type":"Feature","properties":{"node_id":"PORT-62950","node_type":"port","name":"MURMANSK","wpi_number":"62950","harbour_size":"L","maximum_vessel":"M","cargo_wharf":true,"rail_connection":true,"provisions":false,"water":true,"fuel_oil":true,"gameplay_status":"selected","source":"NGA-World-Port-Index","territory_id":"RU-02","country_code":"RU","strategic_score":69},"geometry":{"type":"Point","coordinates":[33.0499999998411,68.9833333332435]}},{"type":"Feature","properties":{"node_id":"PORT-22760","node_type":"port","name":"MO INLET","wpi_number":"22760","harbour_size":"S","maximum_vessel":"L","cargo_wharf":true,"rail_connection":true,"provisions":true,"water":true,"fuel_oil":true,"gameplay_status":"selected","source":"NGA-World-Port-Index","territory_id":"NO-03","country_code":"NO","strategic_score":51},"geometry":{"type":"Point","coordinates":[14.1333333335286,66.3166666666681]}},{"type":"Feature","properties":{"node_id":"PORT-21310","node_type":"port","name":"TROMSO","wpi_number":"21310","harbour_size":"M","maximum_vessel":"M","cargo_wharf":true,"rail_connection":false,"provisions":true,"water":true,"fuel_oil":true,"gameplay_status":"selected","source":"NGA-World-Port-Index","territory_id":"NO-03","country_code":"NO","strategic_score":51},"geometry":{"type":"Point","coordinates":[18.9666666668545,69.6500000001248]}},{"type":"Feature","properties":{"node_id":"PORT-30260","node_type":"port","name":"ARHUS","wpi_number":"30260","harbour_size":"M","maximum_vessel":"L","cargo_wharf":true,"rail_connection":true,"provisions":true,"water":true,"fuel_oil":true,"gameplay_status":"selected","source":"NGA-World-Port-Index","territory_id":"DK-01","country_code":"DK","strategic_score":66},"geometry":{"type":"Point","coordinates":[10.2166666663258,56.1499999998305]}},{"type":"Feature","properties":{"node_id":"PORT-30400","node_type":"port","name":"ALBORG","wpi_number":"30400","harbour_size":"S","maximum_vessel":"L","cargo_wharf":true,"rail_connection":true,"provisions":true,"water":true,"fuel_oil":true,"gameplay_status":"selected","source":"NGA-World-Port-Index","territory_id":"DK-01","country_code":"DK","strategic_score":51},"geometry":{"type":"Point","coordinates":[9.93333333291546,57.0500000001618]}},{"type":"Feature","properties":{"node_id":"PORT-34130","node_type":"port","name":"FOYNES","wpi_number":"34130","harbour_size":"L","maximum_vessel":"L","cargo_wharf":true,"rail_connection":true,"provisions":true,"water":true,"fuel_oil":true,"gameplay_status":"selected","source":"NGA-World-Port-Index","territory_id":"IE-01","country_code":"IE","strategic_score":81},"geometry":{"type":"Point","coordinates":[-9.116666666978,52.6166666666444]}},{"type":"Feature","properties":{"node_id":"PORT-34360","node_type":"port","name":"CORK","wpi_number":"34360","harbour_size":"M","maximum_vessel":"M","cargo_wharf":true,"rail_connection":true,"provisions":true,"water":true,"fuel_oil":true,"gameplay_status":"selected","source":"NGA-World-Port-Index","territory_id":"IE-01","country_code":"IE","strategic_score":56},"geometry":{"type":"Point","coordinates":[-8.26666666674696,51.8499999997954]}},{"type":"Feature","properties":{"node_id":"PORT-100","node_type":"port","name":"REYKJAVIK","wpi_number":"100","harbour_size":"M","maximum_vessel":"L","cargo_wharf":true,"rail_connection":false,"provisions":true,"water":true,"fuel_oil":true,"gameplay_status":"selected","source":"NGA-World-Port-Index","territory_id":"IS-01","country_code":"IS","strategic_score":61},"geometry":{"type":"Point","coordinates":[-21.9333333336406,64.1500000000562]}},{"type":"Feature","properties":{"node_id":"PORT-105","node_type":"port","name":"GRUNDARTANGI","wpi_number":"105","harbour_size":"M","maximum_vessel":"L","cargo_wharf":true,"rail_connection":false,"provisions":true,"water":true,"fuel_oil":true,"gameplay_status":"selected","source":"NGA-World-Port-Index","territory_id":"IS-01","country_code":"IS","strategic_score":61},"geometry":{"type":"Point","coordinates":[-22.000000000431,64.2666666666363]}},{"type":"Feature","properties":{"node_id":"PORT-40240","node_type":"port","name":"SIRACUSA","wpi_number":"40240","harbour_size":"L","maximum_vessel":"L","cargo_wharf":true,"rail_connection":true,"provisions":true,"water":true,"fuel_oil":true,"gameplay_status":"selected","source":"NGA-World-Port-Index","territory_id":"IT-04","country_code":"IT","strategic_score":81},"geometry":{"type":"Point","coordinates":[15.2833333334184,37.0500000002986]}},{"type":"Feature","properties":{"node_id":"PORT-40100","node_type":"port","name":"MESSINA","wpi_number":"40100","harbour_size":"S","maximum_vessel":"L","cargo_wharf":true,"rail_connection":true,"provisions":true,"water":true,"fuel_oil":true,"gameplay_status":"selected","source":"NGA-World-Port-Index","territory_id":"IT-04","country_code":"IT","strategic_score":51},"geometry":{"type":"Point","coordinates":[15.5666666668287,38.1999999997035]}},{"type":"Feature","properties":{"node_id":"PORT-39215","node_type":"port","name":"SARROCH OIL TERMINAL","wpi_number":"39215","harbour_size":"M","maximum_vessel":"L","cargo_wharf":true,"rail_connection":false,"provisions":true,"water":true,"fuel_oil":true,"gameplay_status":"selected","source":"NGA-World-Port-Index","territory_id":"IT-05","country_code":"IT","strategic_score":61},"geometry":{"type":"Point","coordinates":[9.03333333304073,39.083333333599]}},{"type":"Feature","properties":{"node_id":"PORT-39261","node_type":"port","name":"PORTO DI ORISTANO","wpi_number":"39261","harbour_size":"S","maximum_vessel":"L","cargo_wharf":true,"rail_connection":true,"provisions":true,"water":true,"fuel_oil":true,"gameplay_status":"selected","source":"NGA-World-Port-Index","territory_id":"IT-05","country_code":"IT","strategic_score":51},"geometry":{"type":"Point","coordinates":[8.5500000001573,39.8666666667778]}},{"type":"Feature","properties":{"node_id":"PORT-34880","node_type":"port","name":"MILFORD HAVEN","wpi_number":"34880","harbour_size":"M","maximum_vessel":"L","cargo_wharf":true,"rail_connection":true,"provisions":true,"water":true,"fuel_oil":true,"gameplay_status":"selected","source":"NGA-World-Port-Index","territory_id":"GB-05","country_code":"GB","strategic_score":66},"geometry":{"type":"Point","coordinates":[-5.03333333369736,51.7166666668746]}},{"type":"Feature","properties":{"node_id":"PORT-35015","node_type":"port","name":"NEWPORT","wpi_number":"35015","harbour_size":"M","maximum_vessel":"L","cargo_wharf":true,"rail_connection":true,"provisions":false,"water":true,"fuel_oil":true,"gameplay_status":"selected","source":"NGA-World-Port-Index","territory_id":"GB-05","country_code":"GB","strategic_score":64},"geometry":{"type":"Point","coordinates":[-2.98333333303451,51.5500000000997]}},{"type":"Feature","properties":{"node_id":"PORT-43650","node_type":"port","name":"ODESA","wpi_number":"43650","harbour_size":"L","maximum_vessel":"M","cargo_wharf":true,"rail_connection":true,"provisions":true,"water":true,"fuel_oil":true,"gameplay_status":"selected","source":"NGA-World-Port-Index","territory_id":"UA-04","country_code":"UA","strategic_score":71},"geometry":{"type":"Point","coordinates":[30.7333333329147,46.4833333332313]}},{"type":"Feature","properties":{"node_id":"PORT-43645","node_type":"port","name":"ILLICHIVSK","wpi_number":"43645","harbour_size":"L","maximum_vessel":"M","cargo_wharf":true,"rail_connection":true,"provisions":true,"water":true,"fuel_oil":true,"gameplay_status":"selected","source":"NGA-World-Port-Index","territory_id":"UA-04","country_code":"UA","strategic_score":71},"geometry":{"type":"Point","coordinates":[30.6499999998757,46.2999999998792]}},{"type":"Feature","properties":{"node_id":"PORT-33770","node_type":"port","name":"BELFAST","wpi_number":"33770","harbour_size":"L","maximum_vessel":"L","cargo_wharf":true,"rail_connection":true,"provisions":true,"water":true,"fuel_oil":true,"gameplay_status":"selected","source":"NGA-World-Port-Index","territory_id":"GB-06","country_code":"GB","strategic_score":81},"geometry":{"type":"Point","coordinates":[-5.90000000017686,54.6166666665194]}},{"type":"Feature","properties":{"node_id":"PORT-33830","node_type":"port","name":"LONDONDERRY","wpi_number":"33830","harbour_size":"M","maximum_vessel":"L","cargo_wharf":true,"rail_connection":true,"provisions":true,"water":true,"fuel_oil":true,"gameplay_status":"selected","source":"NGA-World-Port-Index","territory_id":"GB-06","country_code":"GB","strategic_score":66},"geometry":{"type":"Point","coordinates":[-7.31666666633023,55.0000000002515]}},{"type":"Feature","properties":{"node_id":"PORT-42530","node_type":"port","name":"THESSALONIKI","wpi_number":"42530","harbour_size":"M","maximum_vessel":"L","cargo_wharf":true,"rail_connection":true,"provisions":false,"water":false,"fuel_oil":false,"gameplay_status":"selected","source":"NGA-World-Port-Index","territory_id":"GR-01","country_code":"GR","strategic_score":60},"geometry":{"type":"Point","coordinates":[22.933333333701,40.6333333330394]}},{"type":"Feature","properties":{"node_id":"PORT-42630","node_type":"port","name":"ALEXANDROUPOLI","wpi_number":"42630","harbour_size":"M","maximum_vessel":"M","cargo_wharf":true,"rail_connection":true,"provisions":true,"water":true,"fuel_oil":false,"gameplay_status":"selected","source":"NGA-World-Port-Index","territory_id":"GR-01","country_code":"GR","strategic_score":54},"geometry":{"type":"Point","coordinates":[25.8833333333402,40.8333333332493]}},{"type":"Feature","properties":{"node_id":"PORT-38550","node_type":"port","name":"BARCELONA","wpi_number":"38550","harbour_size":"L","maximum_vessel":"L","cargo_wharf":true,"rail_connection":true,"provisions":false,"water":true,"fuel_oil":true,"gameplay_status":"selected","source":"NGA-World-Port-Index","territory_id":"ES-03","country_code":"ES","strategic_score":79},"geometry":{"type":"Point","coordinates":[2.16666666709701,41.349999999954]}},{"type":"Feature","properties":{"node_id":"PORT-38540","node_type":"port","name":"TARRAGONA","wpi_number":"38540","harbour_size":"L","maximum_vessel":"M","cargo_wharf":true,"rail_connection":true,"provisions":true,"water":true,"fuel_oil":true,"gameplay_status":"selected","source":"NGA-World-Port-Index","territory_id":"ES-03","country_code":"ES","strategic_score":71},"geometry":{"type":"Point","coordinates":[1.23333333292877,41.0999999998471]}},{"type":"Feature","properties":{"node_id":"PORT-40820","node_type":"port","name":"TRIESTE","wpi_number":"40820","harbour_size":"L","maximum_vessel":"L","cargo_wharf":true,"rail_connection":true,"provisions":true,"water":true,"fuel_oil":true,"gameplay_status":"selected","source":"NGA-World-Port-Index","territory_id":"IT-01","country_code":"IT","strategic_score":81},"geometry":{"type":"Point","coordinates":[13.7666666670793,45.6499999997883]}},{"type":"Feature","properties":{"node_id":"PORT-40760","node_type":"port","name":"PORTO DI LIDO-VENEZIA","wpi_number":"40760","harbour_size":"L","maximum_vessel":"L","cargo_wharf":true,"rail_connection":true,"provisions":true,"water":true,"fuel_oil":true,"gameplay_status":"selected","source":"NGA-World-Port-Index","territory_id":"IT-01","country_code":"IT","strategic_score":81},"geometry":{"type":"Point","coordinates":[12.4333333330665,45.4166666663932]}},{"type":"Feature","properties":{"node_id":"PORT-38370","node_type":"port","name":"MALAGA","wpi_number":"38370","harbour_size":"M","maximum_vessel":"L","cargo_wharf":true,"rail_connection":true,"provisions":true,"water":true,"fuel_oil":true,"gameplay_status":"selected","source":"NGA-World-Port-Index","territory_id":"ES-06","country_code":"ES","strategic_score":66},"geometry":{"type":"Point","coordinates":[-4.41666666633467,36.716666666965]}},{"type":"Feature","properties":{"node_id":"PORT-38270","node_type":"port","name":"SEVILLA","wpi_number":"38270","harbour_size":"M","maximum_vessel":"M","cargo_wharf":true,"rail_connection":true,"provisions":true,"water":true,"fuel_oil":true,"gameplay_status":"selected","source":"NGA-World-Port-Index","territory_id":"ES-06","country_code":"ES","strategic_score":56},"geometry":{"type":"Point","coordinates":[-6.00000000036255,37.3666666669695]}},{"type":"Feature","properties":{"node_id":"PORT-41320","node_type":"port","name":"SPLIT","wpi_number":"41320","harbour_size":"L","maximum_vessel":"L","cargo_wharf":true,"rail_connection":true,"provisions":true,"water":true,"fuel_oil":false,"gameplay_status":"selected","source":"NGA-World-Port-Index","territory_id":"HR-02","country_code":"HR","strategic_score":79},"geometry":{"type":"Point","coordinates":[16.4333333333082,43.4999999998741]}},{"type":"Feature","properties":{"node_id":"PORT-41010","node_type":"port","name":"RIJEKA LUKA","wpi_number":"41010","harbour_size":"L","maximum_vessel":"M","cargo_wharf":true,"rail_connection":true,"provisions":true,"water":true,"fuel_oil":true,"gameplay_status":"selected","source":"NGA-World-Port-Index","territory_id":"HR-02","country_code":"HR","strategic_score":71},"geometry":{"type":"Point","coordinates":[14.4333333331874,45.3333333331922]}},{"type":"Feature","properties":{"node_id":"PORT-31470","node_type":"port","name":"LONDON","wpi_number":"31470","harbour_size":"L","maximum_vessel":"L","cargo_wharf":true,"rail_connection":true,"provisions":true,"water":true,"fuel_oil":true,"gameplay_status":"selected","source":"NGA-World-Port-Index","territory_id":"GB-04","country_code":"GB","strategic_score":81},"geometry":{"type":"Point","coordinates":[-0.0833333330389425,51.499999999884]}},{"type":"Feature","properties":{"node_id":"PORT-35580","node_type":"port","name":"SOUTHAMPTON","wpi_number":"35580","harbour_size":"L","maximum_vessel":"L","cargo_wharf":true,"rail_connection":true,"provisions":false,"water":true,"fuel_oil":true,"gameplay_status":"selected","source":"NGA-World-Port-Index","territory_id":"GB-04","country_code":"GB","strategic_score":79},"geometry":{"type":"Point","coordinates":[-1.39999999990492,50.9000000002538]}},{"type":"Feature","properties":{"node_id":"PORT-24020","node_type":"port","name":"GOTEBORG","wpi_number":"24020","harbour_size":"L","maximum_vessel":"L","cargo_wharf":true,"rail_connection":true,"provisions":true,"water":true,"fuel_oil":true,"gameplay_status":"selected","source":"NGA-World-Port-Index","territory_id":"SE-01","country_code":"SE","strategic_score":81},"geometry":{"type":"Point","coordinates":[11.9666666664315,57.6999999998426]}},{"type":"Feature","properties":{"node_id":"PORT-24210","node_type":"port","name":"MALMO","wpi_number":"24210","harbour_size":"L","maximum_vessel":"M","cargo_wharf":true,"rail_connection":true,"provisions":false,"water":true,"fuel_oil":true,"gameplay_status":"selected","source":"NGA-World-Port-Index","territory_id":"SE-01","country_code":"SE","strategic_score":69},"geometry":{"type":"Point","coordinates":[12.9999999998872,55.6166666666206]}},{"type":"Feature","properties":{"node_id":"PORT-28710","node_type":"port","name":"GDANSK","wpi_number":"28710","harbour_size":"L","maximum_vessel":"L","cargo_wharf":true,"rail_connection":true,"provisions":true,"water":true,"fuel_oil":true,"gameplay_status":"selected","source":"NGA-World-Port-Index","territory_id":"PL-01","country_code":"PL","strategic_score":81},"geometry":{"type":"Point","coordinates":[18.6666666662974,54.3500000001174]}},{"type":"Feature","properties":{"node_id":"PORT-28740","node_type":"port","name":"GDYNIA","wpi_number":"28740","harbour_size":"L","maximum_vessel":"M","cargo_wharf":true,"rail_connection":true,"provisions":true,"water":true,"fuel_oil":true,"gameplay_status":"selected","source":"NGA-World-Port-Index","territory_id":"PL-01","country_code":"PL","strategic_score":71},"geometry":{"type":"Point","coordinates":[18.5499999998632,54.5333333331201]}},{"type":"Feature","properties":{"node_id":"PORT-44970","node_type":"port","name":"FAMAGUSTA","wpi_number":"44970","harbour_size":"S","maximum_vessel":"M","cargo_wharf":true,"rail_connection":false,"provisions":true,"water":true,"fuel_oil":false,"gameplay_status":"selected","source":"NGA-World-Port-Index","territory_id":"CY-01","country_code":"CY","strategic_score":34},"geometry":{"type":"Point","coordinates":[33.9333333334673,35.1166666668271]}},{"type":"Feature","properties":{"node_id":"PORT-44900","node_type":"port","name":"KYRENIA","wpi_number":"44900","harbour_size":"V","maximum_vessel":"M","cargo_wharf":true,"rail_connection":false,"provisions":true,"water":true,"fuel_oil":true,"gameplay_status":"selected","source":"NGA-World-Port-Index","territory_id":"CY-01","country_code":"CY","strategic_score":30},"geometry":{"type":"Point","coordinates":[33.3333333332514,35.3499999999677]}},{"type":"Feature","properties":{"node_id":"PORT-35840","node_type":"port","name":"PORT OF LE HAVRE","wpi_number":"35840","harbour_size":"L","maximum_vessel":"L","cargo_wharf":true,"rail_connection":true,"provisions":true,"water":true,"fuel_oil":true,"gameplay_status":"selected","source":"NGA-World-Port-Index","territory_id":"FR-02","country_code":"FR","strategic_score":81},"geometry":{"type":"Point","coordinates":[0.116666666434152,49.4833333333591]}},{"type":"Feature","properties":{"node_id":"PORT-35850","node_type":"port","name":"PORT OF ROUEN","wpi_number":"35850","harbour_size":"L","maximum_vessel":"M","cargo_wharf":true,"rail_connection":true,"provisions":true,"water":true,"fuel_oil":true,"gameplay_status":"selected","source":"NGA-World-Port-Index","territory_id":"FR-02","country_code":"FR","strategic_score":71},"geometry":{"type":"Point","coordinates":[1.06666666685088,49.4500000002236]}},{"type":"Feature","properties":{"node_id":"PORT-27560","node_type":"port","name":"KOKKOLA","wpi_number":"27560","harbour_size":"L","maximum_vessel":"L","cargo_wharf":true,"rail_connection":true,"provisions":true,"water":true,"fuel_oil":true,"gameplay_status":"selected","source":"NGA-World-Port-Index","territory_id":"FI-02","country_code":"FI","strategic_score":81},"geometry":{"type":"Point","coordinates":[23.0166666667399,63.8500000001235]}},{"type":"Feature","properties":{"node_id":"PORT-27740","node_type":"port","name":"PORI","wpi_number":"27740","harbour_size":"L","maximum_vessel":"M","cargo_wharf":true,"rail_connection":true,"provisions":true,"water":true,"fuel_oil":true,"gameplay_status":"selected","source":"NGA-World-Port-Index","territory_id":"FI-02","country_code":"FI","strategic_score":71},"geometry":{"type":"Point","coordinates":[21.8000000000596,61.4833333332966]}},{"type":"Feature","properties":{"node_id":"PORT-37990","node_type":"port","name":"LISBOA","wpi_number":"37990","harbour_size":"L","maximum_vessel":"L","cargo_wharf":true,"rail_connection":true,"provisions":true,"water":true,"fuel_oil":true,"gameplay_status":"selected","source":"NGA-World-Port-Index","territory_id":"PT-02","country_code":"PT","strategic_score":81},"geometry":{"type":"Point","coordinates":[-9.1666666666217,38.6999999998246]}},{"type":"Feature","properties":{"node_id":"PORT-38005","node_type":"port","name":"SINES","wpi_number":"38005","harbour_size":"M","maximum_vessel":"M","cargo_wharf":true,"rail_connection":true,"provisions":true,"water":true,"fuel_oil":true,"gameplay_status":"selected","source":"NGA-World-Port-Index","territory_id":"PT-02","country_code":"PT","strategic_score":56},"geometry":{"type":"Point","coordinates":[-8.86666666696287,37.9500000000497]}},{"type":"Feature","properties":{"node_id":"PORT-44200","node_type":"port","name":"NOVOROSSIYSK","wpi_number":"44200","harbour_size":"L","maximum_vessel":"M","cargo_wharf":true,"rail_connection":true,"provisions":true,"water":true,"fuel_oil":true,"gameplay_status":"selected","source":"NGA-World-Port-Index","territory_id":"RU-05","country_code":"RU","strategic_score":71},"geometry":{"type":"Point","coordinates":[37.7833333329813,44.7166666666445]}},{"type":"Feature","properties":{"node_id":"PORT-44230","node_type":"port","name":"TUAPSE","wpi_number":"44230","harbour_size":"S","maximum_vessel":"M","cargo_wharf":true,"rail_connection":true,"provisions":true,"water":true,"fuel_oil":true,"gameplay_status":"selected","source":"NGA-World-Port-Index","territory_id":"RU-05","country_code":"RU","strategic_score":41},"geometry":{"type":"Point","coordinates":[39.0666666664521,44.1000000000058]}},{"type":"Feature","properties":{"node_id":"PORT-27280","node_type":"port","name":"KARLSBORG","wpi_number":"27280","harbour_size":"M","maximum_vessel":"L","cargo_wharf":true,"rail_connection":true,"provisions":true,"water":true,"fuel_oil":true,"gameplay_status":"selected","source":"NGA-World-Port-Index","territory_id":"SE-03","country_code":"SE","strategic_score":66},"geometry":{"type":"Point","coordinates":[23.2833333330035,65.8000000000746]}},{"type":"Feature","properties":{"node_id":"PORT-27220","node_type":"port","name":"LULEA","wpi_number":"27220","harbour_size":"M","maximum_vessel":"M","cargo_wharf":true,"rail_connection":true,"provisions":true,"water":true,"fuel_oil":true,"gameplay_status":"selected","source":"NGA-World-Port-Index","territory_id":"SE-03","country_code":"SE","strategic_score":56},"geometry":{"type":"Point","coordinates":[22.1666666665089,65.5833333334427]}},{"type":"Feature","properties":{"node_id":"PORT-28660","node_type":"port","name":"KLAIPEDA","wpi_number":"28660","harbour_size":"M","maximum_vessel":"M","cargo_wharf":true,"rail_connection":true,"provisions":false,"water":true,"fuel_oil":true,"gameplay_status":"selected","source":"NGA-World-Port-Index","territory_id":"LT-01","country_code":"LT","strategic_score":54},"geometry":{"type":"Point","coordinates":[21.1166666668048,55.7166666665554]}},{"type":"Feature","properties":{"node_id":"PORT-28654","node_type":"port","name":"BUTINGE OIL TERMINAL","wpi_number":"28654","harbour_size":"V","maximum_vessel":"L","cargo_wharf":false,"rail_connection":false,"provisions":false,"water":false,"fuel_oil":false,"gameplay_status":"selected","source":"NGA-World-Port-Index","territory_id":"LT-01","country_code":"LT","strategic_score":24},"geometry":{"type":"Point","coordinates":[20.9499999998286,56.0333333334124]}},{"type":"Feature","properties":{"node_id":"PORT-43560","node_type":"port","name":"CONSTANTA","wpi_number":"43560","harbour_size":"M","maximum_vessel":"M","cargo_wharf":true,"rail_connection":true,"provisions":true,"water":true,"fuel_oil":true,"gameplay_status":"selected","source":"NGA-World-Port-Index","territory_id":"RO-03","country_code":"RO","strategic_score":56},"geometry":{"type":"Point","coordinates":[28.6499999997549,44.1666666665387]}},{"type":"Feature","properties":{"node_id":"PORT-43562","node_type":"port","name":"MEDGIDIA","wpi_number":"43562","harbour_size":"V","maximum_vessel":"L","cargo_wharf":true,"rail_connection":true,"provisions":false,"water":true,"fuel_oil":false,"gameplay_status":"selected","source":"NGA-World-Port-Index","territory_id":"RO-03","country_code":"RO","strategic_score":41},"geometry":{"type":"Point","coordinates":[28.2666666670572,44.2500000002308]}},{"type":"Feature","properties":{"node_id":"PORT-37900","node_type":"port","name":"VIGO","wpi_number":"37900","harbour_size":"M","maximum_vessel":"M","cargo_wharf":true,"rail_connection":true,"provisions":true,"water":true,"fuel_oil":true,"gameplay_status":"selected","source":"NGA-World-Port-Index","territory_id":"ES-01","country_code":"ES","strategic_score":56},"geometry":{"type":"Point","coordinates":[-8.71666666623515,42.2333333331449]}},{"type":"Feature","properties":{"node_id":"PORT-37740","node_type":"port","name":"FERROL","wpi_number":"37740","harbour_size":"M","maximum_vessel":"M","cargo_wharf":true,"rail_connection":true,"provisions":false,"water":true,"fuel_oil":true,"gameplay_status":"selected","source":"NGA-World-Port-Index","territory_id":"ES-01","country_code":"ES","strategic_score":54},"geometry":{"type":"Point","coordinates":[-8.23333333335172,43.483333333058]}},{"type":"Feature","properties":{"node_id":"PORT-28860","node_type":"port","name":"ROSTOCK","wpi_number":"28860","harbour_size":"L","maximum_vessel":"M","cargo_wharf":true,"rail_connection":true,"provisions":true,"water":true,"fuel_oil":true,"gameplay_status":"selected","source":"NGA-World-Port-Index","territory_id":"DE-01","country_code":"DE","strategic_score":71},"geometry":{"type":"Point","coordinates":[12.1333333334077,54.1000000001188]}},{"type":"Feature","properties":{"node_id":"PORT-30900","node_type":"port","name":"BREMEN","wpi_number":"30900","harbour_size":"L","maximum_vessel":"M","cargo_wharf":true,"rail_connection":true,"provisions":true,"water":true,"fuel_oil":true,"gameplay_status":"selected","source":"NGA-World-Port-Index","territory_id":"DE-01","country_code":"DE","strategic_score":71},"geometry":{"type":"Point","coordinates":[8.76666666677718,53.1333333331139]}},{"type":"Feature","properties":{"node_id":"PORT-38480","node_type":"port","name":"VALENCIA","wpi_number":"38480","harbour_size":"M","maximum_vessel":"M","cargo_wharf":true,"rail_connection":true,"provisions":true,"water":true,"fuel_oil":true,"gameplay_status":"selected","source":"NGA-World-Port-Index","territory_id":"ES-05","country_code":"ES","strategic_score":56},"geometry":{"type":"Point","coordinates":[-0.316666666805577,39.4499999998988]}},{"type":"Feature","properties":{"node_id":"PORT-38440","node_type":"port","name":"ALICANTE","wpi_number":"38440","harbour_size":"M","maximum_vessel":"M","cargo_wharf":true,"rail_connection":true,"provisions":true,"water":true,"fuel_oil":true,"gameplay_status":"selected","source":"NGA-World-Port-Index","territory_id":"ES-05","country_code":"ES","strategic_score":56},"geometry":{"type":"Point","coordinates":[-0.483333333781759,38.3333333335904]}},{"type":"Feature","properties":{"node_id":"PORT-35950","node_type":"port","name":"RADE DE CHERBOURG","wpi_number":"35950","harbour_size":"L","maximum_vessel":"M","cargo_wharf":true,"rail_connection":true,"provisions":true,"water":true,"fuel_oil":true,"gameplay_status":"selected","source":"NGA-World-Port-Index","territory_id":"FR-01","country_code":"FR","strategic_score":71},"geometry":{"type":"Point","coordinates":[-1.63333333367159,49.6500000001391]}},{"type":"Feature","properties":{"node_id":"PORT-36460","node_type":"port","name":"RADE DE BREST","wpi_number":"36460","harbour_size":"L","maximum_vessel":"M","cargo_wharf":true,"rail_connection":true,"provisions":false,"water":true,"fuel_oil":true,"gameplay_status":"selected","source":"NGA-World-Port-Index","territory_id":"FR-01","country_code":"FR","strategic_score":69},"geometry":{"type":"Point","coordinates":[-4.50000000027191,48.383333333066]}},{"type":"Feature","properties":{"node_id":"PORT-31250","node_type":"port","name":"ANTWERPEN","wpi_number":"31250","harbour_size":"L","maximum_vessel":"M","cargo_wharf":true,"rail_connection":true,"provisions":true,"water":true,"fuel_oil":true,"gameplay_status":"selected","source":"NGA-World-Port-Index","territory_id":"BE-01","country_code":"BE","strategic_score":71},"geometry":{"type":"Point","coordinates":[4.40000000008621,51.2166666666824]}},{"type":"Feature","properties":{"node_id":"PORT-31270","node_type":"port","name":"GHENT","wpi_number":"31270","harbour_size":"M","maximum_vessel":"L","cargo_wharf":true,"rail_connection":true,"provisions":true,"water":true,"fuel_oil":true,"gameplay_status":"selected","source":"NGA-World-Port-Index","territory_id":"BE-01","country_code":"BE","strategic_score":66},"geometry":{"type":"Point","coordinates":[3.73333333307981,51.0666666668776]}},{"type":"Feature","properties":{"node_id":"PORT-37970","node_type":"port","name":"AVEIRO","wpi_number":"37970","harbour_size":"M","maximum_vessel":"M","cargo_wharf":true,"rail_connection":true,"provisions":false,"water":true,"fuel_oil":true,"gameplay_status":"selected","source":"NGA-World-Port-Index","territory_id":"PT-01","country_code":"PT","strategic_score":54},"geometry":{"type":"Point","coordinates":[-8.65000000034303,40.6499999997018]}},{"type":"Feature","properties":{"node_id":"PORT-37950","node_type":"port","name":"PORTO DE LEIXOES","wpi_number":"37950","harbour_size":"V","maximum_vessel":"L","cargo_wharf":true,"rail_connection":true,"provisions":true,"water":true,"fuel_oil":true,"gameplay_status":"selected","source":"NGA-World-Port-Index","territory_id":"PT-01","country_code":"PT","strategic_score":45},"geometry":{"type":"Point","coordinates":[-8.69999999998669,41.1833333331072]}},{"type":"Feature","properties":{"node_id":"PORT-27520","node_type":"port","name":"OULU","wpi_number":"27520","harbour_size":"L","maximum_vessel":"M","cargo_wharf":true,"rail_connection":true,"provisions":true,"water":true,"fuel_oil":true,"gameplay_status":"selected","source":"NGA-World-Port-Index","territory_id":"FI-03","country_code":"FI","strategic_score":71},"geometry":{"type":"Point","coordinates":[25.3999999995585,65.0166666664997]}},{"type":"Feature","properties":{"node_id":"PORT-27535","node_type":"port","name":"VEITSILUOTO","wpi_number":"27535","harbour_size":"S","maximum_vessel":"M","cargo_wharf":true,"rail_connection":true,"provisions":true,"water":true,"fuel_oil":true,"gameplay_status":"selected","source":"NGA-World-Port-Index","territory_id":"FI-03","country_code":"FI","strategic_score":41},"geometry":{"type":"Point","coordinates":[24.6166666670162,65.7000000000362]}},{"type":"Feature","properties":{"node_id":"PORT-39810","node_type":"port","name":"CIVITAVECCHIA","wpi_number":"39810","harbour_size":"M","maximum_vessel":"M","cargo_wharf":true,"rail_connection":true,"provisions":false,"water":true,"fuel_oil":true,"gameplay_status":"selected","source":"NGA-World-Port-Index","territory_id":"IT-02","country_code":"IT","strategic_score":54},"geometry":{"type":"Point","coordinates":[11.7833333332069,42.0999999999579]}},{"type":"Feature","properties":{"node_id":"PORT-39590","node_type":"port","name":"LIVORNO","wpi_number":"39590","harbour_size":"S","maximum_vessel":"L","cargo_wharf":true,"rail_connection":true,"provisions":false,"water":true,"fuel_oil":true,"gameplay_status":"selected","source":"NGA-World-Port-Index","territory_id":"IT-02","country_code":"IT","strategic_score":49},"geometry":{"type":"Point","coordinates":[10.3166666665115,43.5500000002463]}},{"type":"Feature","properties":{"node_id":"PORT-41415","node_type":"port","name":"NEUM","wpi_number":"41415","harbour_size":"S","maximum_vessel":null,"cargo_wharf":true,"rail_connection":false,"provisions":false,"water":false,"fuel_oil":false,"gameplay_status":"selected","source":"NGA-World-Port-Index","territory_id":"BA-01","country_code":"BA","strategic_score":20},"geometry":{"type":"Point","coordinates":[17.6000000003448,42.916666666959]}},{"type":"Feature","properties":{"node_id":"PORT-28190","node_type":"port","name":"HELSINKI","wpi_number":"28190","harbour_size":"L","maximum_vessel":"L","cargo_wharf":true,"rail_connection":true,"provisions":true,"water":true,"fuel_oil":true,"gameplay_status":"selected","source":"NGA-World-Port-Index","territory_id":"FI-01","country_code":"FI","strategic_score":81},"geometry":{"type":"Point","coordinates":[24.9666666663187,60.1666666666673]}},{"type":"Feature","properties":{"node_id":"PORT-28230","node_type":"port","name":"KOTKA","wpi_number":"28230","harbour_size":"L","maximum_vessel":"M","cargo_wharf":true,"rail_connection":true,"provisions":true,"water":true,"fuel_oil":true,"gameplay_status":"selected","source":"NGA-World-Port-Index","territory_id":"FI-01","country_code":"FI","strategic_score":71},"geometry":{"type":"Point","coordinates":[26.9666666664396,60.4666666667573]}},{"type":"Feature","properties":{"node_id":"PORT-41670","node_type":"port","name":"DURRES","wpi_number":"41670","harbour_size":"S","maximum_vessel":"M","cargo_wharf":true,"rail_connection":true,"provisions":true,"water":true,"fuel_oil":true,"gameplay_status":"selected","source":"NGA-World-Port-Index","territory_id":"AL-01","country_code":"AL","strategic_score":41},"geometry":{"type":"Point","coordinates":[19.4499999997379,41.3166666665036]}},{"type":"Feature","properties":{"node_id":"PORT-41690","node_type":"port","name":"VLORES","wpi_number":"41690","harbour_size":"V","maximum_vessel":"M","cargo_wharf":true,"rail_connection":true,"provisions":false,"water":true,"fuel_oil":true,"gameplay_status":"selected","source":"NGA-World-Port-Index","territory_id":"AL-01","country_code":"AL","strategic_score":33},"geometry":{"type":"Point","coordinates":[19.50000000028,40.4666666667267]}},{"type":"Feature","properties":{"node_id":"PORT-44010","node_type":"port","name":"MARIUPOL","wpi_number":"44010","harbour_size":"S","maximum_vessel":"L","cargo_wharf":true,"rail_connection":true,"provisions":true,"water":true,"fuel_oil":true,"gameplay_status":"selected","source":"NGA-World-Port-Index","territory_id":"UA-03","country_code":"UA","strategic_score":51},"geometry":{"type":"Point","coordinates":[37.5666666663615,47.0833333333429]}},{"type":"Feature","properties":{"node_id":"PORT-44000","node_type":"port","name":"BERDYANSK","wpi_number":"44000","harbour_size":"S","maximum_vessel":"M","cargo_wharf":true,"rail_connection":true,"provisions":true,"water":true,"fuel_oil":true,"gameplay_status":"selected","source":"NGA-World-Port-Index","territory_id":"UA-03","country_code":"UA","strategic_score":41},"geometry":{"type":"Point","coordinates":[36.7833333329209,46.7499999999407]}},{"type":"Feature","properties":{"node_id":"PORT-28610","node_type":"port","name":"RIGA","wpi_number":"28610","harbour_size":"L","maximum_vessel":"L","cargo_wharf":true,"rail_connection":false,"provisions":false,"water":true,"fuel_oil":true,"gameplay_status":"selected","source":"NGA-World-Port-Index","territory_id":"LV-01","country_code":"LV","strategic_score":74},"geometry":{"type":"Point","coordinates":[24.0999999998393,56.9500000001902]}},{"type":"Feature","properties":{"node_id":"PORT-28620","node_type":"port","name":"VENTSPILS","wpi_number":"28620","harbour_size":"M","maximum_vessel":"M","cargo_wharf":true,"rail_connection":true,"provisions":true,"water":true,"fuel_oil":true,"gameplay_status":"selected","source":"NGA-World-Port-Index","territory_id":"LV-01","country_code":"LV","strategic_score":56},"geometry":{"type":"Point","coordinates":[21.5333333328977,57.3999999999337]}},{"type":"Feature","properties":{"node_id":"PORT-28690","node_type":"port","name":"KALININGRAD","wpi_number":"28690","harbour_size":"M","maximum_vessel":"M","cargo_wharf":true,"rail_connection":true,"provisions":true,"water":true,"fuel_oil":true,"gameplay_status":"selected","source":"NGA-World-Port-Index","territory_id":"RU-01","country_code":"RU","strategic_score":56},"geometry":{"type":"Point","coordinates":[20.4833333331936,54.6999999999613]}},{"type":"Feature","properties":{"node_id":"PORT-28680","node_type":"port","name":"BALTIYSK","wpi_number":"28680","harbour_size":"S","maximum_vessel":"L","cargo_wharf":true,"rail_connection":true,"provisions":true,"water":true,"fuel_oil":true,"gameplay_status":"selected","source":"NGA-World-Port-Index","territory_id":"RU-01","country_code":"RU","strategic_score":51},"geometry":{"type":"Point","coordinates":[19.9000000001245,54.633333333237]}},{"type":"Feature","properties":{"node_id":"PORT-40860","node_type":"port","name":"KOPER","wpi_number":"40860","harbour_size":"S","maximum_vessel":"M","cargo_wharf":true,"rail_connection":true,"provisions":true,"water":true,"fuel_oil":true,"gameplay_status":"selected","source":"NGA-World-Port-Index","territory_id":"SI-01","country_code":"SI","strategic_score":41},"geometry":{"type":"Point","coordinates":[13.7333333336841,45.5499999999713]}},{"type":"Feature","properties":{"node_id":"PORT-40870","node_type":"port","name":"PIRAN","wpi_number":"40870","harbour_size":"V","maximum_vessel":null,"cargo_wharf":false,"rail_connection":false,"provisions":true,"water":true,"fuel_oil":true,"gameplay_status":"selected","source":"NGA-World-Port-Index","territory_id":"SI-01","country_code":"SI","strategic_score":10},"geometry":{"type":"Point","coordinates":[13.5666666667079,45.5333333330559]}},{"type":"Feature","properties":{"node_id":"PORT-28823","node_type":"port","name":"SZCZECIN","wpi_number":"28823","harbour_size":"M","maximum_vessel":"M","cargo_wharf":true,"rail_connection":true,"provisions":true,"water":true,"fuel_oil":true,"gameplay_status":"selected","source":"NGA-World-Port-Index","territory_id":"PL-02","country_code":"PL","strategic_score":56},"geometry":{"type":"Point","coordinates":[14.5499999996215,53.4166666668015]}},{"type":"Feature","properties":{"node_id":"PORT-28820","node_type":"port","name":"SWINOUJSCIE","wpi_number":"28820","harbour_size":"S","maximum_vessel":"M","cargo_wharf":true,"rail_connection":true,"provisions":true,"water":true,"fuel_oil":true,"gameplay_status":"selected","source":"NGA-World-Port-Index","territory_id":"PL-02","country_code":"PL","strategic_score":41},"geometry":{"type":"Point","coordinates":[14.2666666671095,53.9166666668916]}},{"type":"Feature","properties":{"node_id":"PORT-31630","node_type":"port","name":"BOSTON","wpi_number":"31630","harbour_size":"S","maximum_vessel":null,"cargo_wharf":true,"rail_connection":true,"provisions":true,"water":true,"fuel_oil":true,"gameplay_status":"selected","source":"NGA-World-Port-Index","territory_id":"GB-03","country_code":"GB","strategic_score":31},"geometry":{"type":"Point","coordinates":[-0.0166666662484563,52.9666666668988]}},{"type":"Feature","properties":{"node_id":"PORT-43510","node_type":"port","name":"VARNA","wpi_number":"43510","harbour_size":"L","maximum_vessel":"M","cargo_wharf":true,"rail_connection":true,"provisions":true,"water":true,"fuel_oil":true,"gameplay_status":"selected","source":"NGA-World-Port-Index","territory_id":"BG-02","country_code":"BG","strategic_score":71},"geometry":{"type":"Point","coordinates":[27.9666666665,43.1833333331875]}},{"type":"Feature","properties":{"node_id":"PORT-43500","node_type":"port","name":"BURGAS","wpi_number":"43500","harbour_size":"S","maximum_vessel":"M","cargo_wharf":true,"rail_connection":true,"provisions":true,"water":true,"fuel_oil":true,"gameplay_status":"selected","source":"NGA-World-Port-Index","territory_id":"BG-02","country_code":"BG","strategic_score":41},"geometry":{"type":"Point","coordinates":[27.4833333336166,42.4833333330635]}},{"type":"Feature","properties":{"node_id":"PORT-40330","node_type":"port","name":"VALLETTA HARBORS","wpi_number":"40330","harbour_size":"M","maximum_vessel":"M","cargo_wharf":true,"rail_connection":false,"provisions":true,"water":true,"fuel_oil":true,"gameplay_status":"selected","source":"NGA-World-Port-Index","territory_id":"MT-01","country_code":"MT","strategic_score":51},"geometry":{"type":"Point","coordinates":[14.5166666662263,35.8999999996778]}},{"type":"Feature","properties":{"node_id":"PORT-40340","node_type":"port","name":"MARSAXLOKK","wpi_number":"40340","harbour_size":"S","maximum_vessel":"M","cargo_wharf":true,"rail_connection":false,"provisions":false,"water":true,"fuel_oil":true,"gameplay_status":"selected","source":"NGA-World-Port-Index","territory_id":"MT-01","country_code":"MT","strategic_score":34},"geometry":{"type":"Point","coordinates":[14.5499999996215,35.8166666668265]}},{"type":"Feature","properties":{"node_id":"PORT-34480","node_type":"port","name":"DUBLIN","wpi_number":"34480","harbour_size":"M","maximum_vessel":"L","cargo_wharf":true,"rail_connection":true,"provisions":true,"water":true,"fuel_oil":true,"gameplay_status":"selected","source":"NGA-World-Port-Index","territory_id":"IE-02","country_code":"IE","strategic_score":66},"geometry":{"type":"Point","coordinates":[-6.25000000037764,53.3500000000034]}},{"type":"Feature","properties":{"node_id":"PORT-34400","node_type":"port","name":"WATERFORD","wpi_number":"34400","harbour_size":"V","maximum_vessel":"L","cargo_wharf":true,"rail_connection":true,"provisions":true,"water":true,"fuel_oil":true,"gameplay_status":"selected","source":"NGA-World-Port-Index","territory_id":"IE-02","country_code":"IE","strategic_score":45},"geometry":{"type":"Point","coordinates":[-7.11666666685714,52.2666666667565]}},{"type":"Feature","properties":{"node_id":"PORT-28840","node_type":"port","name":"SASSNITZ","wpi_number":"28840","harbour_size":"V","maximum_vessel":"L","cargo_wharf":true,"rail_connection":true,"provisions":true,"water":true,"fuel_oil":true,"gameplay_status":"selected","source":"NGA-World-Port-Index","territory_id":"DE-04","country_code":"DE","strategic_score":45},"geometry":{"type":"Point","coordinates":[13.6499999997468,54.5166666666341]}},{"type":"Feature","properties":{"node_id":"PORT-28828","node_type":"port","name":"WOLGAST","wpi_number":"28828","harbour_size":"V","maximum_vessel":"M","cargo_wharf":true,"rail_connection":true,"provisions":true,"water":true,"fuel_oil":true,"gameplay_status":"selected","source":"NGA-World-Port-Index","territory_id":"DE-04","country_code":"DE","strategic_score":35},"geometry":{"type":"Point","coordinates":[13.7833333333278,54.050000000067]}}]}
