{"type":"FeatureCollection","features":[{"type":"Feature","properties":{"node_id":"AIRPORT-LATI","node_type":"large-airport","name":"Tirana International Airport Mother Teresa","ident":"LATI","icao_code":"LATI","iata_code":"TIA","scheduled_service":true,"source_airport_type":"large_airport","longest_open_runway_ft":9843,"gameplay_status":"selected","source":"OurAirports","territory_id":"AL-01","country_code":"AL","strategic_score":143.4},"geometry":{"type":"Point","coordinates":[19.7206,41.4147]}},{"type":"Feature","properties":{"node_id":"AIRPORT-LAKV","node_type":"large-airport","name":"Kuçovë Air Base","ident":"LAKV","icao_code":"LAKV","iata_code":null,"scheduled_service":false,"source_airport_type":"medium_airport","longest_open_runway_ft":9318,"gameplay_status":"selected","source":"OurAirports","territory_id":"AL-01","country_code":"AL","strategic_score":93.2},"geometry":{"type":"Point","coordinates":[19.901899,40.7719]}},{"type":"Feature","properties":{"node_id":"AIRPORT-LBSF","node_type":"large-airport","name":"Sofia Airport","ident":"LBSF","icao_code":"LBSF","iata_code":"SOF","scheduled_service":true,"source_airport_type":"large_airport","longest_open_runway_ft":11811,"gameplay_status":"selected","source":"OurAirports","territory_id":"BG-01","country_code":"BG","strategic_score":163.1},"geometry":{"type":"Point","coordinates":[23.417671,42.696357]}},{"type":"Feature","properties":{"node_id":"AIRPORT-LBPD","node_type":"large-airport","name":"Plovdiv International Airport","ident":"LBPD","icao_code":"LBPD","iata_code":"PDV","scheduled_service":true,"source_airport_type":"large_airport","longest_open_runway_ft":8202,"gameplay_status":"selected","source":"OurAirports","territory_id":"BG-01","country_code":"BG","strategic_score":127},"geometry":{"type":"Point","coordinates":[24.8508,42.067799]}},{"type":"Feature","properties":{"node_id":"AIRPORT-LBBG","node_type":"large-airport","name":"Burgas Airport","ident":"LBBG","icao_code":"LBBG","iata_code":"BOJ","scheduled_service":true,"source_airport_type":"large_airport","longest_open_runway_ft":10499,"gameplay_status":"selected","source":"OurAirports","territory_id":"BG-02","country_code":"BG","strategic_score":150},"geometry":{"type":"Point","coordinates":[27.515173,42.569917]}},{"type":"Feature","properties":{"node_id":"AIRPORT-LBWN","node_type":"large-airport","name":"Varna Airport","ident":"LBWN","icao_code":"LBWN","iata_code":"VAR","scheduled_service":true,"source_airport_type":"large_airport","longest_open_runway_ft":8258,"gameplay_status":"selected","source":"OurAirports","territory_id":"BG-02","country_code":"BG","strategic_score":127.6},"geometry":{"type":"Point","coordinates":[27.8251,43.232101]}},{"type":"Feature","properties":{"node_id":"AIRPORT-BIKF","node_type":"large-airport","name":"Keflavik International Airport","ident":"BIKF","icao_code":"BIKF","iata_code":"KEF","scheduled_service":true,"source_airport_type":"large_airport","longest_open_runway_ft":10056,"gameplay_status":"selected","source":"OurAirports","territory_id":"IS-01","country_code":"IS","strategic_score":145.6},"geometry":{"type":"Point","coordinates":[-22.6056,63.985001]}},{"type":"Feature","properties":{"node_id":"AIRPORT-BIAR","node_type":"large-airport","name":"Akureyri International Airport","ident":"BIAR","icao_code":"BIAR","iata_code":"AEY","scheduled_service":true,"source_airport_type":"large_airport","longest_open_runway_ft":8858,"gameplay_status":"selected","source":"OurAirports","territory_id":"IS-01","country_code":"IS","strategic_score":133.6},"geometry":{"type":"Point","coordinates":[-18.072018,65.656573]}},{"type":"Feature","properties":{"node_id":"AIRPORT-BKPR","node_type":"large-airport","name":"Priština Adem Jashari International Airport","ident":"BKPR","icao_code":"BKPR","iata_code":"PRN","scheduled_service":true,"source_airport_type":"large_airport","longest_open_runway_ft":9974,"gameplay_status":"selected","source":"OurAirports","territory_id":"XK-01","country_code":"XK","strategic_score":144.7},"geometry":{"type":"Point","coordinates":[21.035801,42.5728]}},{"type":"Feature","properties":{"node_id":"AIRPORT-UMMS","node_type":"large-airport","name":"Minsk National Airport","ident":"UMMS","icao_code":"UMMS","iata_code":"MSQ","scheduled_service":true,"source_airport_type":"large_airport","longest_open_runway_ft":12139,"gameplay_status":"selected","source":"OurAirports","territory_id":"BY-02","country_code":"BY","strategic_score":166.4},"geometry":{"type":"Point","coordinates":[28.039964,53.888071]}},{"type":"Feature","properties":{"node_id":"AIRPORT-UMGG","node_type":"large-airport","name":"Gomel Airport","ident":"UMGG","icao_code":"UMGG","iata_code":"GME","scheduled_service":true,"source_airport_type":"medium_airport","longest_open_runway_ft":8428,"gameplay_status":"selected","source":"OurAirports","territory_id":"BY-02","country_code":"BY","strategic_score":99.3},"geometry":{"type":"Point","coordinates":[31.016700744628906,52.527000427246094]}},{"type":"Feature","properties":{"node_id":"AIRPORT-UMBB","node_type":"large-airport","name":"Brest International Airport","ident":"UMBB","icao_code":"UMBB","iata_code":"BQT","scheduled_service":true,"source_airport_type":"large_airport","longest_open_runway_ft":8596,"gameplay_status":"selected","source":"OurAirports","territory_id":"BY-01","country_code":"BY","strategic_score":131},"geometry":{"type":"Point","coordinates":[23.89676,52.108138]}},{"type":"Feature","properties":{"node_id":"AIRPORT-UMMA","node_type":"large-airport","name":"Baranavichi Air Base","ident":"UMMA","icao_code":null,"iata_code":null,"scheduled_service":false,"source_airport_type":"medium_airport","longest_open_runway_ft":9836,"gameplay_status":"selected","source":"OurAirports","territory_id":"BY-01","country_code":"BY","strategic_score":98.4},"geometry":{"type":"Point","coordinates":[26.049999,53.099998]}},{"type":"Feature","properties":{"node_id":"AIRPORT-EDDV","node_type":"large-airport","name":"Hannover Airport","ident":"EDDV","icao_code":"EDDV","iata_code":"HAJ","scheduled_service":true,"source_airport_type":"large_airport","longest_open_runway_ft":12434,"gameplay_status":"selected","source":"OurAirports","territory_id":"DE-01","country_code":"DE","strategic_score":169.3},"geometry":{"type":"Point","coordinates":[9.68508,52.461102]}},{"type":"Feature","properties":{"node_id":"AIRPORT-EDDH","node_type":"large-airport","name":"Hamburg Helmut Schmidt Airport","ident":"EDDH","icao_code":"EDDH","iata_code":"HAM","scheduled_service":true,"source_airport_type":"large_airport","longest_open_runway_ft":12028,"gameplay_status":"selected","source":"OurAirports","territory_id":"DE-01","country_code":"DE","strategic_score":165.3},"geometry":{"type":"Point","coordinates":[9.98823,53.630402]}},{"type":"Feature","properties":{"node_id":"AIRPORT-EDDM","node_type":"large-airport","name":"Munich Airport","ident":"EDDM","icao_code":"EDDM","iata_code":"MUC","scheduled_service":true,"source_airport_type":"large_airport","longest_open_runway_ft":13123,"gameplay_status":"selected","source":"OurAirports","territory_id":"DE-06","country_code":"DE","strategic_score":176.2},"geometry":{"type":"Point","coordinates":[11.7861,48.353802]}},{"type":"Feature","properties":{"node_id":"AIRPORT-EDDN","node_type":"large-airport","name":"Nuremberg Airport","ident":"EDDN","icao_code":"EDDN","iata_code":"NUE","scheduled_service":true,"source_airport_type":"large_airport","longest_open_runway_ft":8858,"gameplay_status":"selected","source":"OurAirports","territory_id":"DE-06","country_code":"DE","strategic_score":133.6},"geometry":{"type":"Point","coordinates":[11.078056,49.498699]}},{"type":"Feature","properties":{"node_id":"AIRPORT-EBCI","node_type":"large-airport","name":"Brussels South Charleroi Airport","ident":"EBCI","icao_code":"EBCI","iata_code":"CRL","scheduled_service":true,"source_airport_type":"large_airport","longest_open_runway_ft":10023,"gameplay_status":"selected","source":"OurAirports","territory_id":"BE-02","country_code":"BE","strategic_score":145.2},"geometry":{"type":"Point","coordinates":[4.459562,50.461963]}},{"type":"Feature","properties":{"node_id":"AIRPORT-EBLG","node_type":"large-airport","name":"Liège Airport","ident":"EBLG","icao_code":"EBLG","iata_code":"LGG","scheduled_service":true,"source_airport_type":"medium_airport","longest_open_runway_ft":12106,"gameplay_status":"selected","source":"OurAirports","territory_id":"BE-02","country_code":"BE","strategic_score":136.1},"geometry":{"type":"Point","coordinates":[5.443897,50.638574]}},{"type":"Feature","properties":{"node_id":"AIRPORT-EBBR","node_type":"large-airport","name":"Brussels Airport","ident":"EBBR","icao_code":"EBBR","iata_code":"BRU","scheduled_service":true,"source_airport_type":"large_airport","longest_open_runway_ft":11936,"gameplay_status":"selected","source":"OurAirports","territory_id":"BE-01","country_code":"BE","strategic_score":164.4},"geometry":{"type":"Point","coordinates":[4.48444,50.901402]}},{"type":"Feature","properties":{"node_id":"AIRPORT-EBOS","node_type":"large-airport","name":"Ostend-Bruges International Airport","ident":"EBOS","icao_code":"EBOS","iata_code":"OST","scheduled_service":true,"source_airport_type":"large_airport","longest_open_runway_ft":10499,"gameplay_status":"selected","source":"OurAirports","territory_id":"BE-01","country_code":"BE","strategic_score":150},"geometry":{"type":"Point","coordinates":[2.874673,51.1998]}},{"type":"Feature","properties":{"node_id":"AIRPORT-EDDB","node_type":"large-airport","name":"Berlin Brandenburg Airport","ident":"EDDB","icao_code":"EDDB","iata_code":"BER","scheduled_service":true,"source_airport_type":"large_airport","longest_open_runway_ft":13123,"gameplay_status":"selected","source":"OurAirports","territory_id":"DE-04","country_code":"DE","strategic_score":176.2},"geometry":{"type":"Point","coordinates":[13.502341,52.361738]}},{"type":"Feature","properties":{"node_id":"AIRPORT-EDDP","node_type":"large-airport","name":"Leipzig/Halle Airport","ident":"EDDP","icao_code":"EDDP","iata_code":"LEJ","scheduled_service":true,"source_airport_type":"large_airport","longest_open_runway_ft":11811,"gameplay_status":"selected","source":"OurAirports","territory_id":"DE-04","country_code":"DE","strategic_score":163.1},"geometry":{"type":"Point","coordinates":[12.232705,51.420657]}},{"type":"Feature","properties":{"node_id":"AIRPORT-EDDF","node_type":"large-airport","name":"Frankfurt Main Airport","ident":"EDDF","icao_code":"EDDF","iata_code":"FRA","scheduled_service":true,"source_airport_type":"large_airport","longest_open_runway_ft":13123,"gameplay_status":"selected","source":"OurAirports","territory_id":"DE-03","country_code":"DE","strategic_score":176.2},"geometry":{"type":"Point","coordinates":[8.55835,50.026706]}},{"type":"Feature","properties":{"node_id":"AIRPORT-EDFH","node_type":"large-airport","name":"Frankfurt-Hahn Airport","ident":"EDFH","icao_code":"EDFH","iata_code":"HHN","scheduled_service":true,"source_airport_type":"large_airport","longest_open_runway_ft":12467,"gameplay_status":"selected","source":"OurAirports","territory_id":"DE-03","country_code":"DE","strategic_score":169.7},"geometry":{"type":"Point","coordinates":[7.261734,49.946353]}},{"type":"Feature","properties":{"node_id":"AIRPORT-EDDK","node_type":"large-airport","name":"Cologne Bonn Airport","ident":"EDDK","icao_code":"EDDK","iata_code":"CGN","scheduled_service":true,"source_airport_type":"large_airport","longest_open_runway_ft":12516,"gameplay_status":"selected","source":"OurAirports","territory_id":"DE-02","country_code":"DE","strategic_score":170.2},"geometry":{"type":"Point","coordinates":[7.14274,50.865898]}},{"type":"Feature","properties":{"node_id":"AIRPORT-EDDL","node_type":"large-airport","name":"Düsseldorf Airport","ident":"EDDL","icao_code":"EDDL","iata_code":"DUS","scheduled_service":true,"source_airport_type":"large_airport","longest_open_runway_ft":9842,"gameplay_status":"selected","source":"OurAirports","territory_id":"DE-02","country_code":"DE","strategic_score":143.4},"geometry":{"type":"Point","coordinates":[6.76678,51.289501]}},{"type":"Feature","properties":{"node_id":"AIRPORT-EDDS","node_type":"large-airport","name":"Stuttgart Airport","ident":"EDDS","icao_code":"EDDS","iata_code":"STR","scheduled_service":true,"source_airport_type":"large_airport","longest_open_runway_ft":10974,"gameplay_status":"selected","source":"OurAirports","territory_id":"DE-05","country_code":"DE","strategic_score":154.7},"geometry":{"type":"Point","coordinates":[9.22196,48.689899]}},{"type":"Feature","properties":{"node_id":"AIRPORT-EDSB","node_type":"large-airport","name":"Karlsruhe Baden-Baden Airport","ident":"EDSB","icao_code":"EDSB","iata_code":"FKB","scheduled_service":true,"source_airport_type":"large_airport","longest_open_runway_ft":9787,"gameplay_status":"selected","source":"OurAirports","territory_id":"DE-05","country_code":"DE","strategic_score":142.9},"geometry":{"type":"Point","coordinates":[8.0805,48.7794]}},{"type":"Feature","properties":{"node_id":"AIRPORT-EETN","node_type":"large-airport","name":"Lennart Meri Tallinn Airport","ident":"EETN","icao_code":"EETN","iata_code":"TLL","scheduled_service":true,"source_airport_type":"large_airport","longest_open_runway_ft":11417,"gameplay_status":"selected","source":"OurAirports","territory_id":"EE-01","country_code":"EE","strategic_score":159.2},"geometry":{"type":"Point","coordinates":[24.83264,59.413246]}},{"type":"Feature","properties":{"node_id":"AIRPORT-EFKU","node_type":"large-airport","name":"Kuopio Airport","ident":"EFKU","icao_code":"EFKU","iata_code":"KUO","scheduled_service":true,"source_airport_type":"large_airport","longest_open_runway_ft":9186,"gameplay_status":"selected","source":"OurAirports","territory_id":"FI-02","country_code":"FI","strategic_score":136.9},"geometry":{"type":"Point","coordinates":[27.7978,63.007099]}},{"type":"Feature","properties":{"node_id":"AIRPORT-EFTP","node_type":"large-airport","name":"Tampere-Pirkkala Airport","ident":"EFTP","icao_code":"EFTP","iata_code":"TMP","scheduled_service":true,"source_airport_type":"large_airport","longest_open_runway_ft":8858,"gameplay_status":"selected","source":"OurAirports","territory_id":"FI-02","country_code":"FI","strategic_score":133.6},"geometry":{"type":"Point","coordinates":[23.604401,61.414101]}},{"type":"Feature","properties":{"node_id":"AIRPORT-EFHK","node_type":"large-airport","name":"Helsinki Vantaa Airport","ident":"EFHK","icao_code":"EFHK","iata_code":"HEL","scheduled_service":true,"source_airport_type":"large_airport","longest_open_runway_ft":11483,"gameplay_status":"selected","source":"OurAirports","territory_id":"FI-01","country_code":"FI","strategic_score":159.8},"geometry":{"type":"Point","coordinates":[24.963341,60.318363]}},{"type":"Feature","properties":{"node_id":"AIRPORT-EFLP","node_type":"large-airport","name":"Lappeenranta Airport","ident":"EFLP","icao_code":"EFLP","iata_code":"LPP","scheduled_service":true,"source_airport_type":"large_airport","longest_open_runway_ft":8202,"gameplay_status":"selected","source":"OurAirports","territory_id":"FI-01","country_code":"FI","strategic_score":127},"geometry":{"type":"Point","coordinates":[28.144743,61.044601]}},{"type":"Feature","properties":{"node_id":"AIRPORT-EFRO","node_type":"large-airport","name":"Rovaniemi Airport","ident":"EFRO","icao_code":"EFRO","iata_code":"RVN","scheduled_service":true,"source_airport_type":"large_airport","longest_open_runway_ft":9849,"gameplay_status":"selected","source":"OurAirports","territory_id":"FI-03","country_code":"FI","strategic_score":143.5},"geometry":{"type":"Point","coordinates":[25.829751,66.563327]}},{"type":"Feature","properties":{"node_id":"AIRPORT-EFOU","node_type":"large-airport","name":"Oulu Airport","ident":"EFOU","icao_code":"EFOU","iata_code":"OUL","scheduled_service":true,"source_airport_type":"large_airport","longest_open_runway_ft":8205,"gameplay_status":"selected","source":"OurAirports","territory_id":"FI-03","country_code":"FI","strategic_score":127},"geometry":{"type":"Point","coordinates":[25.354601,64.930099]}},{"type":"Feature","properties":{"node_id":"AIRPORT-EGBB","node_type":"large-airport","name":"Birmingham Airport","ident":"EGBB","icao_code":"EGBB","iata_code":"BHX","scheduled_service":true,"source_airport_type":"large_airport","longest_open_runway_ft":10013,"gameplay_status":"selected","source":"OurAirports","territory_id":"GB-03","country_code":"GB","strategic_score":145.1},"geometry":{"type":"Point","coordinates":[-1.74803,52.453899]}},{"type":"Feature","properties":{"node_id":"AIRPORT-EGNX","node_type":"large-airport","name":"East Midlands Airport","ident":"EGNX","icao_code":"EGNX","iata_code":"EMA","scheduled_service":true,"source_airport_type":"large_airport","longest_open_runway_ft":9495,"gameplay_status":"selected","source":"OurAirports","territory_id":"GB-03","country_code":"GB","strategic_score":139.9},"geometry":{"type":"Point","coordinates":[-1.32806,52.8311]}},{"type":"Feature","properties":{"node_id":"AIRPORT-EGAA","node_type":"large-airport","name":"Belfast International Airport","ident":"EGAA","icao_code":"EGAA","iata_code":"BFS","scheduled_service":true,"source_airport_type":"large_airport","longest_open_runway_ft":9121,"gameplay_status":"selected","source":"OurAirports","territory_id":"GB-06","country_code":"GB","strategic_score":136.2},"geometry":{"type":"Point","coordinates":[-6.2158298492399995,54.6575012207]}},{"type":"Feature","properties":{"node_id":"AIRPORT-EGCC","node_type":"large-airport","name":"Manchester Airport","ident":"EGCC","icao_code":"EGCC","iata_code":"MAN","scheduled_service":true,"source_airport_type":"large_airport","longest_open_runway_ft":10007,"gameplay_status":"selected","source":"OurAirports","territory_id":"GB-02","country_code":"GB","strategic_score":145.1},"geometry":{"type":"Point","coordinates":[-2.279521,53.349375]}},{"type":"Feature","properties":{"node_id":"AIRPORT-EGNT","node_type":"large-airport","name":"Newcastle International Airport","ident":"EGNT","icao_code":"EGNT","iata_code":"NCL","scheduled_service":true,"source_airport_type":"large_airport","longest_open_runway_ft":7644,"gameplay_status":"selected","source":"OurAirports","territory_id":"GB-02","country_code":"GB","strategic_score":121.4},"geometry":{"type":"Point","coordinates":[-1.689577,55.037958]}},{"type":"Feature","properties":{"node_id":"AIRPORT-EGLL","node_type":"large-airport","name":"London Heathrow Airport","ident":"EGLL","icao_code":"EGLL","iata_code":"LHR","scheduled_service":true,"source_airport_type":"large_airport","longest_open_runway_ft":12799,"gameplay_status":"selected","source":"OurAirports","territory_id":"GB-04","country_code":"GB","strategic_score":173},"geometry":{"type":"Point","coordinates":[-0.459909,51.470748]}},{"type":"Feature","properties":{"node_id":"AIRPORT-EGKK","node_type":"large-airport","name":"London Gatwick Airport","ident":"EGKK","icao_code":"EGKK","iata_code":"LGW","scheduled_service":true,"source_airport_type":"large_airport","longest_open_runway_ft":10883,"gameplay_status":"selected","source":"OurAirports","territory_id":"GB-04","country_code":"GB","strategic_score":153.8},"geometry":{"type":"Point","coordinates":[-0.185739,51.148744]}},{"type":"Feature","properties":{"node_id":"AIRPORT-EGPK","node_type":"large-airport","name":"Glasgow Prestwick Airport","ident":"EGPK","icao_code":"EGPK","iata_code":"PIK","scheduled_service":true,"source_airport_type":"large_airport","longest_open_runway_ft":9800,"gameplay_status":"selected","source":"OurAirports","territory_id":"GB-01","country_code":"GB","strategic_score":143},"geometry":{"type":"Point","coordinates":[-4.577182,55.501499]}},{"type":"Feature","properties":{"node_id":"AIRPORT-EGPF","node_type":"large-airport","name":"Glasgow Airport","ident":"EGPF","icao_code":"EGPF","iata_code":"GLA","scheduled_service":true,"source_airport_type":"large_airport","longest_open_runway_ft":8730,"gameplay_status":"selected","source":"OurAirports","territory_id":"GB-01","country_code":"GB","strategic_score":132.3},"geometry":{"type":"Point","coordinates":[-4.43306,55.871899]}},{"type":"Feature","properties":{"node_id":"AIRPORT-EHAM","node_type":"large-airport","name":"Amsterdam Airport Schiphol","ident":"EHAM","icao_code":"EHAM","iata_code":"AMS","scheduled_service":true,"source_airport_type":"large_airport","longest_open_runway_ft":12467,"gameplay_status":"selected","source":"OurAirports","territory_id":"NL-01","country_code":"NL","strategic_score":169.7},"geometry":{"type":"Point","coordinates":[4.76389,52.308601]}},{"type":"Feature","properties":{"node_id":"AIRPORT-EHEH","node_type":"large-airport","name":"Eindhoven Airport","ident":"EHEH","icao_code":"EHEH","iata_code":"EIN","scheduled_service":true,"source_airport_type":"large_airport","longest_open_runway_ft":9843,"gameplay_status":"selected","source":"OurAirports","territory_id":"NL-01","country_code":"NL","strategic_score":143.4},"geometry":{"type":"Point","coordinates":[5.37452983856,51.4500999451]}},{"type":"Feature","properties":{"node_id":"AIRPORT-EHGG","node_type":"large-airport","name":"Groningen Airport Eelde","ident":"EHGG","icao_code":"EHGG","iata_code":"GRQ","scheduled_service":true,"source_airport_type":"large_airport","longest_open_runway_ft":8202,"gameplay_status":"selected","source":"OurAirports","territory_id":"NL-02","country_code":"NL","strategic_score":127},"geometry":{"type":"Point","coordinates":[6.577652,53.119107]}},{"type":"Feature","properties":{"node_id":"AIRPORT-EHTW","node_type":"large-airport","name":"Twente Airport","ident":"EHTW","icao_code":"EHTW","iata_code":"ENS","scheduled_service":false,"source_airport_type":"medium_airport","longest_open_runway_ft":9801,"gameplay_status":"selected","source":"OurAirports","territory_id":"NL-02","country_code":"NL","strategic_score":98},"geometry":{"type":"Point","coordinates":[6.889167,52.275833]}},{"type":"Feature","properties":{"node_id":"AIRPORT-EINN","node_type":"large-airport","name":"Shannon Airport","ident":"EINN","icao_code":"EINN","iata_code":"SNN","scheduled_service":true,"source_airport_type":"large_airport","longest_open_runway_ft":10495,"gameplay_status":"selected","source":"OurAirports","territory_id":"IE-01","country_code":"IE","strategic_score":149.9},"geometry":{"type":"Point","coordinates":[-8.92482,52.702]}},{"type":"Feature","properties":{"node_id":"AIRPORT-EIKN","node_type":"large-airport","name":"Ireland West Airport Knock","ident":"EIKN","icao_code":"EIKN","iata_code":"NOC","scheduled_service":true,"source_airport_type":"large_airport","longest_open_runway_ft":7546,"gameplay_status":"selected","source":"OurAirports","territory_id":"IE-01","country_code":"IE","strategic_score":120.5},"geometry":{"type":"Point","coordinates":[-8.817002,53.910439]}},{"type":"Feature","properties":{"node_id":"AIRPORT-EIDW","node_type":"large-airport","name":"Dublin Airport","ident":"EIDW","icao_code":"EIDW","iata_code":"DUB","scheduled_service":true,"source_airport_type":"large_airport","longest_open_runway_ft":10203,"gameplay_status":"selected","source":"OurAirports","territory_id":"IE-02","country_code":"IE","strategic_score":147},"geometry":{"type":"Point","coordinates":[-6.262121,53.428713]}},{"type":"Feature","properties":{"node_id":"AIRPORT-EKBI","node_type":"large-airport","name":"Billund Airport","ident":"EKBI","icao_code":"EKBI","iata_code":"BLL","scheduled_service":true,"source_airport_type":"large_airport","longest_open_runway_ft":10172,"gameplay_status":"selected","source":"OurAirports","territory_id":"DK-01","country_code":"DK","strategic_score":146.7},"geometry":{"type":"Point","coordinates":[9.157019,55.740335]}},{"type":"Feature","properties":{"node_id":"AIRPORT-EKAH","node_type":"large-airport","name":"Aarhus Airport","ident":"EKAH","icao_code":"EKAH","iata_code":"AAR","scheduled_service":true,"source_airport_type":"large_airport","longest_open_runway_ft":9111,"gameplay_status":"selected","source":"OurAirports","territory_id":"DK-01","country_code":"DK","strategic_score":136.1},"geometry":{"type":"Point","coordinates":[10.618286,56.303331]}},{"type":"Feature","properties":{"node_id":"AIRPORT-EKCH","node_type":"large-airport","name":"Copenhagen Kastrup Airport","ident":"EKCH","icao_code":"EKCH","iata_code":"CPH","scheduled_service":true,"source_airport_type":"large_airport","longest_open_runway_ft":11811,"gameplay_status":"selected","source":"OurAirports","territory_id":"DK-02","country_code":"DK","strategic_score":163.1},"geometry":{"type":"Point","coordinates":[12.656000137329,55.617900848389]}},{"type":"Feature","properties":{"node_id":"AIRPORT-ELLX","node_type":"large-airport","name":"Luxembourg-Findel International Airport","ident":"ELLX","icao_code":"ELLX","iata_code":"LUX","scheduled_service":true,"source_airport_type":"large_airport","longest_open_runway_ft":13123,"gameplay_status":"selected","source":"OurAirports","territory_id":"LU-01","country_code":"LU","strategic_score":176.2},"geometry":{"type":"Point","coordinates":[6.212134,49.626845]}},{"type":"Feature","properties":{"node_id":"AIRPORT-ENVA","node_type":"large-airport","name":"Trondheim Airport, Værnes","ident":"ENVA","icao_code":"ENVA","iata_code":"TRD","scheduled_service":true,"source_airport_type":"large_airport","longest_open_runway_ft":9052,"gameplay_status":"selected","source":"OurAirports","territory_id":"NO-02","country_code":"NO","strategic_score":135.5},"geometry":{"type":"Point","coordinates":[10.924,63.457802]}},{"type":"Feature","properties":{"node_id":"AIRPORT-ENAL","node_type":"large-airport","name":"Ålesund Airport","ident":"ENAL","icao_code":"ENAL","iata_code":"AES","scheduled_service":true,"source_airport_type":"large_airport","longest_open_runway_ft":7592,"gameplay_status":"selected","source":"OurAirports","territory_id":"NO-02","country_code":"NO","strategic_score":120.9},"geometry":{"type":"Point","coordinates":[6.110845,62.560443]}},{"type":"Feature","properties":{"node_id":"AIRPORT-ENEV","node_type":"large-airport","name":"Harstad/Narvik Airport","ident":"ENEV","icao_code":"ENEV","iata_code":"EVE","scheduled_service":true,"source_airport_type":"large_airport","longest_open_runway_ft":9236,"gameplay_status":"selected","source":"OurAirports","territory_id":"NO-03","country_code":"NO","strategic_score":137.4},"geometry":{"type":"Point","coordinates":[16.678101,68.491302]}},{"type":"Feature","properties":{"node_id":"AIRPORT-ENTC","node_type":"large-airport","name":"Tromsø Airport","ident":"ENTC","icao_code":"ENTC","iata_code":"TOS","scheduled_service":true,"source_airport_type":"large_airport","longest_open_runway_ft":8041,"gameplay_status":"selected","source":"OurAirports","territory_id":"NO-03","country_code":"NO","strategic_score":125.4},"geometry":{"type":"Point","coordinates":[18.9189,69.683296]}},{"type":"Feature","properties":{"node_id":"AIRPORT-ENGM","node_type":"large-airport","name":"Oslo-Gardermoen International Airport","ident":"ENGM","icao_code":"ENGM","iata_code":"OSL","scheduled_service":true,"source_airport_type":"large_airport","longest_open_runway_ft":11811,"gameplay_status":"selected","source":"OurAirports","territory_id":"NO-01","country_code":"NO","strategic_score":163.1},"geometry":{"type":"Point","coordinates":[11.1004,60.193901]}},{"type":"Feature","properties":{"node_id":"AIRPORT-ENBR","node_type":"large-airport","name":"Bergen Airport, Flesland","ident":"ENBR","icao_code":"ENBR","iata_code":"BGO","scheduled_service":true,"source_airport_type":"large_airport","longest_open_runway_ft":9810,"gameplay_status":"selected","source":"OurAirports","territory_id":"NO-01","country_code":"NO","strategic_score":143.1},"geometry":{"type":"Point","coordinates":[5.21814,60.2934]}},{"type":"Feature","properties":{"node_id":"AIRPORT-EPPO","node_type":"large-airport","name":"Poznań-Ławica Airport","ident":"EPPO","icao_code":"EPPO","iata_code":"POZ","scheduled_service":true,"source_airport_type":"large_airport","longest_open_runway_ft":8215,"gameplay_status":"selected","source":"OurAirports","territory_id":"PL-02","country_code":"PL","strategic_score":127.2},"geometry":{"type":"Point","coordinates":[16.823359,52.421598]}},{"type":"Feature","properties":{"node_id":"AIRPORT-EPWR","node_type":"large-airport","name":"Copernicus Wrocław Airport","ident":"EPWR","icao_code":"EPWR","iata_code":"WRO","scheduled_service":true,"source_airport_type":"large_airport","longest_open_runway_ft":8212,"gameplay_status":"selected","source":"OurAirports","territory_id":"PL-02","country_code":"PL","strategic_score":127.1},"geometry":{"type":"Point","coordinates":[16.882096,51.103719]}},{"type":"Feature","properties":{"node_id":"AIRPORT-EPGD","node_type":"large-airport","name":"Gdańsk Lech Wałęsa Airport","ident":"EPGD","icao_code":"EPGD","iata_code":"GDN","scheduled_service":true,"source_airport_type":"large_airport","longest_open_runway_ft":9186,"gameplay_status":"selected","source":"OurAirports","territory_id":"PL-01","country_code":"PL","strategic_score":136.9},"geometry":{"type":"Point","coordinates":[18.4662,54.377602]}},{"type":"Feature","properties":{"node_id":"AIRPORT-EPSY","node_type":"large-airport","name":"Olsztyn-Mazury Airport","ident":"EPSY","icao_code":"EPSY","iata_code":"SZY","scheduled_service":true,"source_airport_type":"medium_airport","longest_open_runway_ft":8202,"gameplay_status":"selected","source":"OurAirports","territory_id":"PL-01","country_code":"PL","strategic_score":97},"geometry":{"type":"Point","coordinates":[20.9377,53.481899]}},{"type":"Feature","properties":{"node_id":"AIRPORT-EPRZ","node_type":"large-airport","name":"Rzeszów-Jasionka Airport","ident":"EPRZ","icao_code":"EPRZ","iata_code":"RZE","scheduled_service":true,"source_airport_type":"large_airport","longest_open_runway_ft":10498,"gameplay_status":"selected","source":"OurAirports","territory_id":"PL-05","country_code":"PL","strategic_score":150},"geometry":{"type":"Point","coordinates":[22.024155,50.109791]}},{"type":"Feature","properties":{"node_id":"AIRPORT-EPLB","node_type":"large-airport","name":"Lublin Airport","ident":"EPLB","icao_code":"EPLB","iata_code":"LUZ","scheduled_service":true,"source_airport_type":"large_airport","longest_open_runway_ft":8268,"gameplay_status":"selected","source":"OurAirports","territory_id":"PL-05","country_code":"PL","strategic_score":127.7},"geometry":{"type":"Point","coordinates":[22.713461,51.240157]}},{"type":"Feature","properties":{"node_id":"AIRPORT-EPKT","node_type":"large-airport","name":"Katowice Wojciech Korfanty International Airport","ident":"EPKT","icao_code":"EPKT","iata_code":"KTW","scheduled_service":true,"source_airport_type":"large_airport","longest_open_runway_ft":10499,"gameplay_status":"selected","source":"OurAirports","territory_id":"PL-04","country_code":"PL","strategic_score":150},"geometry":{"type":"Point","coordinates":[19.080705,50.476015]}},{"type":"Feature","properties":{"node_id":"AIRPORT-EPKK","node_type":"large-airport","name":"Kraków John Paul II International Airport","ident":"EPKK","icao_code":"EPKK","iata_code":"KRK","scheduled_service":true,"source_airport_type":"large_airport","longest_open_runway_ft":8366,"gameplay_status":"selected","source":"OurAirports","territory_id":"PL-04","country_code":"PL","strategic_score":128.7},"geometry":{"type":"Point","coordinates":[19.7848,50.077702]}},{"type":"Feature","properties":{"node_id":"AIRPORT-EPWA","node_type":"large-airport","name":"Warsaw Chopin Airport","ident":"EPWA","icao_code":"EPWA","iata_code":"WAW","scheduled_service":true,"source_airport_type":"large_airport","longest_open_runway_ft":12106,"gameplay_status":"selected","source":"OurAirports","territory_id":"PL-03","country_code":"PL","strategic_score":166.1},"geometry":{"type":"Point","coordinates":[20.9671,52.165699]}},{"type":"Feature","properties":{"node_id":"AIRPORT-EPLL","node_type":"large-airport","name":"Łódź Władysław Reymont Airport","ident":"EPLL","icao_code":"EPLL","iata_code":"LCJ","scheduled_service":true,"source_airport_type":"large_airport","longest_open_runway_ft":8202,"gameplay_status":"selected","source":"OurAirports","territory_id":"PL-03","country_code":"PL","strategic_score":127},"geometry":{"type":"Point","coordinates":[19.3981,51.721901]}},{"type":"Feature","properties":{"node_id":"AIRPORT-ESGG","node_type":"large-airport","name":"Göteborg Landvetter Airport","ident":"ESGG","icao_code":"ESGG","iata_code":"GOT","scheduled_service":true,"source_airport_type":"large_airport","longest_open_runway_ft":10823,"gameplay_status":"selected","source":"OurAirports","territory_id":"SE-01","country_code":"SE","strategic_score":153.2},"geometry":{"type":"Point","coordinates":[12.2798,57.6628]}},{"type":"Feature","properties":{"node_id":"AIRPORT-ESMS","node_type":"large-airport","name":"Malmö Sturup Airport","ident":"ESMS","icao_code":"ESMS","iata_code":"MMX","scheduled_service":true,"source_airport_type":"large_airport","longest_open_runway_ft":9186,"gameplay_status":"selected","source":"OurAirports","territory_id":"SE-01","country_code":"SE","strategic_score":136.9},"geometry":{"type":"Point","coordinates":[13.376327,55.535564]}},{"type":"Feature","properties":{"node_id":"AIRPORT-ESSA","node_type":"large-airport","name":"Stockholm-Arlanda Airport","ident":"ESSA","icao_code":"ESSA","iata_code":"ARN","scheduled_service":true,"source_airport_type":"large_airport","longest_open_runway_ft":10830,"gameplay_status":"selected","source":"OurAirports","territory_id":"SE-02","country_code":"SE","strategic_score":153.3},"geometry":{"type":"Point","coordinates":[17.928829,59.64849]}},{"type":"Feature","properties":{"node_id":"AIRPORT-ESKN","node_type":"large-airport","name":"Stockholm Skavsta Airport","ident":"ESKN","icao_code":"ESKN","iata_code":"NYO","scheduled_service":true,"source_airport_type":"large_airport","longest_open_runway_ft":9442,"gameplay_status":"selected","source":"OurAirports","territory_id":"SE-02","country_code":"SE","strategic_score":139.4},"geometry":{"type":"Point","coordinates":[16.911479,58.789656]}},{"type":"Feature","properties":{"node_id":"AIRPORT-ESPA","node_type":"large-airport","name":"Luleå Airport","ident":"ESPA","icao_code":"ESPA","iata_code":"LLA","scheduled_service":true,"source_airport_type":"large_airport","longest_open_runway_ft":10990,"gameplay_status":"selected","source":"OurAirports","territory_id":"SE-03","country_code":"SE","strategic_score":154.9},"geometry":{"type":"Point","coordinates":[22.122,65.5438]}},{"type":"Feature","properties":{"node_id":"AIRPORT-ESNQ","node_type":"large-airport","name":"Kiruna Airport","ident":"ESNQ","icao_code":"ESNQ","iata_code":"KRN","scheduled_service":true,"source_airport_type":"large_airport","longest_open_runway_ft":8209,"gameplay_status":"selected","source":"OurAirports","territory_id":"SE-03","country_code":"SE","strategic_score":127.1},"geometry":{"type":"Point","coordinates":[20.3368,67.821999]}},{"type":"Feature","properties":{"node_id":"AIRPORT-EVRA","node_type":"large-airport","name":"Riga International Airport","ident":"EVRA","icao_code":"EVRA","iata_code":"RIX","scheduled_service":true,"source_airport_type":"large_airport","longest_open_runway_ft":10499,"gameplay_status":"selected","source":"OurAirports","territory_id":"LV-01","country_code":"LV","strategic_score":150},"geometry":{"type":"Point","coordinates":[23.970711,56.920752]}},{"type":"Feature","properties":{"node_id":"AIRPORT-EVLA","node_type":"large-airport","name":"Liepāja International Airport","ident":"EVLA","icao_code":"EVLA","iata_code":"LPX","scheduled_service":false,"source_airport_type":"large_airport","longest_open_runway_ft":6568,"gameplay_status":"selected","source":"OurAirports","territory_id":"LV-01","country_code":"LV","strategic_score":95.7},"geometry":{"type":"Point","coordinates":[21.096901,56.517502]}},{"type":"Feature","properties":{"node_id":"AIRPORT-EYKA","node_type":"large-airport","name":"Kaunas International Airport","ident":"EYKA","icao_code":"EYKA","iata_code":"KUN","scheduled_service":true,"source_airport_type":"large_airport","longest_open_runway_ft":10663,"gameplay_status":"selected","source":"OurAirports","territory_id":"LT-01","country_code":"LT","strategic_score":151.6},"geometry":{"type":"Point","coordinates":[24.08582,54.963965]}},{"type":"Feature","properties":{"node_id":"AIRPORT-EYVI","node_type":"large-airport","name":"Vilnius International Airport","ident":"EYVI","icao_code":"EYVI","iata_code":"VNO","scheduled_service":true,"source_airport_type":"large_airport","longest_open_runway_ft":8251,"gameplay_status":"selected","source":"OurAirports","territory_id":"LT-01","country_code":"LT","strategic_score":127.5},"geometry":{"type":"Point","coordinates":[25.285801,54.634102]}},{"type":"Feature","properties":{"node_id":"AIRPORT-LFPG","node_type":"large-airport","name":"Charles de Gaulle International Airport","ident":"LFPG","icao_code":"LFPG","iata_code":"CDG","scheduled_service":true,"source_airport_type":"large_airport","longest_open_runway_ft":13829,"gameplay_status":"selected","source":"OurAirports","territory_id":"FR-02","country_code":"FR","strategic_score":183.3},"geometry":{"type":"Point","coordinates":[2.554117,49.00896]}},{"type":"Feature","properties":{"node_id":"AIRPORT-LFPO","node_type":"large-airport","name":"Paris-Orly Airport","ident":"LFPO","icao_code":"LFPO","iata_code":"ORY","scheduled_service":true,"source_airport_type":"large_airport","longest_open_runway_ft":11975,"gameplay_status":"selected","source":"OurAirports","territory_id":"FR-02","country_code":"FR","strategic_score":164.8},"geometry":{"type":"Point","coordinates":[2.358963,48.729499]}},{"type":"Feature","properties":{"node_id":"AIRPORT-LGAV","node_type":"large-airport","name":"Athens Eleftherios Venizelos International Airport","ident":"LGAV","icao_code":"LGAV","iata_code":"ATH","scheduled_service":true,"source_airport_type":"large_airport","longest_open_runway_ft":13123,"gameplay_status":"selected","source":"OurAirports","territory_id":"GR-02","country_code":"GR","strategic_score":176.2},"geometry":{"type":"Point","coordinates":[23.9445,37.936401]}},{"type":"Feature","properties":{"node_id":"AIRPORT-LGRX","node_type":"large-airport","name":"Patras Araxos Agamemnon Airport","ident":"LGRX","icao_code":"LGRX","iata_code":"GPA","scheduled_service":true,"source_airport_type":"medium_airport","longest_open_runway_ft":10997,"gameplay_status":"selected","source":"OurAirports","territory_id":"GR-02","country_code":"GR","strategic_score":125},"geometry":{"type":"Point","coordinates":[21.4256,38.1511]}},{"type":"Feature","properties":{"node_id":"AIRPORT-LGIR","node_type":"large-airport","name":"Heraklion International Nikos Kazantzakis Airport","ident":"LGIR","icao_code":"LGIR","iata_code":"HER","scheduled_service":true,"source_airport_type":"large_airport","longest_open_runway_ft":8904,"gameplay_status":"selected","source":"OurAirports","territory_id":"GR-03","country_code":"GR","strategic_score":134},"geometry":{"type":"Point","coordinates":[25.1803,35.339699]}},{"type":"Feature","properties":{"node_id":"AIRPORT-LGKO","node_type":"large-airport","name":"Kos International Airport \"Ippokratis\"","ident":"LGKO","icao_code":"LGKO","iata_code":"KGS","scheduled_service":true,"source_airport_type":"large_airport","longest_open_runway_ft":7841,"gameplay_status":"selected","source":"OurAirports","territory_id":"GR-03","country_code":"GR","strategic_score":123.4},"geometry":{"type":"Point","coordinates":[27.09115,36.794523]}},{"type":"Feature","properties":{"node_id":"AIRPORT-LDDU","node_type":"large-airport","name":"Dubrovnik Ruđer Bošković Airport","ident":"LDDU","icao_code":"LDDU","iata_code":"DBV","scheduled_service":true,"source_airport_type":"large_airport","longest_open_runway_ft":10597,"gameplay_status":"selected","source":"OurAirports","territory_id":"HR-02","country_code":"HR","strategic_score":151},"geometry":{"type":"Point","coordinates":[18.265543,42.562247]}},{"type":"Feature","properties":{"node_id":"AIRPORT-LDPL","node_type":"large-airport","name":"Pula Airport","ident":"LDPL","icao_code":"LDPL","iata_code":"PUY","scheduled_service":true,"source_airport_type":"large_airport","longest_open_runway_ft":9678,"gameplay_status":"selected","source":"OurAirports","territory_id":"HR-02","country_code":"HR","strategic_score":141.8},"geometry":{"type":"Point","coordinates":[13.9222,44.893501]}},{"type":"Feature","properties":{"node_id":"AIRPORT-LCEN","node_type":"large-airport","name":"Ercan International Airport","ident":"LCEN","icao_code":"LCEN","iata_code":"ECN","scheduled_service":true,"source_airport_type":"large_airport","longest_open_runway_ft":10498,"gameplay_status":"selected","source":"OurAirports","territory_id":"CY-01","country_code":"CY","strategic_score":150},"geometry":{"type":"Point","coordinates":[33.507352,35.153064]}},{"type":"Feature","properties":{"node_id":"AIRPORT-LCLK","node_type":"large-airport","name":"Larnaca International Airport","ident":"LCLK","icao_code":"LCLK","iata_code":"LCA","scheduled_service":true,"source_airport_type":"large_airport","longest_open_runway_ft":9823,"gameplay_status":"selected","source":"OurAirports","territory_id":"CY-01","country_code":"CY","strategic_score":143.2},"geometry":{"type":"Point","coordinates":[33.624901,34.875099]}},{"type":"Feature","properties":{"node_id":"AIRPORT-LDZA","node_type":"large-airport","name":"Zagreb Franjo Tuđman International Airport","ident":"LDZA","icao_code":"LDZA","iata_code":"ZAG","scheduled_service":true,"source_airport_type":"large_airport","longest_open_runway_ft":10669,"gameplay_status":"selected","source":"OurAirports","territory_id":"HR-01","country_code":"HR","strategic_score":151.7},"geometry":{"type":"Point","coordinates":[16.0688,45.742901]}},{"type":"Feature","properties":{"node_id":"AIRPORT-LDOS","node_type":"large-airport","name":"Osijek Airport","ident":"LDOS","icao_code":"LDOS","iata_code":"OSI","scheduled_service":true,"source_airport_type":"medium_airport","longest_open_runway_ft":8202,"gameplay_status":"selected","source":"OurAirports","territory_id":"HR-01","country_code":"HR","strategic_score":97},"geometry":{"type":"Point","coordinates":[18.811278,45.462355]}},{"type":"Feature","properties":{"node_id":"AIRPORT-LEAL","node_type":"large-airport","name":"Alicante-Elche Miguel Hernández Airport","ident":"LEAL","icao_code":"LEAL","iata_code":"ALC","scheduled_service":true,"source_airport_type":"large_airport","longest_open_runway_ft":9842,"gameplay_status":"selected","source":"OurAirports","territory_id":"ES-05","country_code":"ES","strategic_score":143.4},"geometry":{"type":"Point","coordinates":[-0.558156,38.2822]}},{"type":"Feature","properties":{"node_id":"AIRPORT-LEMI","node_type":"large-airport","name":"Region of Murcia International Airport","ident":"LEMI","icao_code":"LEMI","iata_code":"RMU","scheduled_service":true,"source_airport_type":"large_airport","longest_open_runway_ft":9842,"gameplay_status":"selected","source":"OurAirports","territory_id":"ES-05","country_code":"ES","strategic_score":143.4},"geometry":{"type":"Point","coordinates":[-1.124884,37.802852]}},{"type":"Feature","properties":{"node_id":"AIRPORT-LEZL","node_type":"large-airport","name":"Seville Airport","ident":"LEZL","icao_code":"LEZL","iata_code":"SVQ","scheduled_service":true,"source_airport_type":"large_airport","longest_open_runway_ft":11030,"gameplay_status":"selected","source":"OurAirports","territory_id":"ES-06","country_code":"ES","strategic_score":155.3},"geometry":{"type":"Point","coordinates":[-5.89311,37.417999]}},{"type":"Feature","properties":{"node_id":"AIRPORT-LEMG","node_type":"large-airport","name":"Málaga-Costa del Sol Airport","ident":"LEMG","icao_code":"LEMG","iata_code":"AGP","scheduled_service":true,"source_airport_type":"large_airport","longest_open_runway_ft":10500,"gameplay_status":"selected","source":"OurAirports","territory_id":"ES-06","country_code":"ES","strategic_score":150},"geometry":{"type":"Point","coordinates":[-4.49911,36.6749]}},{"type":"Feature","properties":{"node_id":"AIRPORT-LEST","node_type":"large-airport","name":"Santiago-Rosalía de Castro Airport","ident":"LEST","icao_code":"LEST","iata_code":"SCQ","scheduled_service":true,"source_airport_type":"large_airport","longest_open_runway_ft":10499,"gameplay_status":"selected","source":"OurAirports","territory_id":"ES-01","country_code":"ES","strategic_score":150},"geometry":{"type":"Point","coordinates":[-8.41514,42.896301]}},{"type":"Feature","properties":{"node_id":"AIRPORT-LEAS","node_type":"large-airport","name":"Asturias Airport","ident":"LEAS","icao_code":"LEAS","iata_code":"OVD","scheduled_service":true,"source_airport_type":"large_airport","longest_open_runway_ft":7218,"gameplay_status":"selected","source":"OurAirports","territory_id":"ES-01","country_code":"ES","strategic_score":117.2},"geometry":{"type":"Point","coordinates":[-6.03462,43.563599]}},{"type":"Feature","properties":{"node_id":"AIRPORT-LEZG","node_type":"large-airport","name":"Zaragoza Airport","ident":"LEZG","icao_code":"LEZG","iata_code":"ZAZ","scheduled_service":true,"source_airport_type":"large_airport","longest_open_runway_ft":12198,"gameplay_status":"selected","source":"OurAirports","territory_id":"ES-02","country_code":"ES","strategic_score":167},"geometry":{"type":"Point","coordinates":[-1.04155,41.666199]}},{"type":"Feature","properties":{"node_id":"AIRPORT-LEBB","node_type":"large-airport","name":"Bilbao Airport","ident":"LEBB","icao_code":"LEBB","iata_code":"BIO","scheduled_service":true,"source_airport_type":"large_airport","longest_open_runway_ft":8530,"gameplay_status":"selected","source":"OurAirports","territory_id":"ES-02","country_code":"ES","strategic_score":130.3},"geometry":{"type":"Point","coordinates":[-2.91061,43.301102]}},{"type":"Feature","properties":{"node_id":"AIRPORT-LEBL","node_type":"large-airport","name":"Josep Tarradellas Barcelona-El Prat Airport","ident":"LEBL","icao_code":"LEBL","iata_code":"BCN","scheduled_service":true,"source_airport_type":"large_airport","longest_open_runway_ft":11000,"gameplay_status":"selected","source":"OurAirports","territory_id":"ES-03","country_code":"ES","strategic_score":155},"geometry":{"type":"Point","coordinates":[2.07846,41.2971]}},{"type":"Feature","properties":{"node_id":"AIRPORT-LEPA","node_type":"large-airport","name":"Palma de Mallorca Airport","ident":"LEPA","icao_code":"LEPA","iata_code":"PMI","scheduled_service":true,"source_airport_type":"large_airport","longest_open_runway_ft":10728,"gameplay_status":"selected","source":"OurAirports","territory_id":"ES-03","country_code":"ES","strategic_score":152.3},"geometry":{"type":"Point","coordinates":[2.73881,39.551701]}},{"type":"Feature","properties":{"node_id":"AIRPORT-LEMD","node_type":"large-airport","name":"Adolfo Suárez Madrid–Barajas Airport","ident":"LEMD","icao_code":"LEMD","iata_code":"MAD","scheduled_service":true,"source_airport_type":"large_airport","longest_open_runway_ft":14271,"gameplay_status":"selected","source":"OurAirports","territory_id":"ES-04","country_code":"ES","strategic_score":187.7},"geometry":{"type":"Point","coordinates":[-3.572249,40.493407]}},{"type":"Feature","properties":{"node_id":"AIRPORT-LETO","node_type":"large-airport","name":"Madrid–Torrejón Airport / Torrejón Air Base","ident":"LETO","icao_code":"LETO","iata_code":"TOJ","scheduled_service":false,"source_airport_type":"medium_airport","longest_open_runway_ft":15807,"gameplay_status":"selected","source":"OurAirports","territory_id":"ES-04","country_code":"ES","strategic_score":158.1},"geometry":{"type":"Point","coordinates":[-3.456808,40.487875]}},{"type":"Feature","properties":{"node_id":"AIRPORT-LFBO","node_type":"large-airport","name":"Toulouse-Blagnac Airport","ident":"LFBO","icao_code":"LFBO","iata_code":"TLS","scheduled_service":true,"source_airport_type":"large_airport","longest_open_runway_ft":11483,"gameplay_status":"selected","source":"OurAirports","territory_id":"FR-04","country_code":"FR","strategic_score":159.8},"geometry":{"type":"Point","coordinates":[1.36382,43.629101]}},{"type":"Feature","properties":{"node_id":"AIRPORT-LFBD","node_type":"large-airport","name":"Bordeaux–Mérignac Airport","ident":"LFBD","icao_code":"LFBD","iata_code":"BOD","scheduled_service":true,"source_airport_type":"large_airport","longest_open_runway_ft":10171,"gameplay_status":"selected","source":"OurAirports","territory_id":"FR-04","country_code":"FR","strategic_score":146.7},"geometry":{"type":"Point","coordinates":[-0.715356,44.82865]}},{"type":"Feature","properties":{"node_id":"AIRPORT-LFSB","node_type":"large-airport","name":"EuroAirport Basel–Mulhouse–Freiburg","ident":"LFSB","icao_code":"LFSB","iata_code":"BSL","scheduled_service":true,"source_airport_type":"large_airport","longest_open_runway_ft":12795,"gameplay_status":"selected","source":"OurAirports","territory_id":"FR-03","country_code":"FR","strategic_score":172.9},"geometry":{"type":"Point","coordinates":[7.521117,47.60068]}},{"type":"Feature","properties":{"node_id":"AIRPORT-LFST","node_type":"large-airport","name":"Strasbourg Airport","ident":"LFST","icao_code":"LFST","iata_code":"SXB","scheduled_service":true,"source_airport_type":"large_airport","longest_open_runway_ft":7874,"gameplay_status":"selected","source":"OurAirports","territory_id":"FR-03","country_code":"FR","strategic_score":123.7},"geometry":{"type":"Point","coordinates":[7.62823,48.5383]}},{"type":"Feature","properties":{"node_id":"AIRPORT-LFML","node_type":"large-airport","name":"Marseille Provence Airport","ident":"LFML","icao_code":"LFML","iata_code":"MRS","scheduled_service":true,"source_airport_type":"large_airport","longest_open_runway_ft":11483,"gameplay_status":"selected","source":"OurAirports","territory_id":"FR-06","country_code":"FR","strategic_score":159.8},"geometry":{"type":"Point","coordinates":[5.2125,43.438088]}},{"type":"Feature","properties":{"node_id":"AIRPORT-LFMT","node_type":"large-airport","name":"Montpellier-Méditerranée Airport","ident":"LFMT","icao_code":"LFMT","iata_code":"MPL","scheduled_service":true,"source_airport_type":"large_airport","longest_open_runway_ft":8530,"gameplay_status":"selected","source":"OurAirports","territory_id":"FR-06","country_code":"FR","strategic_score":130.3},"geometry":{"type":"Point","coordinates":[3.96301,43.576199]}},{"type":"Feature","properties":{"node_id":"AIRPORT-LFLL","node_type":"large-airport","name":"Lyon Saint-Exupéry Airport","ident":"LFLL","icao_code":"LFLL","iata_code":"LYS","scheduled_service":true,"source_airport_type":"large_airport","longest_open_runway_ft":13124,"gameplay_status":"selected","source":"OurAirports","territory_id":"FR-05","country_code":"FR","strategic_score":176.2},"geometry":{"type":"Point","coordinates":[5.090139,45.725996]}},{"type":"Feature","properties":{"node_id":"AIRPORT-LFLC","node_type":"large-airport","name":"Clermont-Ferrand Auvergne airport","ident":"LFLC","icao_code":"LFLC","iata_code":"CFE","scheduled_service":true,"source_airport_type":"large_airport","longest_open_runway_ft":9885,"gameplay_status":"selected","source":"OurAirports","territory_id":"FR-05","country_code":"FR","strategic_score":143.8},"geometry":{"type":"Point","coordinates":[3.16917,45.786701]}},{"type":"Feature","properties":{"node_id":"AIRPORT-LFRB","node_type":"large-airport","name":"Brest Bretagne airport","ident":"LFRB","icao_code":"LFRB","iata_code":"BES","scheduled_service":true,"source_airport_type":"large_airport","longest_open_runway_ft":10171,"gameplay_status":"selected","source":"OurAirports","territory_id":"FR-01","country_code":"FR","strategic_score":146.7},"geometry":{"type":"Point","coordinates":[-4.41854,48.447899]}},{"type":"Feature","properties":{"node_id":"AIRPORT-LFRS","node_type":"large-airport","name":"Nantes Atlantique Airport","ident":"LFRS","icao_code":"LFRS","iata_code":"NTE","scheduled_service":true,"source_airport_type":"medium_airport","longest_open_runway_ft":9514,"gameplay_status":"selected","source":"OurAirports","territory_id":"FR-01","country_code":"FR","strategic_score":110.1},"geometry":{"type":"Point","coordinates":[-1.61073,47.153198]}},{"type":"Feature","properties":{"node_id":"AIRPORT-LGTS","node_type":"large-airport","name":"Thessaloniki Macedonia International Airport","ident":"LGTS","icao_code":"LGTS","iata_code":"SKG","scheduled_service":true,"source_airport_type":"large_airport","longest_open_runway_ft":11286,"gameplay_status":"selected","source":"OurAirports","territory_id":"GR-01","country_code":"GR","strategic_score":157.9},"geometry":{"type":"Point","coordinates":[22.970009,40.51928]}},{"type":"Feature","properties":{"node_id":"AIRPORT-LGKV","node_type":"large-airport","name":"Kavala Alexander the Great International Airport","ident":"LGKV","icao_code":"LGKV","iata_code":"KVA","scheduled_service":true,"source_airport_type":"large_airport","longest_open_runway_ft":9844,"gameplay_status":"selected","source":"OurAirports","territory_id":"GR-01","country_code":"GR","strategic_score":143.4},"geometry":{"type":"Point","coordinates":[24.6192,40.9133]}},{"type":"Feature","properties":{"node_id":"AIRPORT-LHBP","node_type":"large-airport","name":"Budapest Liszt Ferenc International Airport","ident":"LHBP","icao_code":"LHBP","iata_code":"BUD","scheduled_service":true,"source_airport_type":"large_airport","longest_open_runway_ft":12162,"gameplay_status":"selected","source":"OurAirports","territory_id":"HU-01","country_code":"HU","strategic_score":166.6},"geometry":{"type":"Point","coordinates":[19.262393,47.43018]}},{"type":"Feature","properties":{"node_id":"AIRPORT-LHSM","node_type":"large-airport","name":"Hévíz–Balaton Airport","ident":"LHSM","icao_code":"LHSM","iata_code":"SOB","scheduled_service":true,"source_airport_type":"medium_airport","longest_open_runway_ft":8202,"gameplay_status":"selected","source":"OurAirports","territory_id":"HU-01","country_code":"HU","strategic_score":97},"geometry":{"type":"Point","coordinates":[17.159084,46.686391]}},{"type":"Feature","properties":{"node_id":"AIRPORT-LHDC","node_type":"large-airport","name":"Debrecen International Airport","ident":"LHDC","icao_code":"LHDC","iata_code":"DEB","scheduled_service":true,"source_airport_type":"large_airport","longest_open_runway_ft":8196,"gameplay_status":"selected","source":"OurAirports","territory_id":"HU-02","country_code":"HU","strategic_score":127},"geometry":{"type":"Point","coordinates":[21.616278,47.489469]}},{"type":"Feature","properties":{"node_id":"AIRPORT-LHKE","node_type":"large-airport","name":"Kecskemét Air Base","ident":"LHKE","icao_code":"LHKE","iata_code":null,"scheduled_service":false,"source_airport_type":"medium_airport","longest_open_runway_ft":8200,"gameplay_status":"selected","source":"OurAirports","territory_id":"HU-02","country_code":"HU","strategic_score":82},"geometry":{"type":"Point","coordinates":[19.749201,46.9175]}},{"type":"Feature","properties":{"node_id":"AIRPORT-LIBR","node_type":"large-airport","name":"Brindisi Airport","ident":"LIBR","icao_code":"LIBR","iata_code":"BDS","scheduled_service":true,"source_airport_type":"large_airport","longest_open_runway_ft":10000,"gameplay_status":"selected","source":"OurAirports","territory_id":"IT-03","country_code":"IT","strategic_score":145},"geometry":{"type":"Point","coordinates":[17.947001,40.6576]}},{"type":"Feature","properties":{"node_id":"AIRPORT-LICA","node_type":"large-airport","name":"Lamezia Terme Sant'Eufemia International Airport","ident":"LICA","icao_code":"LICA","iata_code":"SUF","scheduled_service":true,"source_airport_type":"large_airport","longest_open_runway_ft":9898,"gameplay_status":"selected","source":"OurAirports","territory_id":"IT-03","country_code":"IT","strategic_score":144},"geometry":{"type":"Point","coordinates":[16.246007,38.906214]}},{"type":"Feature","properties":{"node_id":"AIRPORT-LIRF","node_type":"large-airport","name":"Rome–Fiumicino Leonardo da Vinci International Airport","ident":"LIRF","icao_code":"LIRF","iata_code":"FCO","scheduled_service":true,"source_airport_type":"large_airport","longest_open_runway_ft":12801,"gameplay_status":"selected","source":"OurAirports","territory_id":"IT-02","country_code":"IT","strategic_score":173},"geometry":{"type":"Point","coordinates":[12.251998,41.804532]}},{"type":"Feature","properties":{"node_id":"AIRPORT-LIPR","node_type":"large-airport","name":"Federico Fellini International Airport","ident":"LIPR","icao_code":"LIPR","iata_code":"RMI","scheduled_service":true,"source_airport_type":"large_airport","longest_open_runway_ft":9828,"gameplay_status":"selected","source":"OurAirports","territory_id":"IT-02","country_code":"IT","strategic_score":143.3},"geometry":{"type":"Point","coordinates":[12.612198,44.020024]}},{"type":"Feature","properties":{"node_id":"AIRPORT-LICC","node_type":"large-airport","name":"Catania-Fontanarossa Airport","ident":"LICC","icao_code":"LICC","iata_code":"CTA","scheduled_service":true,"source_airport_type":"large_airport","longest_open_runway_ft":7989,"gameplay_status":"selected","source":"OurAirports","territory_id":"IT-04","country_code":"IT","strategic_score":124.9},"geometry":{"type":"Point","coordinates":[15.0664,37.466801]}},{"type":"Feature","properties":{"node_id":"AIRPORT-LICT","node_type":"large-airport","name":"Vincenzo Florio Airport Trapani-Birgi","ident":"LICT","icao_code":"LICT","iata_code":"TPS","scheduled_service":true,"source_airport_type":"medium_airport","longest_open_runway_ft":8852,"gameplay_status":"selected","source":"OurAirports","territory_id":"IT-04","country_code":"IT","strategic_score":103.5},"geometry":{"type":"Point","coordinates":[12.488,37.9114]}},{"type":"Feature","properties":{"node_id":"AIRPORT-LIEE","node_type":"large-airport","name":"Cagliari Elmas Airport","ident":"LIEE","icao_code":"LIEE","iata_code":"CAG","scheduled_service":true,"source_airport_type":"large_airport","longest_open_runway_ft":9196,"gameplay_status":"selected","source":"OurAirports","territory_id":"IT-05","country_code":"IT","strategic_score":137},"geometry":{"type":"Point","coordinates":[9.05428,39.251499]}},{"type":"Feature","properties":{"node_id":"AIRPORT-LIEO","node_type":"large-airport","name":"Olbia Costa Smeralda Airport","ident":"LIEO","icao_code":"LIEO","iata_code":"OLB","scheduled_service":true,"source_airport_type":"large_airport","longest_open_runway_ft":9006,"gameplay_status":"selected","source":"OurAirports","territory_id":"IT-05","country_code":"IT","strategic_score":135.1},"geometry":{"type":"Point","coordinates":[9.518457,40.898953]}},{"type":"Feature","properties":{"node_id":"AIRPORT-LIMC","node_type":"large-airport","name":"Milan Malpensa International Airport","ident":"LIMC","icao_code":"LIMC","iata_code":"MXP","scheduled_service":true,"source_airport_type":"large_airport","longest_open_runway_ft":12861,"gameplay_status":"selected","source":"OurAirports","territory_id":"IT-01","country_code":"IT","strategic_score":173.6},"geometry":{"type":"Point","coordinates":[8.72811,45.6306]}},{"type":"Feature","properties":{"node_id":"AIRPORT-LIMF","node_type":"large-airport","name":"Turin Airport","ident":"LIMF","icao_code":"LIMF","iata_code":"TRN","scheduled_service":true,"source_airport_type":"large_airport","longest_open_runway_ft":10827,"gameplay_status":"selected","source":"OurAirports","territory_id":"IT-01","country_code":"IT","strategic_score":153.3},"geometry":{"type":"Point","coordinates":[7.64963,45.200802]}},{"type":"Feature","properties":{"node_id":"AIRPORT-LJLJ","node_type":"large-airport","name":"Ljubljana Jože Pučnik Airport","ident":"LJLJ","icao_code":"LJLJ","iata_code":"LJU","scheduled_service":true,"source_airport_type":"large_airport","longest_open_runway_ft":10827,"gameplay_status":"selected","source":"OurAirports","territory_id":"SI-01","country_code":"SI","strategic_score":153.3},"geometry":{"type":"Point","coordinates":[14.4576,46.223701]}},{"type":"Feature","properties":{"node_id":"AIRPORT-LJCE","node_type":"large-airport","name":"Cerklje ob Krki Air Base","ident":"LJCE","icao_code":null,"iata_code":null,"scheduled_service":false,"source_airport_type":"medium_airport","longest_open_runway_ft":9843,"gameplay_status":"selected","source":"OurAirports","territory_id":"SI-01","country_code":"SI","strategic_score":98.4},"geometry":{"type":"Point","coordinates":[15.5302,45.900002]}},{"type":"Feature","properties":{"node_id":"AIRPORT-LKPR","node_type":"large-airport","name":"Václav Havel Airport Prague","ident":"LKPR","icao_code":"LKPR","iata_code":"PRG","scheduled_service":true,"source_airport_type":"large_airport","longest_open_runway_ft":12189,"gameplay_status":"selected","source":"OurAirports","territory_id":"CZ-01","country_code":"CZ","strategic_score":166.9},"geometry":{"type":"Point","coordinates":[14.259911,50.100874]}},{"type":"Feature","properties":{"node_id":"AIRPORT-LKCS","node_type":"large-airport","name":"České Budějovice South Bohemian Airport","ident":"LKCS","icao_code":"LKCS","iata_code":"JCL","scheduled_service":true,"source_airport_type":"large_airport","longest_open_runway_ft":8202,"gameplay_status":"selected","source":"OurAirports","territory_id":"CZ-01","country_code":"CZ","strategic_score":127},"geometry":{"type":"Point","coordinates":[14.42832,48.948171]}},{"type":"Feature","properties":{"node_id":"AIRPORT-LKMT","node_type":"large-airport","name":"Leoš Janáček Airport Ostrava","ident":"LKMT","icao_code":"LKMT","iata_code":"OSR","scheduled_service":true,"source_airport_type":"large_airport","longest_open_runway_ft":11484,"gameplay_status":"selected","source":"OurAirports","territory_id":"CZ-02","country_code":"CZ","strategic_score":159.8},"geometry":{"type":"Point","coordinates":[18.111099,49.696301]}},{"type":"Feature","properties":{"node_id":"AIRPORT-LKPD","node_type":"large-airport","name":"Pardubice Airport","ident":"LKPD","icao_code":"LKPD","iata_code":"PED","scheduled_service":true,"source_airport_type":"large_airport","longest_open_runway_ft":8203,"gameplay_status":"selected","source":"OurAirports","territory_id":"CZ-02","country_code":"CZ","strategic_score":127},"geometry":{"type":"Point","coordinates":[15.73981,50.015049]}},{"type":"Feature","properties":{"node_id":"AIRPORT-LMML","node_type":"large-airport","name":"Malta International Airport","ident":"LMML","icao_code":"LMML","iata_code":"MLA","scheduled_service":true,"source_airport_type":"large_airport","longest_open_runway_ft":10991,"gameplay_status":"selected","source":"OurAirports","territory_id":"MT-01","country_code":"MT","strategic_score":154.9},"geometry":{"type":"Point","coordinates":[14.491546,35.845932]}},{"type":"Feature","properties":{"node_id":"AIRPORT-LOWW","node_type":"large-airport","name":"Vienna International Airport","ident":"LOWW","icao_code":"LOWW","iata_code":"VIE","scheduled_service":true,"source_airport_type":"large_airport","longest_open_runway_ft":11811,"gameplay_status":"selected","source":"OurAirports","territory_id":"AT-02","country_code":"AT","strategic_score":163.1},"geometry":{"type":"Point","coordinates":[16.5697,48.110298]}},{"type":"Feature","properties":{"node_id":"AIRPORT-LOWL","node_type":"large-airport","name":"Linz-Hörsching Airport","ident":"LOWL","icao_code":"LOWL","iata_code":"LNZ","scheduled_service":true,"source_airport_type":"large_airport","longest_open_runway_ft":9843,"gameplay_status":"selected","source":"OurAirports","territory_id":"AT-02","country_code":"AT","strategic_score":143.4},"geometry":{"type":"Point","coordinates":[14.188128,48.235362]}},{"type":"Feature","properties":{"node_id":"AIRPORT-LOWS","node_type":"large-airport","name":"Salzburg Airport","ident":"LOWS","icao_code":"LOWS","iata_code":"SZG","scheduled_service":true,"source_airport_type":"large_airport","longest_open_runway_ft":9022,"gameplay_status":"selected","source":"OurAirports","territory_id":"AT-01","country_code":"AT","strategic_score":135.2},"geometry":{"type":"Point","coordinates":[13.0043,47.793301]}},{"type":"Feature","properties":{"node_id":"AIRPORT-LOWK","node_type":"large-airport","name":"Klagenfurt Airport","ident":"LOWK","icao_code":"LOWK","iata_code":"KLU","scheduled_service":true,"source_airport_type":"large_airport","longest_open_runway_ft":8924,"gameplay_status":"selected","source":"OurAirports","territory_id":"AT-01","country_code":"AT","strategic_score":134.2},"geometry":{"type":"Point","coordinates":[14.3377,46.642502]}},{"type":"Feature","properties":{"node_id":"AIRPORT-LPPT","node_type":"large-airport","name":"Lisbon Humberto Delgado Airport","ident":"LPPT","icao_code":"LPPT","iata_code":"LIS","scheduled_service":true,"source_airport_type":"large_airport","longest_open_runway_ft":12500,"gameplay_status":"selected","source":"OurAirports","territory_id":"PT-02","country_code":"PT","strategic_score":170},"geometry":{"type":"Point","coordinates":[-9.13592,38.7813]}},{"type":"Feature","properties":{"node_id":"AIRPORT-LPFR","node_type":"large-airport","name":"Faro - Gago Coutinho International Airport","ident":"LPFR","icao_code":"LPFR","iata_code":"FAO","scheduled_service":true,"source_airport_type":"large_airport","longest_open_runway_ft":8169,"gameplay_status":"selected","source":"OurAirports","territory_id":"PT-02","country_code":"PT","strategic_score":126.7},"geometry":{"type":"Point","coordinates":[-7.970939,37.015909]}},{"type":"Feature","properties":{"node_id":"AIRPORT-LPPR","node_type":"large-airport","name":"Francisco de Sá Carneiro Airport","ident":"LPPR","icao_code":"LPPR","iata_code":"OPO","scheduled_service":true,"source_airport_type":"large_airport","longest_open_runway_ft":11417,"gameplay_status":"selected","source":"OurAirports","territory_id":"PT-01","country_code":"PT","strategic_score":159.2},"geometry":{"type":"Point","coordinates":[-8.68138980865,41.2481002808]}},{"type":"Feature","properties":{"node_id":"AIRPORT-LPOV","node_type":"large-airport","name":"Ovar Air Base","ident":"LPOV","icao_code":null,"iata_code":null,"scheduled_service":false,"source_airport_type":"medium_airport","longest_open_runway_ft":8005,"gameplay_status":"selected","source":"OurAirports","territory_id":"PT-01","country_code":"PT","strategic_score":80},"geometry":{"type":"Point","coordinates":[-8.64592,40.915901]}},{"type":"Feature","properties":{"node_id":"AIRPORT-LQSA","node_type":"large-airport","name":"Sarajevo International Airport","ident":"LQSA","icao_code":"LQSA","iata_code":"SJJ","scheduled_service":true,"source_airport_type":"large_airport","longest_open_runway_ft":8666,"gameplay_status":"selected","source":"OurAirports","territory_id":"BA-01","country_code":"BA","strategic_score":131.7},"geometry":{"type":"Point","coordinates":[18.331499,43.8246]}},{"type":"Feature","properties":{"node_id":"AIRPORT-LQBK","node_type":"large-airport","name":"Banja Luka International Airport","ident":"LQBK","icao_code":"LQBK","iata_code":"BNX","scheduled_service":true,"source_airport_type":"large_airport","longest_open_runway_ft":8202,"gameplay_status":"selected","source":"OurAirports","territory_id":"BA-01","country_code":"BA","strategic_score":127},"geometry":{"type":"Point","coordinates":[17.297501,44.941399]}},{"type":"Feature","properties":{"node_id":"AIRPORT-LROP","node_type":"large-airport","name":"Bucharest Henri Coandă International Airport","ident":"LROP","icao_code":"LROP","iata_code":"OTP","scheduled_service":true,"source_airport_type":"large_airport","longest_open_runway_ft":11484,"gameplay_status":"selected","source":"OurAirports","territory_id":"RO-02","country_code":"RO","strategic_score":159.8},"geometry":{"type":"Point","coordinates":[26.103285,44.571792]}},{"type":"Feature","properties":{"node_id":"AIRPORT-LRBS","node_type":"large-airport","name":"Bucharest Băneasa Aurel Vlaicu International Airport","ident":"LRBS","icao_code":"LRBS","iata_code":"BBU","scheduled_service":true,"source_airport_type":"large_airport","longest_open_runway_ft":10499,"gameplay_status":"selected","source":"OurAirports","territory_id":"RO-02","country_code":"RO","strategic_score":150},"geometry":{"type":"Point","coordinates":[26.102944,44.503133]}},{"type":"Feature","properties":{"node_id":"AIRPORT-LRCK","node_type":"large-airport","name":"Mihail Kogălniceanu International Airport","ident":"LRCK","icao_code":"LRCK","iata_code":"CND","scheduled_service":true,"source_airport_type":"large_airport","longest_open_runway_ft":11483,"gameplay_status":"selected","source":"OurAirports","territory_id":"RO-03","country_code":"RO","strategic_score":159.8},"geometry":{"type":"Point","coordinates":[28.4883,44.362202]}},{"type":"Feature","properties":{"node_id":"AIRPORT-LRBC","node_type":"large-airport","name":"Bacău George Enescu International  Airport","ident":"LRBC","icao_code":"LRBC","iata_code":"BCM","scheduled_service":true,"source_airport_type":"large_airport","longest_open_runway_ft":8203,"gameplay_status":"selected","source":"OurAirports","territory_id":"RO-03","country_code":"RO","strategic_score":127},"geometry":{"type":"Point","coordinates":[26.910299,46.5219]}},{"type":"Feature","properties":{"node_id":"AIRPORT-LRTR","node_type":"large-airport","name":"Timișoara Traian Vuia International Airport","ident":"LRTR","icao_code":"LRTR","iata_code":"TSR","scheduled_service":true,"source_airport_type":"large_airport","longest_open_runway_ft":11483,"gameplay_status":"selected","source":"OurAirports","territory_id":"RO-01","country_code":"RO","strategic_score":159.8},"geometry":{"type":"Point","coordinates":[21.3379,45.809898]}},{"type":"Feature","properties":{"node_id":"AIRPORT-LRSB","node_type":"large-airport","name":"Sibiu International Airport","ident":"LRSB","icao_code":"LRSB","iata_code":"SBZ","scheduled_service":true,"source_airport_type":"large_airport","longest_open_runway_ft":8629,"gameplay_status":"selected","source":"OurAirports","territory_id":"RO-01","country_code":"RO","strategic_score":131.3},"geometry":{"type":"Point","coordinates":[24.086666,45.785841]}},{"type":"Feature","properties":{"node_id":"AIRPORT-LSGG","node_type":"large-airport","name":"Geneva International Airport","ident":"LSGG","icao_code":"LSGG","iata_code":"GVA","scheduled_service":true,"source_airport_type":"large_airport","longest_open_runway_ft":12795,"gameplay_status":"selected","source":"OurAirports","territory_id":"CH-01","country_code":"CH","strategic_score":172.9},"geometry":{"type":"Point","coordinates":[6.10895,46.238098]}},{"type":"Feature","properties":{"node_id":"AIRPORT-LSZH","node_type":"large-airport","name":"Zürich Airport","ident":"LSZH","icao_code":"LSZH","iata_code":"ZRH","scheduled_service":true,"source_airport_type":"large_airport","longest_open_runway_ft":12139,"gameplay_status":"selected","source":"OurAirports","territory_id":"CH-01","country_code":"CH","strategic_score":166.4},"geometry":{"type":"Point","coordinates":[8.548056,47.458056]}},{"type":"Feature","properties":{"node_id":"AIRPORT-LTFM","node_type":"large-airport","name":"İstanbul Airport","ident":"LTFM","icao_code":"LTFM","iata_code":"IST","scheduled_service":true,"source_airport_type":"large_airport","longest_open_runway_ft":13451,"gameplay_status":"selected","source":"OurAirports","territory_id":"TR-01","country_code":"TR","strategic_score":179.5},"geometry":{"type":"Point","coordinates":[28.732136,41.274874]}},{"type":"Feature","properties":{"node_id":"AIRPORT-LTFJ","node_type":"large-airport","name":"Istanbul Sabiha Gökçen International Airport","ident":"LTFJ","icao_code":"LTFJ","iata_code":"SAW","scheduled_service":true,"source_airport_type":"large_airport","longest_open_runway_ft":11614,"gameplay_status":"selected","source":"OurAirports","territory_id":"TR-01","country_code":"TR","strategic_score":161.1},"geometry":{"type":"Point","coordinates":[29.3092,40.898602]}},{"type":"Feature","properties":{"node_id":"AIRPORT-LUKK","node_type":"large-airport","name":"Chişinău International Airport","ident":"LUKK","icao_code":"LUKK","iata_code":"RMO","scheduled_service":true,"source_airport_type":"large_airport","longest_open_runway_ft":11778,"gameplay_status":"selected","source":"OurAirports","territory_id":"MD-01","country_code":"MD","strategic_score":162.8},"geometry":{"type":"Point","coordinates":[28.931704,46.92774]}},{"type":"Feature","properties":{"node_id":"AIRPORT-LUBM","node_type":"large-airport","name":"Mărculești Air Base","ident":"LUBM","icao_code":"LUBM","iata_code":null,"scheduled_service":false,"source_airport_type":"medium_airport","longest_open_runway_ft":8235,"gameplay_status":"selected","source":"OurAirports","territory_id":"MD-01","country_code":"MD","strategic_score":82.3},"geometry":{"type":"Point","coordinates":[28.212799,47.862701]}},{"type":"Feature","properties":{"node_id":"AIRPORT-LWSK","node_type":"large-airport","name":"Skopje International Airport","ident":"LWSK","icao_code":"LWSK","iata_code":"SKP","scheduled_service":true,"source_airport_type":"large_airport","longest_open_runway_ft":9678,"gameplay_status":"selected","source":"OurAirports","territory_id":"MK-01","country_code":"MK","strategic_score":141.8},"geometry":{"type":"Point","coordinates":[21.622581,41.958087]}},{"type":"Feature","properties":{"node_id":"AIRPORT-LWOH","node_type":"large-airport","name":"Ohrid St. Paul the Apostle Airport","ident":"LWOH","icao_code":"LWOH","iata_code":"OHD","scheduled_service":true,"source_airport_type":"large_airport","longest_open_runway_ft":8366,"gameplay_status":"selected","source":"OurAirports","territory_id":"MK-01","country_code":"MK","strategic_score":128.7},"geometry":{"type":"Point","coordinates":[20.7423,41.18]}},{"type":"Feature","properties":{"node_id":"AIRPORT-LYBE","node_type":"large-airport","name":"Belgrade Nikola Tesla Airport","ident":"LYBE","icao_code":"LYBE","iata_code":"BEG","scheduled_service":true,"source_airport_type":"large_airport","longest_open_runway_ft":11483,"gameplay_status":"selected","source":"OurAirports","territory_id":"RS-01","country_code":"RS","strategic_score":159.8},"geometry":{"type":"Point","coordinates":[20.309099,44.818401]}},{"type":"Feature","properties":{"node_id":"AIRPORT-LYUZ","node_type":"large-airport","name":"Ponikve Airport","ident":"LYUZ","icao_code":"LYUZ","iata_code":"UZC","scheduled_service":false,"source_airport_type":"medium_airport","longest_open_runway_ft":10130,"gameplay_status":"selected","source":"OurAirports","territory_id":"RS-01","country_code":"RS","strategic_score":101.3},"geometry":{"type":"Point","coordinates":[19.697701,43.898899]}},{"type":"Feature","properties":{"node_id":"AIRPORT-LYNI","node_type":"large-airport","name":"Niš Constantine the Great Airport","ident":"LYNI","icao_code":"LYNI","iata_code":"INI","scheduled_service":true,"source_airport_type":"large_airport","longest_open_runway_ft":8202,"gameplay_status":"selected","source":"OurAirports","territory_id":"RS-02","country_code":"RS","strategic_score":127},"geometry":{"type":"Point","coordinates":[21.856242,43.336538]}},{"type":"Feature","properties":{"node_id":"AIRPORT-LYPG","node_type":"large-airport","name":"Podgorica Airport / Podgorica Golubovci Airbase","ident":"LYPG","icao_code":"LYPG","iata_code":"TGD","scheduled_service":true,"source_airport_type":"large_airport","longest_open_runway_ft":8202,"gameplay_status":"selected","source":"OurAirports","territory_id":"ME-01","country_code":"ME","strategic_score":127},"geometry":{"type":"Point","coordinates":[19.2519,42.359402]}},{"type":"Feature","properties":{"node_id":"AIRPORT-LYTV","node_type":"large-airport","name":"Tivat Airport","ident":"LYTV","icao_code":"LYTV","iata_code":"TIV","scheduled_service":true,"source_airport_type":"medium_airport","longest_open_runway_ft":8208,"gameplay_status":"selected","source":"OurAirports","territory_id":"ME-01","country_code":"ME","strategic_score":97.1},"geometry":{"type":"Point","coordinates":[18.723301,42.404701]}},{"type":"Feature","properties":{"node_id":"AIRPORT-LZIB","node_type":"large-airport","name":"M. R. Štefánik Airport","ident":"LZIB","icao_code":"LZIB","iata_code":"BTS","scheduled_service":true,"source_airport_type":"large_airport","longest_open_runway_ft":10466,"gameplay_status":"selected","source":"OurAirports","territory_id":"SK-01","country_code":"SK","strategic_score":149.7},"geometry":{"type":"Point","coordinates":[17.2127,48.1702]}},{"type":"Feature","properties":{"node_id":"AIRPORT-LZKZ","node_type":"large-airport","name":"Košice International Airport","ident":"LZKZ","icao_code":"LZKZ","iata_code":"KSC","scheduled_service":true,"source_airport_type":"medium_airport","longest_open_runway_ft":10171,"gameplay_status":"selected","source":"OurAirports","territory_id":"SK-01","country_code":"SK","strategic_score":116.7},"geometry":{"type":"Point","coordinates":[21.2411,48.663101]}},{"type":"Feature","properties":{"node_id":"AIRPORT-ULLI","node_type":"large-airport","name":"Pulkovo Airport","ident":"ULLI","icao_code":"ULLI","iata_code":"LED","scheduled_service":true,"source_airport_type":"large_airport","longest_open_runway_ft":12402,"gameplay_status":"selected","source":"OurAirports","territory_id":"RU-02","country_code":"RU","strategic_score":169},"geometry":{"type":"Point","coordinates":[30.262501,59.800301]}},{"type":"Feature","properties":{"node_id":"AIRPORT-ULMM","node_type":"large-airport","name":"Emperor Nicholas II Murmansk Airport","ident":"ULMM","icao_code":"ULMM","iata_code":"MMK","scheduled_service":true,"source_airport_type":"large_airport","longest_open_runway_ft":8202,"gameplay_status":"selected","source":"OurAirports","territory_id":"RU-02","country_code":"RU","strategic_score":127},"geometry":{"type":"Point","coordinates":[32.750801,68.7817]}},{"type":"Feature","properties":{"node_id":"AIRPORT-UUBW","node_type":"large-airport","name":"Zhukovsky International Airport","ident":"UUBW","icao_code":"UUBW","iata_code":"ZIA","scheduled_service":true,"source_airport_type":"large_airport","longest_open_runway_ft":15092,"gameplay_status":"selected","source":"OurAirports","territory_id":"RU-03","country_code":"RU","strategic_score":195.9},"geometry":{"type":"Point","coordinates":[38.150002,55.553299]}},{"type":"Feature","properties":{"node_id":"AIRPORT-UUEE","node_type":"large-airport","name":"Sheremetyevo International Airport","ident":"UUEE","icao_code":"UUEE","iata_code":"SVO","scheduled_service":true,"source_airport_type":"large_airport","longest_open_runway_ft":12139,"gameplay_status":"selected","source":"OurAirports","territory_id":"RU-03","country_code":"RU","strategic_score":166.4},"geometry":{"type":"Point","coordinates":[37.41121,55.976858]}},{"type":"Feature","properties":{"node_id":"AIRPORT-URMM","node_type":"large-airport","name":"Mineralnye Vody Airport","ident":"URMM","icao_code":"URMM","iata_code":"MRV","scheduled_service":true,"source_airport_type":"large_airport","longest_open_runway_ft":12795,"gameplay_status":"selected","source":"OurAirports","territory_id":"RU-05","country_code":"RU","strategic_score":172.9},"geometry":{"type":"Point","coordinates":[43.081902,44.225101]}},{"type":"Feature","properties":{"node_id":"AIRPORT-URRP","node_type":"large-airport","name":"Platov International Airport","ident":"URRP","icao_code":"URRP","iata_code":"ROV","scheduled_service":true,"source_airport_type":"large_airport","longest_open_runway_ft":11811,"gameplay_status":"selected","source":"OurAirports","territory_id":"RU-05","country_code":"RU","strategic_score":163.1},"geometry":{"type":"Point","coordinates":[39.924722,47.493888]}},{"type":"Feature","properties":{"node_id":"AIRPORT-UWLW","node_type":"large-airport","name":"Ulyanovsk Vostochny Airport","ident":"UWLW","icao_code":"UWLW","iata_code":"ULY","scheduled_service":true,"source_airport_type":"medium_airport","longest_open_runway_ft":16404,"gameplay_status":"selected","source":"OurAirports","territory_id":"RU-04","country_code":"RU","strategic_score":179},"geometry":{"type":"Point","coordinates":[48.8027,54.401001]}},{"type":"Feature","properties":{"node_id":"AIRPORT-UWUU","node_type":"large-airport","name":"Ufa International Airport","ident":"UWUU","icao_code":"UWUU","iata_code":"UFA","scheduled_service":true,"source_airport_type":"large_airport","longest_open_runway_ft":12339,"gameplay_status":"selected","source":"OurAirports","territory_id":"RU-04","country_code":"RU","strategic_score":168.4},"geometry":{"type":"Point","coordinates":[55.874401092529,54.557498931885]}},{"type":"Feature","properties":{"node_id":"AIRPORT-UMKK","node_type":"large-airport","name":"Khrabrovo Airport","ident":"UMKK","icao_code":"UMKK","iata_code":"KGD","scheduled_service":true,"source_airport_type":"large_airport","longest_open_runway_ft":10991,"gameplay_status":"selected","source":"OurAirports","territory_id":"RU-01","country_code":"RU","strategic_score":154.9},"geometry":{"type":"Point","coordinates":[20.598559,54.89161]}},{"type":"Feature","properties":{"node_id":"AIRPORT-RU-0028","node_type":"large-airport","name":"Kaliningrad Chkalovsk Naval Air Base","ident":"RU-0028","icao_code":null,"iata_code":null,"scheduled_service":false,"source_airport_type":"medium_airport","longest_open_runway_ft":9841,"gameplay_status":"selected","source":"OurAirports","territory_id":"RU-01","country_code":"RU","strategic_score":98.4},"geometry":{"type":"Point","coordinates":[20.396819,54.766556]}},{"type":"Feature","properties":{"node_id":"AIRPORT-UKBB","node_type":"large-airport","name":"Boryspil International Airport","ident":"UKBB","icao_code":"UKBB","iata_code":"KBP","scheduled_service":false,"source_airport_type":"medium_airport","longest_open_runway_ft":13123,"gameplay_status":"selected","source":"OurAirports","territory_id":"UA-02","country_code":"UA","strategic_score":131.2},"geometry":{"type":"Point","coordinates":[30.894699,50.345001]}},{"type":"Feature","properties":{"node_id":"AIRPORT-UKKM","node_type":"large-airport","name":"Hostomel Airport","ident":"UKKM","icao_code":null,"iata_code":null,"scheduled_service":false,"source_airport_type":"medium_airport","longest_open_runway_ft":11483,"gameplay_status":"selected","source":"OurAirports","territory_id":"UA-02","country_code":"UA","strategic_score":114.8},"geometry":{"type":"Point","coordinates":[30.1919,50.6035]}},{"type":"Feature","properties":{"node_id":"AIRPORT-UKOO","node_type":"large-airport","name":"Odesa International Airport","ident":"UKOO","icao_code":"UKOO","iata_code":"ODS","scheduled_service":false,"source_airport_type":"large_airport","longest_open_runway_ft":9186,"gameplay_status":"selected","source":"OurAirports","territory_id":"UA-04","country_code":"UA","strategic_score":121.9},"geometry":{"type":"Point","coordinates":[30.672649,46.427196]}},{"type":"Feature","properties":{"node_id":"AIRPORT-UKOR","node_type":"large-airport","name":"Kulbakyne Air Base","ident":"UKOR","icao_code":null,"iata_code":null,"scheduled_service":false,"source_airport_type":"small_airport","longest_open_runway_ft":10568,"gameplay_status":"selected","source":"OurAirports","territory_id":"UA-04","country_code":"UA","strategic_score":105.7},"geometry":{"type":"Point","coordinates":[32.098618,46.936433]}},{"type":"Feature","properties":{"node_id":"AIRPORT-UA-9862","node_type":"large-airport","name":"Donetsk Sergei Prokofiev International Airport","ident":"UA-9862","icao_code":null,"iata_code":null,"scheduled_service":false,"source_airport_type":"closed","longest_open_runway_ft":13123,"gameplay_status":"selected","source":"OurAirports","territory_id":"UA-03","country_code":"UA","strategic_score":131.2},"geometry":{"type":"Point","coordinates":[37.72527,48.075072]}},{"type":"Feature","properties":{"node_id":"AIRPORT-UKDE","node_type":"large-airport","name":"Zaporizhzhia International Airport","ident":"UKDE","icao_code":"UKDE","iata_code":"OZH","scheduled_service":false,"source_airport_type":"large_airport","longest_open_runway_ft":8210,"gameplay_status":"selected","source":"OurAirports","territory_id":"UA-03","country_code":"UA","strategic_score":112.1},"geometry":{"type":"Point","coordinates":[35.314723,47.866962]}},{"type":"Feature","properties":{"node_id":"AIRPORT-UKLL","node_type":"large-airport","name":"Lviv International Airport","ident":"UKLL","icao_code":"UKLL","iata_code":"LWO","scheduled_service":true,"source_airport_type":"large_airport","longest_open_runway_ft":10843,"gameplay_status":"selected","source":"OurAirports","territory_id":"UA-01","country_code":"UA","strategic_score":153.4},"geometry":{"type":"Point","coordinates":[23.9561,49.8125]}},{"type":"Feature","properties":{"node_id":"AIRPORT-UKLU","node_type":"large-airport","name":"Uzhhorod International Airport","ident":"UKLU","icao_code":"UKLU","iata_code":"UDJ","scheduled_service":true,"source_airport_type":"large_airport","longest_open_runway_ft":6686,"gameplay_status":"selected","source":"OurAirports","territory_id":"UA-01","country_code":"UA","strategic_score":111.9},"geometry":{"type":"Point","coordinates":[22.263399,48.6343]}},{"type":"Feature","properties":{"node_id":"AIRPORT-UKFF","node_type":"large-airport","name":"Simferopol International Airport","ident":"UKFF","icao_code":"UKFF","iata_code":"SIP","scheduled_service":true,"source_airport_type":"large_airport","longest_open_runway_ft":12142,"gameplay_status":"selected","source":"OurAirports","territory_id":"UA-05","country_code":"UA","strategic_score":166.4},"geometry":{"type":"Point","coordinates":[33.975101,45.0522]}}]}
