{"type":"FeatureCollection","features":[{"type":"Feature","properties":{"node_id":"CENTRE-AL-01","node_type":"strategic-centre","name":"Tirana","territory_id":"AL-01","country_code":"AL","gameplay_status":"core","source":"approved-territory-catalogue"},"geometry":{"type":"Point","coordinates":[19.8178,41.3289]}},{"type":"Feature","properties":{"node_id":"CENTRE-AT-01","node_type":"strategic-centre","name":"Innsbruck","territory_id":"AT-01","country_code":"AT","gameplay_status":"core","source":"approved-territory-catalogue"},"geometry":{"type":"Point","coordinates":[11.3933,47.2683]}},{"type":"Feature","properties":{"node_id":"CENTRE-AT-02","node_type":"strategic-centre","name":"Vienna","territory_id":"AT-02","country_code":"AT","gameplay_status":"core","source":"approved-territory-catalogue"},"geometry":{"type":"Point","coordinates":[16.3725,48.2083]}},{"type":"Feature","properties":{"node_id":"CENTRE-BA-01","node_type":"strategic-centre","name":"Sarajevo","territory_id":"BA-01","country_code":"BA","gameplay_status":"core","source":"approved-territory-catalogue"},"geometry":{"type":"Point","coordinates":[18.4131,43.8564]}},{"type":"Feature","properties":{"node_id":"CENTRE-BE-01","node_type":"strategic-centre","name":"Brussels","territory_id":"BE-01","country_code":"BE","gameplay_status":"core","source":"approved-territory-catalogue"},"geometry":{"type":"Point","coordinates":[4.3525,50.8467]}},{"type":"Feature","properties":{"node_id":"CENTRE-BE-02","node_type":"strategic-centre","name":"Namur","territory_id":"BE-02","country_code":"BE","gameplay_status":"core","source":"approved-territory-catalogue"},"geometry":{"type":"Point","coordinates":[4.8667,50.4667]}},{"type":"Feature","properties":{"node_id":"CENTRE-BG-01","node_type":"strategic-centre","name":"Sofia","territory_id":"BG-01","country_code":"BG","gameplay_status":"core","source":"approved-territory-catalogue"},"geometry":{"type":"Point","coordinates":[23.33,42.7]}},{"type":"Feature","properties":{"node_id":"CENTRE-BG-02","node_type":"strategic-centre","name":"Varna","territory_id":"BG-02","country_code":"BG","gameplay_status":"core","source":"approved-territory-catalogue"},"geometry":{"type":"Point","coordinates":[27.9167,43.2167]}},{"type":"Feature","properties":{"node_id":"CENTRE-BY-01","node_type":"strategic-centre","name":"Brest","territory_id":"BY-01","country_code":"BY","gameplay_status":"core","source":"approved-territory-catalogue"},"geometry":{"type":"Point","coordinates":[23.6569,52.1347]}},{"type":"Feature","properties":{"node_id":"CENTRE-BY-02","node_type":"strategic-centre","name":"Minsk","territory_id":"BY-02","country_code":"BY","gameplay_status":"core","source":"approved-territory-catalogue"},"geometry":{"type":"Point","coordinates":[27.5667,53.9]}},{"type":"Feature","properties":{"node_id":"CENTRE-CH-01","node_type":"strategic-centre","name":"Bern","territory_id":"CH-01","country_code":"CH","gameplay_status":"core","source":"approved-territory-catalogue"},"geometry":{"type":"Point","coordinates":[7.4475,46.9481]}},{"type":"Feature","properties":{"node_id":"CENTRE-CH-02","node_type":"strategic-centre","name":"Chur","territory_id":"CH-02","country_code":"CH","gameplay_status":"core","source":"approved-territory-catalogue"},"geometry":{"type":"Point","coordinates":[9.5333,46.85]}},{"type":"Feature","properties":{"node_id":"CENTRE-CY-01","node_type":"strategic-centre","name":"Nicosia","territory_id":"CY-01","country_code":"CY","gameplay_status":"core","source":"approved-territory-catalogue"},"geometry":{"type":"Point","coordinates":[33.365,35.1725]}},{"type":"Feature","properties":{"node_id":"CENTRE-CZ-01","node_type":"strategic-centre","name":"Prague","territory_id":"CZ-01","country_code":"CZ","gameplay_status":"core","source":"approved-territory-catalogue"},"geometry":{"type":"Point","coordinates":[14.4214,50.0875]}},{"type":"Feature","properties":{"node_id":"CENTRE-CZ-02","node_type":"strategic-centre","name":"Brno","territory_id":"CZ-02","country_code":"CZ","gameplay_status":"core","source":"approved-territory-catalogue"},"geometry":{"type":"Point","coordinates":[16.6083,49.1925]}},{"type":"Feature","properties":{"node_id":"CENTRE-DE-01","node_type":"strategic-centre","name":"Hamburg","territory_id":"DE-01","country_code":"DE","gameplay_status":"core","source":"approved-territory-catalogue"},"geometry":{"type":"Point","coordinates":[10,53.55]}},{"type":"Feature","properties":{"node_id":"CENTRE-DE-02","node_type":"strategic-centre","name":"Dusseldorf","territory_id":"DE-02","country_code":"DE","gameplay_status":"core","source":"approved-territory-catalogue"},"geometry":{"type":"Point","coordinates":[6.7735,51.2277]}},{"type":"Feature","properties":{"node_id":"CENTRE-DE-03","node_type":"strategic-centre","name":"Frankfurt","territory_id":"DE-03","country_code":"DE","gameplay_status":"core","source":"approved-territory-catalogue"},"geometry":{"type":"Point","coordinates":[8.6822,50.1106]}},{"type":"Feature","properties":{"node_id":"CENTRE-DE-04","node_type":"strategic-centre","name":"Berlin","territory_id":"DE-04","country_code":"DE","gameplay_status":"core","source":"approved-territory-catalogue"},"geometry":{"type":"Point","coordinates":[13.405,52.52]}},{"type":"Feature","properties":{"node_id":"CENTRE-DE-05","node_type":"strategic-centre","name":"Stuttgart","territory_id":"DE-05","country_code":"DE","gameplay_status":"core","source":"approved-territory-catalogue"},"geometry":{"type":"Point","coordinates":[9.18,48.7775]}},{"type":"Feature","properties":{"node_id":"CENTRE-DE-06","node_type":"strategic-centre","name":"Munich","territory_id":"DE-06","country_code":"DE","gameplay_status":"core","source":"approved-territory-catalogue"},"geometry":{"type":"Point","coordinates":[11.575,48.1375]}},{"type":"Feature","properties":{"node_id":"CENTRE-DK-01","node_type":"strategic-centre","name":"Aarhus","territory_id":"DK-01","country_code":"DK","gameplay_status":"core","source":"approved-territory-catalogue"},"geometry":{"type":"Point","coordinates":[10.2107,56.1572]}},{"type":"Feature","properties":{"node_id":"CENTRE-DK-02","node_type":"strategic-centre","name":"Copenhagen","territory_id":"DK-02","country_code":"DK","gameplay_status":"core","source":"approved-territory-catalogue"},"geometry":{"type":"Point","coordinates":[12.5683,55.6761]}},{"type":"Feature","properties":{"node_id":"CENTRE-EE-01","node_type":"strategic-centre","name":"Tallinn","territory_id":"EE-01","country_code":"EE","gameplay_status":"core","source":"approved-territory-catalogue"},"geometry":{"type":"Point","coordinates":[24.7453,59.4372]}},{"type":"Feature","properties":{"node_id":"CENTRE-ES-01","node_type":"strategic-centre","name":"A Coruna","territory_id":"ES-01","country_code":"ES","gameplay_status":"core","source":"approved-territory-catalogue"},"geometry":{"type":"Point","coordinates":[-8.4115,43.3623]}},{"type":"Feature","properties":{"node_id":"CENTRE-ES-02","node_type":"strategic-centre","name":"Bilbao","territory_id":"ES-02","country_code":"ES","gameplay_status":"core","source":"approved-territory-catalogue"},"geometry":{"type":"Point","coordinates":[-2.9236,43.2569]}},{"type":"Feature","properties":{"node_id":"CENTRE-ES-03","node_type":"strategic-centre","name":"Barcelona","territory_id":"ES-03","country_code":"ES","gameplay_status":"core","source":"approved-territory-catalogue"},"geometry":{"type":"Point","coordinates":[2.1769,41.3825]}},{"type":"Feature","properties":{"node_id":"CENTRE-ES-04","node_type":"strategic-centre","name":"Madrid","territory_id":"ES-04","country_code":"ES","gameplay_status":"core","source":"approved-territory-catalogue"},"geometry":{"type":"Point","coordinates":[-3.7033,40.4169]}},{"type":"Feature","properties":{"node_id":"CENTRE-ES-05","node_type":"strategic-centre","name":"Valencia","territory_id":"ES-05","country_code":"ES","gameplay_status":"core","source":"approved-territory-catalogue"},"geometry":{"type":"Point","coordinates":[-0.3764,39.47]}},{"type":"Feature","properties":{"node_id":"CENTRE-ES-06","node_type":"strategic-centre","name":"Seville","territory_id":"ES-06","country_code":"ES","gameplay_status":"core","source":"approved-territory-catalogue"},"geometry":{"type":"Point","coordinates":[-5.9845,37.3891]}},{"type":"Feature","properties":{"node_id":"CENTRE-FI-01","node_type":"strategic-centre","name":"Helsinki","territory_id":"FI-01","country_code":"FI","gameplay_status":"core","source":"approved-territory-catalogue"},"geometry":{"type":"Point","coordinates":[24.9375,60.1708]}},{"type":"Feature","properties":{"node_id":"CENTRE-FI-02","node_type":"strategic-centre","name":"Tampere","territory_id":"FI-02","country_code":"FI","gameplay_status":"core","source":"approved-territory-catalogue"},"geometry":{"type":"Point","coordinates":[23.76,61.4981]}},{"type":"Feature","properties":{"node_id":"CENTRE-FI-03","node_type":"strategic-centre","name":"Rovaniemi","territory_id":"FI-03","country_code":"FI","gameplay_status":"core","source":"approved-territory-catalogue"},"geometry":{"type":"Point","coordinates":[25.7333,66.5]}},{"type":"Feature","properties":{"node_id":"CENTRE-FR-01","node_type":"strategic-centre","name":"Rennes","territory_id":"FR-01","country_code":"FR","gameplay_status":"core","source":"approved-territory-catalogue"},"geometry":{"type":"Point","coordinates":[-1.6794,48.1147]}},{"type":"Feature","properties":{"node_id":"CENTRE-FR-02","node_type":"strategic-centre","name":"Paris","territory_id":"FR-02","country_code":"FR","gameplay_status":"core","source":"approved-territory-catalogue"},"geometry":{"type":"Point","coordinates":[2.3522,48.8567]}},{"type":"Feature","properties":{"node_id":"CENTRE-FR-03","node_type":"strategic-centre","name":"Strasbourg","territory_id":"FR-03","country_code":"FR","gameplay_status":"core","source":"approved-territory-catalogue"},"geometry":{"type":"Point","coordinates":[7.7458,48.5833]}},{"type":"Feature","properties":{"node_id":"CENTRE-FR-04","node_type":"strategic-centre","name":"Bordeaux","territory_id":"FR-04","country_code":"FR","gameplay_status":"core","source":"approved-territory-catalogue"},"geometry":{"type":"Point","coordinates":[-0.58,44.84]}},{"type":"Feature","properties":{"node_id":"CENTRE-FR-05","node_type":"strategic-centre","name":"Lyon","territory_id":"FR-05","country_code":"FR","gameplay_status":"core","source":"approved-territory-catalogue"},"geometry":{"type":"Point","coordinates":[4.84,45.76]}},{"type":"Feature","properties":{"node_id":"CENTRE-FR-06","node_type":"strategic-centre","name":"Marseille","territory_id":"FR-06","country_code":"FR","gameplay_status":"core","source":"approved-territory-catalogue"},"geometry":{"type":"Point","coordinates":[5.37,43.2964]}},{"type":"Feature","properties":{"node_id":"CENTRE-GB-01","node_type":"strategic-centre","name":"Edinburgh","territory_id":"GB-01","country_code":"GB","gameplay_status":"core","source":"approved-territory-catalogue"},"geometry":{"type":"Point","coordinates":[-3.1892,55.9533]}},{"type":"Feature","properties":{"node_id":"CENTRE-GB-02","node_type":"strategic-centre","name":"Manchester","territory_id":"GB-02","country_code":"GB","gameplay_status":"core","source":"approved-territory-catalogue"},"geometry":{"type":"Point","coordinates":[-2.2453,53.4794]}},{"type":"Feature","properties":{"node_id":"CENTRE-GB-03","node_type":"strategic-centre","name":"Birmingham","territory_id":"GB-03","country_code":"GB","gameplay_status":"core","source":"approved-territory-catalogue"},"geometry":{"type":"Point","coordinates":[-1.9025,52.48]}},{"type":"Feature","properties":{"node_id":"CENTRE-GB-04","node_type":"strategic-centre","name":"London","territory_id":"GB-04","country_code":"GB","gameplay_status":"core","source":"approved-territory-catalogue"},"geometry":{"type":"Point","coordinates":[-0.1275,51.5072]}},{"type":"Feature","properties":{"node_id":"CENTRE-GB-05","node_type":"strategic-centre","name":"Cardiff","territory_id":"GB-05","country_code":"GB","gameplay_status":"core","source":"approved-territory-catalogue"},"geometry":{"type":"Point","coordinates":[-3.1791,51.4816]}},{"type":"Feature","properties":{"node_id":"CENTRE-GB-06","node_type":"strategic-centre","name":"Belfast","territory_id":"GB-06","country_code":"GB","gameplay_status":"core","source":"approved-territory-catalogue"},"geometry":{"type":"Point","coordinates":[-5.93,54.5964]}},{"type":"Feature","properties":{"node_id":"CENTRE-GR-01","node_type":"strategic-centre","name":"Thessaloniki","territory_id":"GR-01","country_code":"GR","gameplay_status":"core","source":"approved-territory-catalogue"},"geometry":{"type":"Point","coordinates":[22.9347,40.6403]}},{"type":"Feature","properties":{"node_id":"CENTRE-GR-02","node_type":"strategic-centre","name":"Athens","territory_id":"GR-02","country_code":"GR","gameplay_status":"core","source":"approved-territory-catalogue"},"geometry":{"type":"Point","coordinates":[23.7281,37.9842]}},{"type":"Feature","properties":{"node_id":"CENTRE-GR-03","node_type":"strategic-centre","name":"Heraklion","territory_id":"GR-03","country_code":"GR","gameplay_status":"core","source":"approved-territory-catalogue"},"geometry":{"type":"Point","coordinates":[25.1442,35.3387]}},{"type":"Feature","properties":{"node_id":"CENTRE-HR-01","node_type":"strategic-centre","name":"Zagreb","territory_id":"HR-01","country_code":"HR","gameplay_status":"core","source":"approved-territory-catalogue"},"geometry":{"type":"Point","coordinates":[15.9833,45.8167]}},{"type":"Feature","properties":{"node_id":"CENTRE-HR-02","node_type":"strategic-centre","name":"Split","territory_id":"HR-02","country_code":"HR","gameplay_status":"core","source":"approved-territory-catalogue"},"geometry":{"type":"Point","coordinates":[16.44,43.51]}},{"type":"Feature","properties":{"node_id":"CENTRE-HU-01","node_type":"strategic-centre","name":"Budapest","territory_id":"HU-01","country_code":"HU","gameplay_status":"core","source":"approved-territory-catalogue"},"geometry":{"type":"Point","coordinates":[19.0514,47.4925]}},{"type":"Feature","properties":{"node_id":"CENTRE-HU-02","node_type":"strategic-centre","name":"Debrecen","territory_id":"HU-02","country_code":"HU","gameplay_status":"core","source":"approved-territory-catalogue"},"geometry":{"type":"Point","coordinates":[21.6392,47.53]}},{"type":"Feature","properties":{"node_id":"CENTRE-IE-01","node_type":"strategic-centre","name":"Galway","territory_id":"IE-01","country_code":"IE","gameplay_status":"core","source":"approved-territory-catalogue"},"geometry":{"type":"Point","coordinates":[-9.0489,53.2719]}},{"type":"Feature","properties":{"node_id":"CENTRE-IE-02","node_type":"strategic-centre","name":"Dublin","territory_id":"IE-02","country_code":"IE","gameplay_status":"core","source":"approved-territory-catalogue"},"geometry":{"type":"Point","coordinates":[-6.2603,53.35]}},{"type":"Feature","properties":{"node_id":"CENTRE-IS-01","node_type":"strategic-centre","name":"Reykjavik","territory_id":"IS-01","country_code":"IS","gameplay_status":"core","source":"approved-territory-catalogue"},"geometry":{"type":"Point","coordinates":[-21.94,64.1467]}},{"type":"Feature","properties":{"node_id":"CENTRE-IT-01","node_type":"strategic-centre","name":"Milan","territory_id":"IT-01","country_code":"IT","gameplay_status":"core","source":"approved-territory-catalogue"},"geometry":{"type":"Point","coordinates":[9.19,45.4669]}},{"type":"Feature","properties":{"node_id":"CENTRE-IT-02","node_type":"strategic-centre","name":"Rome","territory_id":"IT-02","country_code":"IT","gameplay_status":"core","source":"approved-territory-catalogue"},"geometry":{"type":"Point","coordinates":[12.4828,41.8931]}},{"type":"Feature","properties":{"node_id":"CENTRE-IT-03","node_type":"strategic-centre","name":"Naples","territory_id":"IT-03","country_code":"IT","gameplay_status":"core","source":"approved-territory-catalogue"},"geometry":{"type":"Point","coordinates":[14.25,40.8333]}},{"type":"Feature","properties":{"node_id":"CENTRE-IT-04","node_type":"strategic-centre","name":"Palermo","territory_id":"IT-04","country_code":"IT","gameplay_status":"core","source":"approved-territory-catalogue"},"geometry":{"type":"Point","coordinates":[13.3613,38.1157]}},{"type":"Feature","properties":{"node_id":"CENTRE-IT-05","node_type":"strategic-centre","name":"Cagliari","territory_id":"IT-05","country_code":"IT","gameplay_status":"core","source":"approved-territory-catalogue"},"geometry":{"type":"Point","coordinates":[9.1111,39.2278]}},{"type":"Feature","properties":{"node_id":"CENTRE-LT-01","node_type":"strategic-centre","name":"Vilnius","territory_id":"LT-01","country_code":"LT","gameplay_status":"core","source":"approved-territory-catalogue"},"geometry":{"type":"Point","coordinates":[25.28,54.6872]}},{"type":"Feature","properties":{"node_id":"CENTRE-LU-01","node_type":"strategic-centre","name":"Luxembourg","territory_id":"LU-01","country_code":"LU","gameplay_status":"core","source":"approved-territory-catalogue"},"geometry":{"type":"Point","coordinates":[6.1319,49.6117]}},{"type":"Feature","properties":{"node_id":"CENTRE-LV-01","node_type":"strategic-centre","name":"Riga","territory_id":"LV-01","country_code":"LV","gameplay_status":"core","source":"approved-territory-catalogue"},"geometry":{"type":"Point","coordinates":[24.1064,56.9489]}},{"type":"Feature","properties":{"node_id":"CENTRE-MD-01","node_type":"strategic-centre","name":"Chisinau","territory_id":"MD-01","country_code":"MD","gameplay_status":"core","source":"approved-territory-catalogue"},"geometry":{"type":"Point","coordinates":[28.8353,47.0105]}},{"type":"Feature","properties":{"node_id":"CENTRE-ME-01","node_type":"strategic-centre","name":"Podgorica","territory_id":"ME-01","country_code":"ME","gameplay_status":"core","source":"approved-territory-catalogue"},"geometry":{"type":"Point","coordinates":[19.2629,42.4413]}},{"type":"Feature","properties":{"node_id":"CENTRE-MK-01","node_type":"strategic-centre","name":"Skopje","territory_id":"MK-01","country_code":"MK","gameplay_status":"core","source":"approved-territory-catalogue"},"geometry":{"type":"Point","coordinates":[21.4317,41.9961]}},{"type":"Feature","properties":{"node_id":"CENTRE-MT-01","node_type":"strategic-centre","name":"Valletta","territory_id":"MT-01","country_code":"MT","gameplay_status":"core","source":"approved-territory-catalogue"},"geometry":{"type":"Point","coordinates":[14.5125,35.8983]}},{"type":"Feature","properties":{"node_id":"CENTRE-NL-01","node_type":"strategic-centre","name":"Amsterdam","territory_id":"NL-01","country_code":"NL","gameplay_status":"core","source":"approved-territory-catalogue"},"geometry":{"type":"Point","coordinates":[4.8936,52.3728]}},{"type":"Feature","properties":{"node_id":"CENTRE-NL-02","node_type":"strategic-centre","name":"Groningen","territory_id":"NL-02","country_code":"NL","gameplay_status":"core","source":"approved-territory-catalogue"},"geometry":{"type":"Point","coordinates":[6.5667,53.2167]}},{"type":"Feature","properties":{"node_id":"CENTRE-NO-01","node_type":"strategic-centre","name":"Oslo","territory_id":"NO-01","country_code":"NO","gameplay_status":"core","source":"approved-territory-catalogue"},"geometry":{"type":"Point","coordinates":[10.7389,59.9133]}},{"type":"Feature","properties":{"node_id":"CENTRE-NO-02","node_type":"strategic-centre","name":"Trondheim","territory_id":"NO-02","country_code":"NO","gameplay_status":"core","source":"approved-territory-catalogue"},"geometry":{"type":"Point","coordinates":[10.3933,63.4297]}},{"type":"Feature","properties":{"node_id":"CENTRE-NO-03","node_type":"strategic-centre","name":"Tromso","territory_id":"NO-03","country_code":"NO","gameplay_status":"core","source":"approved-territory-catalogue"},"geometry":{"type":"Point","coordinates":[18.9428,69.6828]}},{"type":"Feature","properties":{"node_id":"CENTRE-PL-01","node_type":"strategic-centre","name":"Gdansk","territory_id":"PL-01","country_code":"PL","gameplay_status":"core","source":"approved-territory-catalogue"},"geometry":{"type":"Point","coordinates":[18.6453,54.3475]}},{"type":"Feature","properties":{"node_id":"CENTRE-PL-02","node_type":"strategic-centre","name":"Poznan","territory_id":"PL-02","country_code":"PL","gameplay_status":"core","source":"approved-territory-catalogue"},"geometry":{"type":"Point","coordinates":[16.9336,52.4083]}},{"type":"Feature","properties":{"node_id":"CENTRE-PL-03","node_type":"strategic-centre","name":"Warsaw","territory_id":"PL-03","country_code":"PL","gameplay_status":"core","source":"approved-territory-catalogue"},"geometry":{"type":"Point","coordinates":[21.0111,52.23]}},{"type":"Feature","properties":{"node_id":"CENTRE-PL-04","node_type":"strategic-centre","name":"Krakow","territory_id":"PL-04","country_code":"PL","gameplay_status":"core","source":"approved-territory-catalogue"},"geometry":{"type":"Point","coordinates":[19.9372,50.0614]}},{"type":"Feature","properties":{"node_id":"CENTRE-PL-05","node_type":"strategic-centre","name":"Lublin","territory_id":"PL-05","country_code":"PL","gameplay_status":"core","source":"approved-territory-catalogue"},"geometry":{"type":"Point","coordinates":[22.5667,51.25]}},{"type":"Feature","properties":{"node_id":"CENTRE-PT-01","node_type":"strategic-centre","name":"Porto","territory_id":"PT-01","country_code":"PT","gameplay_status":"core","source":"approved-territory-catalogue"},"geometry":{"type":"Point","coordinates":[-8.622,41.1621]}},{"type":"Feature","properties":{"node_id":"CENTRE-PT-02","node_type":"strategic-centre","name":"Lisbon","territory_id":"PT-02","country_code":"PT","gameplay_status":"core","source":"approved-territory-catalogue"},"geometry":{"type":"Point","coordinates":[-9.15,38.7253]}},{"type":"Feature","properties":{"node_id":"CENTRE-RO-01","node_type":"strategic-centre","name":"Cluj-Napoca","territory_id":"RO-01","country_code":"RO","gameplay_status":"core","source":"approved-territory-catalogue"},"geometry":{"type":"Point","coordinates":[23.5943,46.7712]}},{"type":"Feature","properties":{"node_id":"CENTRE-RO-02","node_type":"strategic-centre","name":"Bucharest","territory_id":"RO-02","country_code":"RO","gameplay_status":"core","source":"approved-territory-catalogue"},"geometry":{"type":"Point","coordinates":[26.1039,44.4325]}},{"type":"Feature","properties":{"node_id":"CENTRE-RO-03","node_type":"strategic-centre","name":"Iasi","territory_id":"RO-03","country_code":"RO","gameplay_status":"core","source":"approved-territory-catalogue"},"geometry":{"type":"Point","coordinates":[27.5889,47.1622]}},{"type":"Feature","properties":{"node_id":"CENTRE-RS-01","node_type":"strategic-centre","name":"Belgrade","territory_id":"RS-01","country_code":"RS","gameplay_status":"core","source":"approved-territory-catalogue"},"geometry":{"type":"Point","coordinates":[20.46,44.82]}},{"type":"Feature","properties":{"node_id":"CENTRE-RS-02","node_type":"strategic-centre","name":"Nis","territory_id":"RS-02","country_code":"RS","gameplay_status":"core","source":"approved-territory-catalogue"},"geometry":{"type":"Point","coordinates":[21.8958,43.3209]}},{"type":"Feature","properties":{"node_id":"CENTRE-RU-01","node_type":"strategic-centre","name":"Kaliningrad","territory_id":"RU-01","country_code":"RU","gameplay_status":"core","source":"approved-territory-catalogue"},"geometry":{"type":"Point","coordinates":[20.4531,54.7003]}},{"type":"Feature","properties":{"node_id":"CENTRE-RU-02","node_type":"strategic-centre","name":"St Petersburg","territory_id":"RU-02","country_code":"RU","gameplay_status":"core","source":"approved-territory-catalogue"},"geometry":{"type":"Point","coordinates":[30.3351,59.9343]}},{"type":"Feature","properties":{"node_id":"CENTRE-RU-03","node_type":"strategic-centre","name":"Moscow","territory_id":"RU-03","country_code":"RU","gameplay_status":"core","source":"approved-territory-catalogue"},"geometry":{"type":"Point","coordinates":[37.6178,55.7558]}},{"type":"Feature","properties":{"node_id":"CENTRE-RU-04","node_type":"strategic-centre","name":"Nizhny Novgorod","territory_id":"RU-04","country_code":"RU","gameplay_status":"core","source":"approved-territory-catalogue"},"geometry":{"type":"Point","coordinates":[44.0059,56.2965]}},{"type":"Feature","properties":{"node_id":"CENTRE-RU-05","node_type":"strategic-centre","name":"Rostov-on-Don","territory_id":"RU-05","country_code":"RU","gameplay_status":"core","source":"approved-territory-catalogue"},"geometry":{"type":"Point","coordinates":[39.7015,47.2357]}},{"type":"Feature","properties":{"node_id":"CENTRE-SE-01","node_type":"strategic-centre","name":"Malmo","territory_id":"SE-01","country_code":"SE","gameplay_status":"core","source":"approved-territory-catalogue"},"geometry":{"type":"Point","coordinates":[13.0358,55.6058]}},{"type":"Feature","properties":{"node_id":"CENTRE-SE-02","node_type":"strategic-centre","name":"Stockholm","territory_id":"SE-02","country_code":"SE","gameplay_status":"core","source":"approved-territory-catalogue"},"geometry":{"type":"Point","coordinates":[18.0686,59.3294]}},{"type":"Feature","properties":{"node_id":"CENTRE-SE-03","node_type":"strategic-centre","name":"Lulea","territory_id":"SE-03","country_code":"SE","gameplay_status":"core","source":"approved-territory-catalogue"},"geometry":{"type":"Point","coordinates":[22.1539,65.5844]}},{"type":"Feature","properties":{"node_id":"CENTRE-SI-01","node_type":"strategic-centre","name":"Ljubljana","territory_id":"SI-01","country_code":"SI","gameplay_status":"core","source":"approved-territory-catalogue"},"geometry":{"type":"Point","coordinates":[14.5061,46.0514]}},{"type":"Feature","properties":{"node_id":"CENTRE-SK-01","node_type":"strategic-centre","name":"Bratislava","territory_id":"SK-01","country_code":"SK","gameplay_status":"core","source":"approved-territory-catalogue"},"geometry":{"type":"Point","coordinates":[17.1097,48.1439]}},{"type":"Feature","properties":{"node_id":"CENTRE-TR-01","node_type":"strategic-centre","name":"Istanbul","territory_id":"TR-01","country_code":"TR","gameplay_status":"core","source":"approved-territory-catalogue"},"geometry":{"type":"Point","coordinates":[28.955,41.0136]}},{"type":"Feature","properties":{"node_id":"CENTRE-UA-01","node_type":"strategic-centre","name":"Lviv","territory_id":"UA-01","country_code":"UA","gameplay_status":"core","source":"approved-territory-catalogue"},"geometry":{"type":"Point","coordinates":[24.0322,49.8425]}},{"type":"Feature","properties":{"node_id":"CENTRE-UA-02","node_type":"strategic-centre","name":"Kyiv","territory_id":"UA-02","country_code":"UA","gameplay_status":"core","source":"approved-territory-catalogue"},"geometry":{"type":"Point","coordinates":[30.5233,50.45]}},{"type":"Feature","properties":{"node_id":"CENTRE-UA-03","node_type":"strategic-centre","name":"Kharkiv","territory_id":"UA-03","country_code":"UA","gameplay_status":"core","source":"approved-territory-catalogue"},"geometry":{"type":"Point","coordinates":[36.2311,49.9925]}},{"type":"Feature","properties":{"node_id":"CENTRE-UA-04","node_type":"strategic-centre","name":"Odesa","territory_id":"UA-04","country_code":"UA","gameplay_status":"core","source":"approved-territory-catalogue"},"geometry":{"type":"Point","coordinates":[30.7326,46.4775]}},{"type":"Feature","properties":{"node_id":"CENTRE-UA-05","node_type":"strategic-centre","name":"Simferopol","territory_id":"UA-05","country_code":"UA","gameplay_status":"core","source":"approved-territory-catalogue"},"geometry":{"type":"Point","coordinates":[34.1,44.9484]}},{"type":"Feature","properties":{"node_id":"CENTRE-XK-01","node_type":"strategic-centre","name":"Pristina","territory_id":"XK-01","country_code":"XK","gameplay_status":"core","source":"approved-territory-catalogue"},"geometry":{"type":"Point","coordinates":[21.1655,42.6629]}}]}
