{
  "type": "FeatureCollection",
  "features": [
    {
      "type": "Feature",
      "properties": {
        "id": "HUB-LONDON",
        "name": "London",
        "territory_id": "GB-04",
        "roles": [
          "rail",
          "motorway",
          "intermodal"
        ],
        "base_capacity": 5,
        "vulnerability": "medium",
        "operational_status_source": "world-state"
      },
      "geometry": {
        "type": "Point",
        "coordinates": [
          -0.1275,
          51.5072
        ]
      }
    },
    {
      "type": "Feature",
      "properties": {
        "id": "HUB-BIRMINGHAM",
        "name": "Birmingham",
        "territory_id": "GB-03",
        "roles": [
          "rail",
          "motorway"
        ],
        "base_capacity": 4,
        "vulnerability": "medium",
        "operational_status_source": "world-state"
      },
      "geometry": {
        "type": "Point",
        "coordinates": [
          -1.9025,
          52.48
        ]
      }
    },
    {
      "type": "Feature",
      "properties": {
        "id": "HUB-MANCHESTER",
        "name": "Manchester",
        "territory_id": "GB-02",
        "roles": [
          "rail",
          "motorway",
          "intermodal"
        ],
        "base_capacity": 4,
        "vulnerability": "medium",
        "operational_status_source": "world-state"
      },
      "geometry": {
        "type": "Point",
        "coordinates": [
          -2.2453,
          53.4794
        ]
      }
    },
    {
      "type": "Feature",
      "properties": {
        "id": "HUB-PARIS",
        "name": "Paris",
        "territory_id": "FR-02",
        "roles": [
          "rail",
          "motorway",
          "intermodal"
        ],
        "base_capacity": 5,
        "vulnerability": "medium",
        "operational_status_source": "world-state"
      },
      "geometry": {
        "type": "Point",
        "coordinates": [
          2.3522,
          48.8567
        ]
      }
    },
    {
      "type": "Feature",
      "properties": {
        "id": "HUB-LYON",
        "name": "Lyon",
        "territory_id": "FR-05",
        "roles": [
          "rail",
          "motorway",
          "intermodal"
        ],
        "base_capacity": 5,
        "vulnerability": "medium",
        "operational_status_source": "world-state"
      },
      "geometry": {
        "type": "Point",
        "coordinates": [
          4.84,
          45.76
        ]
      }
    },
    {
      "type": "Feature",
      "properties": {
        "id": "HUB-MARSEILLE",
        "name": "Marseille",
        "territory_id": "FR-06",
        "roles": [
          "rail",
          "motorway",
          "intermodal"
        ],
        "base_capacity": 4,
        "vulnerability": "medium",
        "operational_status_source": "world-state"
      },
      "geometry": {
        "type": "Point",
        "coordinates": [
          5.37,
          43.2964
        ]
      }
    },
    {
      "type": "Feature",
      "properties": {
        "id": "HUB-BORDEAUX",
        "name": "Bordeaux",
        "territory_id": "FR-04",
        "roles": [
          "rail",
          "motorway",
          "intermodal"
        ],
        "base_capacity": 4,
        "vulnerability": "medium",
        "operational_status_source": "world-state"
      },
      "geometry": {
        "type": "Point",
        "coordinates": [
          -0.58,
          44.84
        ]
      }
    },
    {
      "type": "Feature",
      "properties": {
        "id": "HUB-BRUSSELS",
        "name": "Brussels",
        "territory_id": "BE-01",
        "roles": [
          "rail",
          "motorway",
          "intermodal"
        ],
        "base_capacity": 5,
        "vulnerability": "medium",
        "operational_status_source": "world-state"
      },
      "geometry": {
        "type": "Point",
        "coordinates": [
          4.3525,
          50.8467
        ]
      }
    },
    {
      "type": "Feature",
      "properties": {
        "id": "HUB-ROTTERDAM",
        "name": "Rotterdam",
        "territory_id": "NL-01",
        "roles": [
          "rail",
          "motorway",
          "intermodal"
        ],
        "base_capacity": 5,
        "vulnerability": "medium",
        "operational_status_source": "world-state"
      },
      "geometry": {
        "type": "Point",
        "coordinates": [
          4.4777,
          51.9244
        ]
      }
    },
    {
      "type": "Feature",
      "properties": {
        "id": "HUB-LUXEMBOURG",
        "name": "Luxembourg",
        "territory_id": "LU-01",
        "roles": [
          "rail",
          "motorway"
        ],
        "base_capacity": 3,
        "vulnerability": "medium",
        "operational_status_source": "world-state"
      },
      "geometry": {
        "type": "Point",
        "coordinates": [
          6.1319,
          49.6117
        ]
      }
    },
    {
      "type": "Feature",
      "properties": {
        "id": "HUB-HAMBURG",
        "name": "Hamburg",
        "territory_id": "DE-01",
        "roles": [
          "rail",
          "motorway",
          "intermodal"
        ],
        "base_capacity": 5,
        "vulnerability": "medium",
        "operational_status_source": "world-state"
      },
      "geometry": {
        "type": "Point",
        "coordinates": [
          10,
          53.55
        ]
      }
    },
    {
      "type": "Feature",
      "properties": {
        "id": "HUB-RHINE-RUHR",
        "name": "Rhine-Ruhr",
        "territory_id": "DE-02",
        "roles": [
          "rail",
          "motorway",
          "intermodal"
        ],
        "base_capacity": 5,
        "vulnerability": "low",
        "operational_status_source": "world-state"
      },
      "geometry": {
        "type": "Point",
        "coordinates": [
          6.7735,
          51.2277
        ]
      }
    },
    {
      "type": "Feature",
      "properties": {
        "id": "HUB-FRANKFURT",
        "name": "Frankfurt",
        "territory_id": "DE-03",
        "roles": [
          "rail",
          "motorway",
          "intermodal"
        ],
        "base_capacity": 5,
        "vulnerability": "medium",
        "operational_status_source": "world-state"
      },
      "geometry": {
        "type": "Point",
        "coordinates": [
          8.6822,
          50.1106
        ]
      }
    },
    {
      "type": "Feature",
      "properties": {
        "id": "HUB-BERLIN",
        "name": "Berlin",
        "territory_id": "DE-04",
        "roles": [
          "rail",
          "motorway",
          "intermodal"
        ],
        "base_capacity": 5,
        "vulnerability": "medium",
        "operational_status_source": "world-state"
      },
      "geometry": {
        "type": "Point",
        "coordinates": [
          13.405,
          52.52
        ]
      }
    },
    {
      "type": "Feature",
      "properties": {
        "id": "HUB-STUTTGART",
        "name": "Stuttgart",
        "territory_id": "DE-05",
        "roles": [
          "rail",
          "motorway"
        ],
        "base_capacity": 4,
        "vulnerability": "medium",
        "operational_status_source": "world-state"
      },
      "geometry": {
        "type": "Point",
        "coordinates": [
          9.18,
          48.7775
        ]
      }
    },
    {
      "type": "Feature",
      "properties": {
        "id": "HUB-MUNICH",
        "name": "Munich",
        "territory_id": "DE-06",
        "roles": [
          "rail",
          "motorway",
          "intermodal"
        ],
        "base_capacity": 5,
        "vulnerability": "medium",
        "operational_status_source": "world-state"
      },
      "geometry": {
        "type": "Point",
        "coordinates": [
          11.575,
          48.1375
        ]
      }
    },
    {
      "type": "Feature",
      "properties": {
        "id": "HUB-ZURICH",
        "name": "Zurich",
        "territory_id": "CH-01",
        "roles": [
          "rail",
          "motorway",
          "intermodal"
        ],
        "base_capacity": 4,
        "vulnerability": "medium",
        "operational_status_source": "world-state"
      },
      "geometry": {
        "type": "Point",
        "coordinates": [
          8.5417,
          47.3769
        ]
      }
    },
    {
      "type": "Feature",
      "properties": {
        "id": "HUB-MILAN",
        "name": "Milan",
        "territory_id": "IT-01",
        "roles": [
          "rail",
          "motorway",
          "intermodal"
        ],
        "base_capacity": 5,
        "vulnerability": "medium",
        "operational_status_source": "world-state"
      },
      "geometry": {
        "type": "Point",
        "coordinates": [
          9.19,
          45.4669
        ]
      }
    },
    {
      "type": "Feature",
      "properties": {
        "id": "HUB-VERONA",
        "name": "Verona",
        "territory_id": "IT-01",
        "roles": [
          "rail",
          "motorway",
          "intermodal"
        ],
        "base_capacity": 4,
        "vulnerability": "medium",
        "operational_status_source": "world-state"
      },
      "geometry": {
        "type": "Point",
        "coordinates": [
          10.9916,
          45.4384
        ]
      }
    },
    {
      "type": "Feature",
      "properties": {
        "id": "HUB-BOLOGNA",
        "name": "Bologna",
        "territory_id": "IT-02",
        "roles": [
          "rail",
          "motorway",
          "intermodal"
        ],
        "base_capacity": 4,
        "vulnerability": "medium",
        "operational_status_source": "world-state"
      },
      "geometry": {
        "type": "Point",
        "coordinates": [
          11.3426,
          44.4949
        ]
      }
    },
    {
      "type": "Feature",
      "properties": {
        "id": "HUB-ROME",
        "name": "Rome",
        "territory_id": "IT-02",
        "roles": [
          "rail",
          "motorway",
          "intermodal"
        ],
        "base_capacity": 4,
        "vulnerability": "medium",
        "operational_status_source": "world-state"
      },
      "geometry": {
        "type": "Point",
        "coordinates": [
          12.4828,
          41.8931
        ]
      }
    },
    {
      "type": "Feature",
      "properties": {
        "id": "HUB-VIENNA",
        "name": "Vienna",
        "territory_id": "AT-02",
        "roles": [
          "rail",
          "motorway",
          "intermodal"
        ],
        "base_capacity": 5,
        "vulnerability": "medium",
        "operational_status_source": "world-state"
      },
      "geometry": {
        "type": "Point",
        "coordinates": [
          16.3725,
          48.2083
        ]
      }
    },
    {
      "type": "Feature",
      "properties": {
        "id": "HUB-PRAGUE",
        "name": "Prague",
        "territory_id": "CZ-01",
        "roles": [
          "rail",
          "motorway",
          "intermodal"
        ],
        "base_capacity": 5,
        "vulnerability": "medium",
        "operational_status_source": "world-state"
      },
      "geometry": {
        "type": "Point",
        "coordinates": [
          14.4214,
          50.0875
        ]
      }
    },
    {
      "type": "Feature",
      "properties": {
        "id": "HUB-BRNO",
        "name": "Brno",
        "territory_id": "CZ-02",
        "roles": [
          "rail",
          "motorway",
          "intermodal"
        ],
        "base_capacity": 4,
        "vulnerability": "medium",
        "operational_status_source": "world-state"
      },
      "geometry": {
        "type": "Point",
        "coordinates": [
          16.6083,
          49.1925
        ]
      }
    },
    {
      "type": "Feature",
      "properties": {
        "id": "HUB-BRATISLAVA",
        "name": "Bratislava",
        "territory_id": "SK-01",
        "roles": [
          "rail",
          "motorway",
          "intermodal"
        ],
        "base_capacity": 4,
        "vulnerability": "medium",
        "operational_status_source": "world-state"
      },
      "geometry": {
        "type": "Point",
        "coordinates": [
          17.1097,
          48.1439
        ]
      }
    },
    {
      "type": "Feature",
      "properties": {
        "id": "HUB-BUDAPEST",
        "name": "Budapest",
        "territory_id": "HU-01",
        "roles": [
          "rail",
          "motorway",
          "intermodal"
        ],
        "base_capacity": 5,
        "vulnerability": "medium",
        "operational_status_source": "world-state"
      },
      "geometry": {
        "type": "Point",
        "coordinates": [
          19.0514,
          47.4925
        ]
      }
    },
    {
      "type": "Feature",
      "properties": {
        "id": "HUB-WARSAW",
        "name": "Warsaw",
        "territory_id": "PL-03",
        "roles": [
          "rail",
          "motorway",
          "intermodal"
        ],
        "base_capacity": 5,
        "vulnerability": "medium",
        "operational_status_source": "world-state"
      },
      "geometry": {
        "type": "Point",
        "coordinates": [
          21.0111,
          52.23
        ]
      }
    },
    {
      "type": "Feature",
      "properties": {
        "id": "HUB-POZNAN",
        "name": "Poznan",
        "territory_id": "PL-02",
        "roles": [
          "rail",
          "motorway",
          "intermodal"
        ],
        "base_capacity": 4,
        "vulnerability": "medium",
        "operational_status_source": "world-state"
      },
      "geometry": {
        "type": "Point",
        "coordinates": [
          16.9336,
          52.4083
        ]
      }
    },
    {
      "type": "Feature",
      "properties": {
        "id": "HUB-GDANSK",
        "name": "Gdansk",
        "territory_id": "PL-01",
        "roles": [
          "rail",
          "motorway",
          "intermodal"
        ],
        "base_capacity": 4,
        "vulnerability": "medium",
        "operational_status_source": "world-state"
      },
      "geometry": {
        "type": "Point",
        "coordinates": [
          18.6453,
          54.3475
        ]
      }
    },
    {
      "type": "Feature",
      "properties": {
        "id": "HUB-KRAKOW-KATOWICE",
        "name": "Krakow-Katowice",
        "territory_id": "PL-04",
        "roles": [
          "rail",
          "motorway",
          "intermodal"
        ],
        "base_capacity": 5,
        "vulnerability": "low",
        "operational_status_source": "world-state"
      },
      "geometry": {
        "type": "Point",
        "coordinates": [
          19.3,
          50.15
        ]
      }
    },
    {
      "type": "Feature",
      "properties": {
        "id": "HUB-VILNIUS",
        "name": "Vilnius",
        "territory_id": "LT-01",
        "roles": [
          "rail",
          "motorway"
        ],
        "base_capacity": 3,
        "vulnerability": "high",
        "operational_status_source": "world-state"
      },
      "geometry": {
        "type": "Point",
        "coordinates": [
          25.28,
          54.6872
        ]
      }
    },
    {
      "type": "Feature",
      "properties": {
        "id": "HUB-RIGA",
        "name": "Riga",
        "territory_id": "LV-01",
        "roles": [
          "rail",
          "motorway",
          "intermodal"
        ],
        "base_capacity": 4,
        "vulnerability": "high",
        "operational_status_source": "world-state"
      },
      "geometry": {
        "type": "Point",
        "coordinates": [
          24.1064,
          56.9489
        ]
      }
    },
    {
      "type": "Feature",
      "properties": {
        "id": "HUB-TALLINN",
        "name": "Tallinn",
        "territory_id": "EE-01",
        "roles": [
          "rail",
          "motorway",
          "intermodal"
        ],
        "base_capacity": 3,
        "vulnerability": "high",
        "operational_status_source": "world-state"
      },
      "geometry": {
        "type": "Point",
        "coordinates": [
          24.7453,
          59.4372
        ]
      }
    },
    {
      "type": "Feature",
      "properties": {
        "id": "HUB-COPENHAGEN-MALMO",
        "name": "Copenhagen-Malmo",
        "territory_id": "DK-02",
        "roles": [
          "rail",
          "motorway",
          "intermodal"
        ],
        "base_capacity": 5,
        "vulnerability": "high",
        "operational_status_source": "world-state"
      },
      "geometry": {
        "type": "Point",
        "coordinates": [
          12.75,
          55.64
        ]
      }
    },
    {
      "type": "Feature",
      "properties": {
        "id": "HUB-STOCKHOLM",
        "name": "Stockholm",
        "territory_id": "SE-02",
        "roles": [
          "rail",
          "motorway",
          "intermodal"
        ],
        "base_capacity": 4,
        "vulnerability": "medium",
        "operational_status_source": "world-state"
      },
      "geometry": {
        "type": "Point",
        "coordinates": [
          18.0686,
          59.3294
        ]
      }
    },
    {
      "type": "Feature",
      "properties": {
        "id": "HUB-OSLO",
        "name": "Oslo",
        "territory_id": "NO-01",
        "roles": [
          "rail",
          "motorway",
          "intermodal"
        ],
        "base_capacity": 4,
        "vulnerability": "medium",
        "operational_status_source": "world-state"
      },
      "geometry": {
        "type": "Point",
        "coordinates": [
          10.7389,
          59.9133
        ]
      }
    },
    {
      "type": "Feature",
      "properties": {
        "id": "HUB-HELSINKI",
        "name": "Helsinki",
        "territory_id": "FI-01",
        "roles": [
          "rail",
          "motorway",
          "intermodal"
        ],
        "base_capacity": 4,
        "vulnerability": "medium",
        "operational_status_source": "world-state"
      },
      "geometry": {
        "type": "Point",
        "coordinates": [
          24.9375,
          60.1708
        ]
      }
    },
    {
      "type": "Feature",
      "properties": {
        "id": "HUB-MADRID",
        "name": "Madrid",
        "territory_id": "ES-04",
        "roles": [
          "rail",
          "motorway",
          "intermodal"
        ],
        "base_capacity": 5,
        "vulnerability": "low",
        "operational_status_source": "world-state"
      },
      "geometry": {
        "type": "Point",
        "coordinates": [
          -3.7033,
          40.4169
        ]
      }
    },
    {
      "type": "Feature",
      "properties": {
        "id": "HUB-BARCELONA",
        "name": "Barcelona",
        "territory_id": "ES-03",
        "roles": [
          "rail",
          "motorway",
          "intermodal"
        ],
        "base_capacity": 5,
        "vulnerability": "medium",
        "operational_status_source": "world-state"
      },
      "geometry": {
        "type": "Point",
        "coordinates": [
          2.1769,
          41.3825
        ]
      }
    },
    {
      "type": "Feature",
      "properties": {
        "id": "HUB-ZARAGOZA",
        "name": "Zaragoza",
        "territory_id": "ES-04",
        "roles": [
          "rail",
          "motorway",
          "intermodal"
        ],
        "base_capacity": 4,
        "vulnerability": "low",
        "operational_status_source": "world-state"
      },
      "geometry": {
        "type": "Point",
        "coordinates": [
          -0.8891,
          41.6488
        ]
      }
    },
    {
      "type": "Feature",
      "properties": {
        "id": "HUB-LISBON",
        "name": "Lisbon",
        "territory_id": "PT-02",
        "roles": [
          "rail",
          "motorway",
          "intermodal"
        ],
        "base_capacity": 4,
        "vulnerability": "medium",
        "operational_status_source": "world-state"
      },
      "geometry": {
        "type": "Point",
        "coordinates": [
          -9.15,
          38.7253
        ]
      }
    },
    {
      "type": "Feature",
      "properties": {
        "id": "HUB-ZAGREB",
        "name": "Zagreb",
        "territory_id": "HR-01",
        "roles": [
          "rail",
          "motorway",
          "intermodal"
        ],
        "base_capacity": 4,
        "vulnerability": "medium",
        "operational_status_source": "world-state"
      },
      "geometry": {
        "type": "Point",
        "coordinates": [
          15.9833,
          45.8167
        ]
      }
    },
    {
      "type": "Feature",
      "properties": {
        "id": "HUB-LJUBLJANA",
        "name": "Ljubljana",
        "territory_id": "SI-01",
        "roles": [
          "rail",
          "motorway"
        ],
        "base_capacity": 3,
        "vulnerability": "medium",
        "operational_status_source": "world-state"
      },
      "geometry": {
        "type": "Point",
        "coordinates": [
          14.5061,
          46.0514
        ]
      }
    },
    {
      "type": "Feature",
      "properties": {
        "id": "HUB-BELGRADE",
        "name": "Belgrade",
        "territory_id": "RS-01",
        "roles": [
          "rail",
          "motorway",
          "intermodal"
        ],
        "base_capacity": 5,
        "vulnerability": "medium",
        "operational_status_source": "world-state"
      },
      "geometry": {
        "type": "Point",
        "coordinates": [
          20.46,
          44.82
        ]
      }
    },
    {
      "type": "Feature",
      "properties": {
        "id": "HUB-BUCHAREST",
        "name": "Bucharest",
        "territory_id": "RO-02",
        "roles": [
          "rail",
          "motorway",
          "intermodal"
        ],
        "base_capacity": 5,
        "vulnerability": "medium",
        "operational_status_source": "world-state"
      },
      "geometry": {
        "type": "Point",
        "coordinates": [
          26.1039,
          44.4325
        ]
      }
    },
    {
      "type": "Feature",
      "properties": {
        "id": "HUB-SOFIA",
        "name": "Sofia",
        "territory_id": "BG-01",
        "roles": [
          "rail",
          "motorway",
          "intermodal"
        ],
        "base_capacity": 4,
        "vulnerability": "medium",
        "operational_status_source": "world-state"
      },
      "geometry": {
        "type": "Point",
        "coordinates": [
          23.33,
          42.7
        ]
      }
    },
    {
      "type": "Feature",
      "properties": {
        "id": "HUB-THESSALONIKI",
        "name": "Thessaloniki",
        "territory_id": "GR-01",
        "roles": [
          "rail",
          "motorway",
          "intermodal"
        ],
        "base_capacity": 4,
        "vulnerability": "medium",
        "operational_status_source": "world-state"
      },
      "geometry": {
        "type": "Point",
        "coordinates": [
          22.9347,
          40.6403
        ]
      }
    },
    {
      "type": "Feature",
      "properties": {
        "id": "HUB-ISTANBUL",
        "name": "Istanbul",
        "territory_id": "TR-01",
        "roles": [
          "rail",
          "motorway",
          "intermodal"
        ],
        "base_capacity": 5,
        "vulnerability": "high",
        "operational_status_source": "world-state"
      },
      "geometry": {
        "type": "Point",
        "coordinates": [
          28.955,
          41.0136
        ]
      }
    },
    {
      "type": "Feature",
      "properties": {
        "id": "HUB-LVIV",
        "name": "Lviv",
        "territory_id": "UA-01",
        "roles": [
          "rail",
          "motorway",
          "intermodal"
        ],
        "base_capacity": 4,
        "vulnerability": "medium",
        "operational_status_source": "world-state"
      },
      "geometry": {
        "type": "Point",
        "coordinates": [
          24.0322,
          49.8425
        ]
      }
    },
    {
      "type": "Feature",
      "properties": {
        "id": "HUB-KYIV",
        "name": "Kyiv",
        "territory_id": "UA-02",
        "roles": [
          "rail",
          "motorway",
          "intermodal"
        ],
        "base_capacity": 5,
        "vulnerability": "medium",
        "operational_status_source": "world-state"
      },
      "geometry": {
        "type": "Point",
        "coordinates": [
          30.5233,
          50.45
        ]
      }
    },
    {
      "type": "Feature",
      "properties": {
        "id": "HUB-ODESA",
        "name": "Odesa",
        "territory_id": "UA-04",
        "roles": [
          "rail",
          "motorway",
          "intermodal"
        ],
        "base_capacity": 4,
        "vulnerability": "medium",
        "operational_status_source": "world-state"
      },
      "geometry": {
        "type": "Point",
        "coordinates": [
          30.7326,
          46.4775
        ]
      }
    },
    {
      "type": "Feature",
      "properties": {
        "id": "HUB-BREST",
        "name": "Brest",
        "territory_id": "BY-01",
        "roles": [
          "rail",
          "motorway",
          "gauge-transfer"
        ],
        "base_capacity": 4,
        "vulnerability": "high",
        "operational_status_source": "world-state"
      },
      "geometry": {
        "type": "Point",
        "coordinates": [
          23.6569,
          52.1347
        ]
      }
    },
    {
      "type": "Feature",
      "properties": {
        "id": "HUB-MINSK",
        "name": "Minsk",
        "territory_id": "BY-02",
        "roles": [
          "rail",
          "motorway",
          "intermodal"
        ],
        "base_capacity": 5,
        "vulnerability": "medium",
        "operational_status_source": "world-state"
      },
      "geometry": {
        "type": "Point",
        "coordinates": [
          27.5667,
          53.9
        ]
      }
    },
    {
      "type": "Feature",
      "properties": {
        "id": "HUB-KALININGRAD",
        "name": "Kaliningrad",
        "territory_id": "RU-01",
        "roles": [
          "rail",
          "motorway",
          "intermodal"
        ],
        "base_capacity": 3,
        "vulnerability": "high",
        "operational_status_source": "world-state"
      },
      "geometry": {
        "type": "Point",
        "coordinates": [
          20.4531,
          54.7003
        ]
      }
    },
    {
      "type": "Feature",
      "properties": {
        "id": "HUB-ST-PETERSBURG",
        "name": "St Petersburg",
        "territory_id": "RU-02",
        "roles": [
          "rail",
          "motorway",
          "intermodal"
        ],
        "base_capacity": 5,
        "vulnerability": "medium",
        "operational_status_source": "world-state"
      },
      "geometry": {
        "type": "Point",
        "coordinates": [
          30.3351,
          59.9343
        ]
      }
    },
    {
      "type": "Feature",
      "properties": {
        "id": "HUB-MOSCOW",
        "name": "Moscow",
        "territory_id": "RU-03",
        "roles": [
          "rail",
          "motorway",
          "intermodal"
        ],
        "base_capacity": 5,
        "vulnerability": "low",
        "operational_status_source": "world-state"
      },
      "geometry": {
        "type": "Point",
        "coordinates": [
          37.6178,
          55.7558
        ]
      }
    },
    {
      "type": "Feature",
      "properties": {
        "id": "HUB-NIZHNY",
        "name": "Nizhny Novgorod",
        "territory_id": "RU-04",
        "roles": [
          "rail",
          "motorway",
          "intermodal"
        ],
        "base_capacity": 4,
        "vulnerability": "low",
        "operational_status_source": "world-state"
      },
      "geometry": {
        "type": "Point",
        "coordinates": [
          44.0059,
          56.2965
        ]
      }
    },
    {
      "type": "Feature",
      "properties": {
        "id": "HUB-ROSTOV",
        "name": "Rostov-on-Don",
        "territory_id": "RU-05",
        "roles": [
          "rail",
          "motorway",
          "intermodal"
        ],
        "base_capacity": 5,
        "vulnerability": "medium",
        "operational_status_source": "world-state"
      },
      "geometry": {
        "type": "Point",
        "coordinates": [
          39.7015,
          47.2357
        ]
      }
    }
  ]
}
